street_name,latitude,longitude
"UNIVERSITY AVENUE, SAN DEIGO",32.7511595,-117.1084012
"EL CAJON BOULEVARD, SAN DEIGO",32.7570993,-117.0846961
"FRIARS ROAD, SAN DEIGO",32.7747497,-117.1538667
"MIRA MESA BOULEVARD, SAN DEIGO",32.909373,-117.1602998
"GARNET AVENUE, SAN DEIGO",32.801394,-117.2335118
"GENESEE AVENUE, SAN DEIGO",32.8406331,-117.1970729
"BALBOA AVENUE, SAN DEIGO",32.8214003,-117.1641589
"CLAIREMONT MESA BOULEVARD, SAN DEIGO",32.8328837,-117.1465924
"EUCLID AVENUE, SAN DEIGO",32.7335973,-117.0879964
"IMPERIAL AVENUE, SAN DEIGO",32.7041762,-117.0988461
"MARKET STREET, SAN DEIGO",32.7117453,-117.1192217
"COLLEGE AVENUE, SAN DEIGO",32.7655983,-117.0668028
"MIRAMAR ROAD, SAN DEIGO",32.8823075,-117.1556556
"FAIRMOUNT AVENUE, SAN DEIGO",32.7570959,-117.1018655
"MISSION BOULEVARD, SAN DEIGO",32.7844544,-117.2528639
"CARMEL MTN ROAD, SAN DEIGO",32.9630893,-117.1307777
"PALM AVENUE, SAN DEIGO",32.5837524,-117.0600074
"SUNSET CLIFFS BOULEVARD, SAN DEIGO",32.7451609,-117.2472265
"ROSECRANS STREET, SAN DEIGO",32.7263225,-117.227755
"LINDA VISTA ROAD, SAN DEIGO",32.786471,-117.1703762
"30TH STREET, SAN DEIGO",32.7347209,-117.1293344
"BLACK MTN ROAD, SAN DEIGO",32.9390205,-117.1284305
"05TH AVENUE, SAN DEIGO",32.7313918,-117.1602848
"06TH AVENUE, SAN DEIGO",32.712074,-117.158949
"BROADWAY  , SAN DEIGO",32.7158006,-117.14316
"INGRAHAM STREET, SAN DEIGO",32.7827648,-117.2366369
"54TH STREET, SAN DEIGO",32.7475041,-117.0795356
"GRAND AVENUE, SAN DEIGO",32.7989261,-117.2352598
"LA JOLLA VILLAGE DRIVE, SAN DEIGO",32.8717938,-117.2177712
"47TH STREET, SAN DEIGO",32.7156632,-117.093584
"WASHINGTON STREET, SAN DEIGO",32.7503682,-117.1556464
"MONTEZUMA ROAD, SAN DEIGO",32.7707732,-117.0769362
"SPORTS ARENA BOULEVARD, SAN DEIGO",32.7533935,-117.2105087
"G STREET, SAN DEIGO",32.7126416,-117.1449255
"TORREY PINES ROAD, SAN DEIGO",32.8505015,-117.2550034
"04TH AVENUE, SAN DEIGO",32.7548564,-117.1616766
"CONVOY STREET, SAN DEIGO",32.8271444,-117.1540176
"ORANGE AVENUE, SAN DEIGO",32.7531809,-117.1010695
"MORENA BOULEVARD, SAN DEIGO",32.7942808,-117.2072706
"WEST POINT LOMA BOULEVARD, SAN DEIGO",32.7519772,-117.2345834
"CLAIREMONT DRIVE, SAN DEIGO",32.8108193,-117.2009254
"PACIFIC HIGHWAY, SAN DEIGO",32.7418916,-117.1880823
"CAM DEL RIO NORTH  , SAN DEIGO",32.773866,-117.1312841
"HOME AVENUE, SAN DEIGO",32.7245411,-117.1051462
"LOGAN AVENUE, SAN DEIGO",32.6970864,-117.1135451
"ADAMS AVENUE, SAN DEIGO",32.7633799,-117.1236636
"MIDWAY DRIVE, SAN DEIGO",32.7503917,-117.2089341
"MISSION GORGE ROAD, SAN DEIGO",32.8173668,-117.0534036
"CARMEL VALLEY ROAD, SAN DEIGO",32.9721969,-117.1513028
"CORONADO AVENUE, SAN DEIGO",32.7373174,-117.2460431
"PARK BOULEVARD, SAN DEIGO",32.7325121,-117.1461424
"BERNARDO CENTER DRIVE, SAN DEIGO",33.0109645,-117.0855235
"SAN YSIDRO BOULEVARD, SAN DEIGO",32.557066,-117.0580389
"MISSION BAY DRIVE, SAN DEIGO",32.8008291,-117.2141037
"CAM RUIZ  , SAN DEIGO",32.9138604,-117.1438019
"WEST MISSION BAY DRIVE, SAN DEIGO",32.7644933,-117.2348852
"01ST AVENUE, SAN DEIGO",32.722346,-117.1634918
"NATIONAL AVENUE, SAN DEIGO",32.6959738,-117.1274587
"OCEAN VIEW BOULEVARD, SAN DEIGO",32.7012733,-117.1126985
"DEL MAR HEIGHTS ROAD, SAN DEIGO",32.9562322,-117.2266166
"32ND STREET, SAN DEIGO",32.734557,-117.1250616
"KEARNY VILLA ROAD, SAN DEIGO",32.84487319999999,-117.1270973
"F STREET, SAN DEIGO",32.7137207,-117.1413362
"43RD STREET, SAN DEIGO",32.7487613,-117.1020379
"RANCHO BERNARDO ROAD, SAN DEIGO",33.0244475,-117.0860445
"MAIN STREET, SAN DEIGO",32.6928185,-117.1299573
"AERO DRIVE, SAN DEIGO",32.8098412,-117.1294501
"ASH STREET, SAN DEIGO",32.7199041,-117.1593048
"CAM DEL RIO SOUTH  , SAN DEIGO",32.7713532,-117.1295335
"SEA WORLD DRIVE, SAN DEIGO",32.7611102,-117.2200109
"MISSION CENTER ROAD, SAN DEIGO",32.7756139,-117.1540524
"EL CAMINO REAL  , SAN DEIGO",32.7308829,-117.1546501
"PARADISE VALLEY ROAD, SAN DEIGO",32.6905972,-117.0429154
"28TH STREET, SAN DEIGO",32.7267341,-117.1338386
"NIMITZ BOULEVARD, SAN DEIGO",32.73960539999999,-117.2315293
"16TH STREET, SAN DEIGO",32.7121738,-117.1494605
"POMERADO ROAD, SAN DEIGO",32.9736692,-117.0625193
"VILLA LA JOLLA DRIVE, SAN DEIGO",32.8697501,-117.233771
"10TH AVENUE, SAN DEIGO",32.7151918,-117.1555991
"MURPHY CANYON ROAD, SAN DEIGO",32.8139647,-117.116019
"NAVAJO ROAD, SAN DEIGO",32.8032973,-117.033801
"FEDERAL BOULEVARD, SAN DEIGO",32.7214531,-117.0954039
"VOLTAIRE STREET, SAN DEIGO",32.7441429,-117.2350978
"A STREET, SAN DEIGO",32.715738,-117.1610838
"CAM DE LA PLAZA  , SAN DEIGO",32.9922913,-117.1641679
"RUFFIN ROAD, SAN DEIGO",32.8242047,-117.1274958
"MEADE AVENUE, SAN DEIGO",32.7572952,-117.1277095
"MONROE AVENUE, SAN DEIGO",32.7590267,-117.1165387
"HARBOR DRIVE, SAN DEIGO",32.7093836,-117.1628654
"KETTNER BOULEVARD, SAN DEIGO",32.7270983,-117.1707063
"BEYER BOULEVARD, SAN DEIGO",32.5708441,-117.0645134
"MESA COLLEGE DRIVE, SAN DEIGO",32.801243,-117.159341
"INDIA STREET, SAN DEIGO",32.7293253,-117.1707282
"B STREET, SAN DEIGO",32.7179245,-117.1355202
"REGENTS ROAD, SAN DEIGO",32.8552341,-117.2176154
"CAM DE LA REINA  , SAN DEIGO",32.7681203,-117.1537622
"LA JOLLA BOULEVARD, SAN DEIGO",32.8215207,-117.2743268
"WESTVIEW PARKWAY, SAN DEIGO",32.9242047,-117.1192315
"SCRIPPS POWAY PARKWAY, SAN DEIGO",32.9388038,-117.1049449
"SATURN BOULEVARD, SAN DEIGO",32.5715522,-117.0927764
"RANCHO PENASQUITOS BOULEVARD, SAN DEIGO",32.9541595,-117.1087481
"NORTH TORREY PINES ROAD, SAN DEIGO",32.9055808,-117.2435997
"WEST BERNARDO DRIVE, SAN DEIGO",33.0323653,-117.0810413
"SKYLINE DRIVE, SAN DEIGO",32.7027459,-117.0474929
"TEXAS STREET, SAN DEIGO",32.755521,-117.1388501
"11TH AVENUE, SAN DEIGO",32.7152044,-117.1547046
"VIA DE LA VALLE  , SAN DEIGO",32.9809511,-117.2373332
"25TH STREET, SAN DEIGO",32.7124148,-117.1402597
"NOBEL DRIVE, SAN DEIGO",32.867186,-117.2121012
"03RD AVENUE, SAN DEIGO",32.7109872,-117.1621848
"FRONT STREET, SAN DEIGO",32.7324099,-117.1648615
"WIGHTMAN STREET, SAN DEIGO",32.7477532,-117.0999832
"35TH STREET, SAN DEIGO",32.7592833,-117.1179504
"POWAY ROAD, SAN DEIGO",32.946585,-117.0917802
"ISLAND AVENUE, SAN DEIGO",32.7105282,-117.1402381
"ROBINSON AVENUE, SAN DEIGO",32.746404,-117.1552801
"CAM DEL SUR  , SAN DEIGO",32.9772032,-117.1472087
"SAN PASQUAL VALLEY ROAD, SAN DEIGO",33.0927452,-116.9657453
"GRAPE STREET, SAN DEIGO",32.7265558,-117.1338358
"POLK AVENUE, SAN DEIGO",32.7515565,-117.1161893
"C STREET, SAN DEIGO",32.7168412,-117.1431665
"36TH STREET, SAN DEIGO",32.7532835,-117.1155332
"CAM DEL NORTE  , SAN DEIGO",33.0046055,-117.0920443
"LAUREL STREET, SAN DEIGO",32.7314329,-117.0885627
"WOODMAN STREET, SAN DEIGO",32.7071047,-117.0549205
"33RD STREET, SAN DEIGO",32.7350137,-117.1231116
"RIO SAN DIEGO DRIVE, SAN DEIGO",32.776123,-117.1383141
"17TH STREET, SAN DEIGO",32.71444020000001,-117.1484985
"HOLLISTER STREET, SAN DEIGO",32.5691699,-117.0840422
"COLLWOOD BOULEVARD, SAN DEIGO",32.7645434,-117.0834453
"CAM DEL RIO WEST  , SAN DEIGO",32.7579123,-117.2041145
"DIVISION STREET, SAN DEIGO",32.6895362,-117.08511
"BACON STREET, SAN DEIGO",32.7502182,-117.2481665
"07TH AVENUE, SAN DEIGO",32.7451424,-117.1583824
"TAYLOR STREET, SAN DEIGO",32.7601584,-117.1929259
"SANTO ROAD, SAN DEIGO",32.8212353,-117.1039542
"EAST MISSION BAY DRIVE, SAN DEIGO",32.7787436,-117.2096612
"50TH STREET, SAN DEIGO",32.7549152,-117.0868589
"PACIFIC BEACH DRIVE, SAN DEIGO",32.7938047,-117.2397877
"TIERRASANTA BOULEVARD, SAN DEIGO",32.8204312,-117.0971896
"J STREET, SAN DEIGO",32.7094837,-117.139905
"41ST STREET, SAN DEIGO",32.7487064,-117.1069479
"31ST STREET, SAN DEIGO",32.7270344,-117.1274588
"40TH STREET, SAN DEIGO",32.7488482,-117.1095012
"SHAWLINE STREET, SAN DEIGO",32.8317423,-117.1638222
"GIRARD AVENUE, SAN DEIGO",32.8429889,-117.273295
"HAWTHORN STREET, SAN DEIGO",32.7275907,-117.1334626
"GOVERNOR DRIVE, SAN DEIGO",32.85422490000001,-117.2002723
"09TH AVENUE, SAN DEIGO",32.7162846,-117.1565394
"CARROLL CANYON ROAD, SAN DEIGO",32.8900452,-117.1990907
"LAMONT STREET, SAN DEIGO",32.800072,-117.235046
"PALM STREET, SAN DEIGO",32.7356311,-117.1259667
"NEWPORT AVENUE, SAN DEIGO",32.7431327,-117.2449981
"DENNERY ROAD, SAN DEIGO",32.58258070000001,-117.032392
"LA JOLLA SHORES DRIVE, SAN DEIGO",32.8644361,-117.2524296
"JACKSON DRIVE, SAN DEIGO",32.812505,-117.0530696
"14TH STREET, SAN DEIGO",32.7109395,-117.1519044
"MADISON AVENUE, SAN DEIGO",32.7610413,-117.1298981
"COMMERCIAL STREET, SAN DEIGO",32.7052234,-117.1381821
"HOWARD AVENUE, SAN DEIGO",32.7540586,-117.1359252
"KEARNY MESA ROAD, SAN DEIGO",32.8166401,-117.1500185
"ALTA VIEW DRIVE, SAN DEIGO",32.679334,-117.0462121
"TROJAN AVENUE, SAN DEIGO",32.7548863,-117.0804211
"ALVARADO ROAD, SAN DEIGO",32.7772514,-117.0573279
"TOWNE CENTRE DRIVE, SAN DEIGO",32.8764206,-117.2075912
"45TH STREET, SAN DEIGO",32.6986625,-117.0980253
"FENTON PARKWAY, SAN DEIGO",32.7808606,-117.1309936
"CHAMOUNE AVENUE, SAN DEIGO",32.7461551,-117.0966248
"08TH AVENUE, SAN DEIGO",32.71068,-117.160293
"E STREET, SAN DEIGO",32.7147828,-117.1396863
"38TH STREET, SAN DEIGO",32.7487724,-117.111902
"60TH STREET, SAN DEIGO",32.7571494,-117.0685582
"LINCOLN AVENUE, SAN DEIGO",32.7503174,-117.1378861
"CATALINA BOULEVARD, SAN DEIGO",32.7270242,-117.2443204
"MURRAY RIDGE ROAD, SAN DEIGO",32.7932367,-117.1445763
"CAM DEL RIO  , SAN DEIGO",32.7713532,-117.1295335
"ULRIC STREET, SAN DEIGO",32.7841029,-117.1694194
"CASS STREET, SAN DEIGO",32.8020211,-117.2532593
"39TH STREET, SAN DEIGO",32.7403575,-117.1107476
"02ND AVENUE, SAN DEIGO",32.7256183,-117.1629788
"PICADOR BOULEVARD, SAN DEIGO",32.5751721,-117.0548495
"BEECH STREET, SAN DEIGO",32.7196538,-117.0922855
"46TH STREET, SAN DEIGO",32.7439765,-117.0957772
"15TH STREET, SAN DEIGO",32.7109884,-117.1503583
"BOUNDARY STREET, SAN DEIGO",32.745101,-117.1219873
"COLLEGE GROVE DRIVE, SAN DEIGO",32.7352312,-117.0662403
"HANCOCK STREET, SAN DEIGO",32.7440881,-117.1877785
"RANCHO CARMEL DRIVE, SAN DEIGO",32.9762841,-117.0835653
"44TH STREET, SAN DEIGO",32.7458691,-117.0998172
"WARING ROAD, SAN DEIGO",32.7908245,-117.0824552
"CARMEL COUNTRY ROAD, SAN DEIGO",32.9420719,-117.2129745
"MEADOWBROOK DRIVE, SAN DEIGO",32.7077946,-117.0336657
"DAIRY MART ROAD, SAN DEIGO",32.5558122,-117.0624264
"GOLD COAST DRIVE, SAN DEIGO",32.9057264,-117.1359092
"LA JOLLA PARKWAY, SAN DEIGO",32.8421331,-117.2395584
"JAMACHA ROAD, SAN DEIGO",32.7128406,-117.0364748
"CESAR E CHAVEZ PARKWAY, SAN DEIGO",32.7004597,-117.1452449
"WINONA AVENUE, SAN DEIGO",32.7566451,-117.0879223
"DEL SOL BOULEVARD, SAN DEIGO",32.5735711,-117.0509606
"HEALTH CENTER DRIVE, SAN DEIGO",32.7974073,-117.1565689
"CHATSWORTH BOULEVARD, SAN DEIGO",32.7386226,-117.2292628
"PEARL STREET, SAN DEIGO",32.8400973,-117.2741998
"SCRIPPS RANCH BOULEVARD, SAN DEIGO",32.9118626,-117.1098261
"SAN DIEGO MISSION ROAD, SAN DEIGO",32.78516,-117.1110704
"VALLEY CENTRE DRIVE, SAN DEIGO",32.937653,-117.2323856
"CAM SANTA FE  , SAN DEIGO",33.0321337,-117.1245533
"PERSHING DRIVE, SAN DEIGO",32.7261709,-117.1418636
"TED WILLIAMS PARKWAY, SAN DEIGO",32.96647859999999,-117.0853146
"THOMAS AVENUE, SAN DEIGO",32.7966876,-117.2408884
"HORNBLEND STREET, SAN DEIGO",32.798042,-117.244232
"POTOMAC STREET, SAN DEIGO",32.6797736,-117.0588194
"SORRENTO VALLEY BOULEVARD, SAN DEIGO",32.9104282,-117.2011179
"K STREET, SAN DEIGO",32.7084411,-117.1395727
"58TH STREET, SAN DEIGO",32.7523974,-117.0720483
"WESTONHILL DRIVE, SAN DEIGO",32.9182202,-117.135689
"PARKSIDE AVENUE, SAN DEIGO",32.670056,-117.0484384
"55TH STREET, SAN DEIGO",32.7690105,-117.0762616
"MARLBOROUGH AVENUE, SAN DEIGO",32.7477854,-117.1057279
"SAN DIEGO AVENUE, SAN DEIGO",32.747108,-117.1906002
"EASTGATE MALL, SAN DEIGO",32.8806387,-117.2022914
"LANDIS STREET, SAN DEIGO",32.7459623,-117.1106638
"MIRAMAR WAY, SAN DEIGO",32.883804,-117.1330021
"FLORIDA STREET, SAN DEIGO",32.7521644,-117.14376
"NEWTON AVENUE, SAN DEIGO",32.6949439,-117.125313
"AKINS AVENUE, SAN DEIGO",32.7109108,-117.0580697
"BARNETT AVENUE, SAN DEIGO",32.7444042,-117.2016893
"CARMEL CREEK ROAD, SAN DEIGO",32.9373845,-117.2292627
"NORTH HARBOR DRIVE, SAN DEIGO",32.7293076,-117.1997407
"CABLE STREET, SAN DEIGO",32.7453709,-117.2497045
"49TH STREET, SAN DEIGO",32.7575952,-117.0889914
"52ND STREET, SAN DEIGO",32.7491368,-117.0835847
"MISSION VILLAGE DRIVE, SAN DEIGO",32.7923761,-117.1226651
"COWLEY WAY, SAN DEIGO",32.7945385,-117.191219
"OCEAN BOULEVARD, SAN DEIGO",32.798138,-117.257362
"CEDAR STREET, SAN DEIGO",32.7219778,-117.1615697
"REDWOOD STREET, SAN DEIGO",32.738844,-117.1163791
"SOLEDAD MTN ROAD, SAN DEIGO",32.8191365,-117.2350081
"70TH STREET, SAN DEIGO",32.7695292,-117.0470182
"BAYVIEW HEIGHTS DRIVE, SAN DEIGO",32.7242693,-117.0775942
"42ND STREET, SAN DEIGO",32.7523393,-117.1044309
"IRIS AVENUE, SAN DEIGO",32.56912,-117.0681448
"ORO VISTA ROAD, SAN DEIGO",32.5677018,-117.0776021
"MARLBOROUGH DRIVE, SAN DEIGO",32.7672142,-117.1062755
"ILLINOIS STREET, SAN DEIGO",32.7547141,-117.1277106
"SORRENTO VALLEY ROAD, SAN DEIGO",32.905218,-117.2269374
"OTAY MESA ROAD, SAN DEIGO",32.5678881,-116.9804498
"MENLO AVENUE, SAN DEIGO",32.7458826,-117.0944717
"FELSPAR STREET, SAN DEIGO",32.7989021,-117.2493797
"HOTEL CIRCLE SOUTH  , SAN DEIGO",32.7589782,-117.1770853
"OHIO STREET, SAN DEIGO",32.7559346,-117.1289521
"FAY AVENUE, SAN DEIGO",32.8395191,-117.2735002
"BAYARD STREET, SAN DEIGO",32.7999983,-117.254587
"GOLFCREST DRIVE, SAN DEIGO",32.8081055,-117.0407532
"DIAMOND STREET, SAN DEIGO",32.8019873,-117.2444748
"JEWELL STREET, SAN DEIGO",32.7947918,-117.2373112
"EVERTS STREET, SAN DEIGO",32.8000513,-117.2487534
"FANUEL STREET, SAN DEIGO",32.8009291,-117.2470721
"EXECUTIVE DRIVE, SAN DEIGO",32.8760778,-117.2096999
"BOSTON AVENUE, SAN DEIGO",32.6939141,-117.1178289
"COAST BOULEVARD, SAN DEIGO",32.8450381,-117.2784869
"FLANDERS DRIVE, SAN DEIGO",32.9069902,-117.1532354
"29TH STREET, SAN DEIGO",32.7270669,-117.131984
"VAN DYKE AVENUE, SAN DEIGO",32.7514573,-117.1032332
"NEW SALEM STREET, SAN DEIGO",32.9155518,-117.1494799
"CALLE CRISTOBAL  , SAN DEIGO",32.92759400000001,-117.1623621
"FROST STREET, SAN DEIGO",32.8002545,-117.1530759
"TURQUOISE STREET, SAN DEIGO",32.809277,-117.2562078
"ADOBE FALLS ROAD, SAN DEIGO",32.7824851,-117.0778117
"CHEROKEE AVENUE, SAN DEIGO",32.7524163,-117.1143282
"SPRING CANYON ROAD, SAN DEIGO",32.921786,-117.0630275
"LAKE MURRAY BOULEVARD, SAN DEIGO",32.7905179,-117.0209907
"OREGON STREET, SAN DEIGO",32.7572784,-117.1351377
"HIGHLAND AVENUE, SAN DEIGO",32.7458639,-117.0987762
"37TH STREET, SAN DEIGO",32.7515385,-117.1131259
"19TH STREET, SAN DEIGO",32.7126106,-117.1466897
"ASHFORD STREET, SAN DEIGO",32.810624,-117.1599087
"SANTA MONICA AVENUE, SAN DEIGO",32.7445151,-117.2451352
"CAPRICORN WAY, SAN DEIGO",32.9250008,-117.1309776
"UPAS STREET, SAN DEIGO",32.7409805,-117.1370684
"JUNIPER STREET, SAN DEIGO",32.729633,-117.125282
"ALTADENA AVENUE, SAN DEIGO",32.7582743,-117.0857596
"EBERS STREET, SAN DEIGO",32.7426193,-117.2467722
"SABRE SPRINGS PARKWAY, SAN DEIGO",32.9565092,-117.0936388
"RANCHO MISSION ROAD, SAN DEIGO",32.7854254,-117.1103972
"EMERALD STREET, SAN DEIGO",32.8016481,-117.2414398
"LEBON DRIVE, SAN DEIGO",32.8678866,-117.2247315
"HOTEL SOUTH CIRCLE, SAN DEIGO",32.7589782,-117.1770853
"DELTA STREET, SAN DEIGO",32.6887676,-117.1038107
"BERYL STREET, SAN DEIGO",32.8065048,-117.2419501
"ZION AVENUE, SAN DEIGO",32.7929266,-117.0889703
"REO DRIVE, SAN DEIGO",32.6728137,-117.0621611
"NAUTILUS STREET, SAN DEIGO",32.8323323,-117.2648349
"NAPA STREET, SAN DEIGO",32.7649435,-117.1964535
"REAGAN ROAD, SAN DEIGO",32.9140506,-117.1493543
"ABBOTT STREET, SAN DEIGO",32.7511022,-117.2500739
"BANCROFT STREET, SAN DEIGO",32.7437939,-117.1239335
"KURTZ STREET, SAN DEIGO",32.7539478,-117.2065397
"FASHION VALLEY ROAD, SAN DEIGO",32.7651084,-117.170485
"SIEMPRE VIVA ROAD, SAN DEIGO",32.5533034,-116.9556627
"BERNARDO HEIGHTS PARKWAY, SAN DEIGO",33.0050085,-117.0708052
"RIVIERA DRIVE, SAN DEIGO",32.7865598,-117.2397114
"MT ACADIA BOULEVARD, SAN DEIGO",32.8041913,-117.1841264
"HILLERY DRIVE, SAN DEIGO",32.9128815,-117.1272337
"ALABAMA STREET, SAN DEIGO",32.7512384,-117.1425249
"WORLD TRADE DRIVE, SAN DEIGO",32.98369,-117.0738674
"34TH STREET, SAN DEIGO",32.7316459,-117.1208491
"CANON STREET, SAN DEIGO",32.7246492,-117.2364626
"MERCURY STREET, SAN DEIGO",32.8269782,-117.1488462
"SWIFT AVENUE, SAN DEIGO",32.7519678,-117.1192794
"CHARMANT DRIVE, SAN DEIGO",32.8621796,-117.2289074
"FIESTA ISLAND ROAD, SAN DEIGO",32.7786036,-117.2178504
"NORTHSIDE DRIVE, SAN DEIGO",32.7836083,-117.1274913
"STATE STREET, SAN DEIGO",32.7277683,-117.168894
"WABASH AVENUE, SAN DEIGO",32.7497599,-117.1210143
"FLORIDA DRIVE, SAN DEIGO",32.7317856,-117.1431839
"26TH STREET, SAN DEIGO",32.7143118,-117.138189
"COMSTOCK STREET, SAN DEIGO",32.7897146,-117.1750476
"I-5 SB  , SAN DEIGO",40.7849921,-122.3083332
"QUALCOMM WAY, SAN DEIGO",32.7733055,-117.1403524
"HOTEL CIRCLE, SAN DEIGO",32.758417,-117.1743352
"MT ALIFAN DRIVE, SAN DEIGO",32.8162315,-117.1851886
"OTHELLO AVENUE, SAN DEIGO",32.8171659,-117.1543141
"COLUMBIA STREET, SAN DEIGO",32.7285844,-117.1696004
"ACTIVITY ROAD, SAN DEIGO",32.8968053,-117.1289213
"ZOO DRIVE, SAN DEIGO",32.7366353,-117.1489752
"SCRANTON ROAD, SAN DEIGO",32.8944978,-117.2021563
"UTAH STREET, SAN DEIGO",32.7534083,-117.1326407
"FERN STREET, SAN DEIGO",32.7244481,-117.1292506
"FELTON STREET, SAN DEIGO",32.7428809,-117.1217976
"63RD STREET, SAN DEIGO",32.7653867,-117.0629327
"SANDROCK ROAD, SAN DEIGO",32.8052718,-117.1400583
"INNOVATION DRIVE, SAN DEIGO",32.9932237,-117.0782986
"PENNSYLVANIA AVENUE, SAN DEIGO",32.7453202,-117.1542053
"MAST BOULEVARD, SAN DEIGO",32.8469209,-117.0223709
"MOORE STREET, SAN DEIGO",32.7484207,-117.193728
"CALLE PRIMERA  , SAN DEIGO",32.5508365,-117.0454967
"STREAMVIEW DRIVE, SAN DEIGO",32.7432395,-117.072026
"MT ABERNATHY AVENUE, SAN DEIGO",32.8263486,-117.1728971
"MORAGA AVENUE, SAN DEIGO",32.8197687,-117.2126882
"KENSINGTON DRIVE, SAN DEIGO",32.7643544,-117.107334
"THORN STREET, SAN DEIGO",32.7392534,-117.1254281
"ELM STREET, SAN DEIGO",32.72440280000001,-117.1272578
"NORMAL STREET, SAN DEIGO",32.7521124,-117.1481502
"CROWN POINT DRIVE, SAN DEIGO",32.7880691,-117.2345789
"RICHMOND STREET, SAN DEIGO",32.7435008,-117.1512101
"65TH STREET, SAN DEIGO",32.7099607,-117.0579512
"LORING STREET, SAN DEIGO",32.8063768,-117.2516748
"51ST STREET, SAN DEIGO",32.7352156,-117.0856859
"HILLTOP DRIVE, SAN DEIGO",32.7150755,-117.0956908
"CLEVELAND AVENUE, SAN DEIGO",32.75534,-117.1500089
"VISTA SORRENTO PARKWAY, SAN DEIGO",32.9031612,-117.2219081
"MERCY ROAD, SAN DEIGO",32.9386486,-117.1147846
"IDAHO STREET, SAN DEIGO",32.7572753,-117.1338941
"AMHERST STREET, SAN DEIGO",32.7676054,-117.04851
"CAMPUS POINT DRIVE, SAN DEIGO",32.8857884,-117.2212144
"GROVE AVENUE, SAN DEIGO",32.5728058,-117.0782361
"FRANKLIN AVENUE, SAN DEIGO",32.7022231,-117.130587
"COTTONWOOD ROAD, SAN DEIGO",32.5564712,-117.0479889
"KANSAS STREET, SAN DEIGO",32.7572897,-117.1314281
"53RD STREET, SAN DEIGO",32.7561605,-117.0816232
"OCEAN VIEW HILLS PARKWAY, SAN DEIGO",32.5760767,-117.022651
"CAM DEL ESTE  , SAN DEIGO",32.7718244,-117.1444861
"AIRWAY ROAD, SAN DEIGO",32.5652051,-117.016102
"GILMAN DRIVE, SAN DEIGO",32.8638702,-117.2361009
"VERMONT STREET, SAN DEIGO",32.7474586,-117.1534532
"ROSELLE STREET, SAN DEIGO",32.8985842,-117.2227318
"CHALCEDONY STREET, SAN DEIGO",32.8046991,-117.2411314
"CONRAD AVENUE, SAN DEIGO",32.8353637,-117.1932521
"22ND STREET, SAN DEIGO",32.713692,-117.1440242
"VIEWRIDGE AVENUE, SAN DEIGO",32.8238656,-117.1228737
"CARDIFF STREET, SAN DEIGO",32.71231480000001,-117.0244058
"MAYA LINDA ROAD, SAN DEIGO",32.9042438,-117.117879
"PROSPECT STREET, SAN DEIGO",32.8451285,-117.2767478
"LOUISIANA STREET, SAN DEIGO",32.7521751,-117.1400523
"FULTON STREET, SAN DEIGO",32.7898617,-117.1674304
"HAINES STREET, SAN DEIGO",32.7960173,-117.2416698
"ESTRELLA AVENUE, SAN DEIGO",32.754934,-117.090079
"VANDEVER AVENUE, SAN DEIGO",32.7876619,-117.093894
"HOTEL CIRCLE NORTH  , SAN DEIGO",32.760655,-117.1715537
"NARRAGANSETT AVENUE, SAN DEIGO",32.739861,-117.243858
"48TH STREET, SAN DEIGO",32.7555696,-117.0911451
"GRAMERCY DRIVE, SAN DEIGO",32.8025093,-117.1341017
"BRIARWOOD ROAD, SAN DEIGO",32.6849712,-117.0349998
"KNOXVILLE STREET, SAN DEIGO",32.7747059,-117.2026297
"IOWA STREET, SAN DEIGO",32.7559479,-117.1264731
"SOLOLA AVENUE, SAN DEIGO",32.6936932,-117.0864354
"HISTORIC DECATUR ROAD, SAN DEIGO",32.7349664,-117.2160885
"DAWES STREET, SAN DEIGO",32.8017517,-117.2512392
"WILSON AVENUE, SAN DEIGO",32.7542363,-117.1168443
"BROOKHAVEN ROAD, SAN DEIGO",32.6982355,-117.0310044
"ARMOUR STREET, SAN DEIGO",32.8199841,-117.1546852
"MISSOURI STREET, SAN DEIGO",32.8031102,-117.2438402
"LISBON STREET, SAN DEIGO",32.7120664,-117.0434043
"21ST STREET, SAN DEIGO",32.71210000000001,-117.1449151
"HOTEL NORTH CIRCLE, SAN DEIGO",32.760655,-117.1715537
"SAN DIEGUITO ROAD, SAN DEIGO",32.9885621,-117.1959089
"PENASQUITOS DRIVE, SAN DEIGO",32.9842479,-117.091721
"JUDICIAL DRIVE, SAN DEIGO",32.8729109,-117.2047581
"DWIGHT STREET, SAN DEIGO",32.744131,-117.1162765
"JUTLAND DRIVE, SAN DEIGO",32.8279381,-117.221242
"FAMOSA BOULEVARD, SAN DEIGO",32.7480476,-117.2293422
"CONVOY COURT, SAN DEIGO",32.8347063,-117.1596482
"PASEO LUCIDO  , SAN DEIGO",33.0067513,-117.0673342
"BRIGHTON AVENUE, SAN DEIGO",32.7481015,-117.2447355
"WILLIE JAMES JONES AVENUE, SAN DEIGO",32.70599000000001,-117.088253
"SCOTT STREET, SAN DEIGO",32.7228555,-117.2291579
"ALPHA STREET, SAN DEIGO",32.6923012,-117.1075014
"CARDENO DRIVE, SAN DEIGO",32.822121,-117.249023
"SAN PASQUAL ROAD, SAN DEIGO",33.0835201,-117.0316249
"ROLL DRIVE, SAN DEIGO",32.5550032,-116.9374104
"LUSK BOULEVARD, SAN DEIGO",32.9008781,-117.2053833
"SMYTHE AVENUE, SAN DEIGO",32.5605576,-117.0493856
"BOND STREET, SAN DEIGO",32.80413,-117.2206075
"GEORGIA STREET, SAN DEIGO",32.7521578,-117.1449912
"DEEP DELL ROAD, SAN DEIGO",32.6973151,-117.0330141
"ARMSTRONG STREET, SAN DEIGO",32.808183,-117.1616256
"WEST MORENA BOULEVARD, SAN DEIGO",32.770435,-117.2043645
"HIGHLAND RANCH ROAD, SAN DEIGO",32.9785681,-117.071163
"REYNARD WAY, SAN DEIGO",32.7386006,-117.169914
"LANING ROAD, SAN DEIGO",32.7289741,-117.2188277
"BRITANNIA BOULEVARD, SAN DEIGO",32.558447,-116.9797333
"PASEO MONTALBAN  , SAN DEIGO",32.9617607,-117.1195708
"TRUXTUN ROAD, SAN DEIGO",32.7361386,-117.2175226
"KELTON ROAD, SAN DEIGO",32.7197712,-117.0755559
"COLLEGE GROVE WAY, SAN DEIGO",32.7389587,-117.0590886
"EVERGREEN STREET, SAN DEIGO",32.7346243,-117.2237078
"WEBSTER AVENUE, SAN DEIGO",32.704327,-117.125221
"CAM DEL ORO  , SAN DEIGO",32.8567821,-117.256392
"OLIVER AVENUE, SAN DEIGO",32.7948215,-117.2403063
"HARNEY STREET, SAN DEIGO",32.7527792,-117.1949018
"UNKNOWN  , SAN DEIGO",32.5525533,-117.0439124
"MALLARD STREET, SAN DEIGO",32.7295593,-117.0557197
"VIA LAS CUMBRES  , SAN DEIGO",32.7742538,-117.1798608
"RONSON ROAD, SAN DEIGO",32.8290538,-117.1533183
"13TH STREET, SAN DEIGO",32.7110004,-117.1528152
"RUFFNER STREET, SAN DEIGO",32.8278842,-117.1582196
"OLVERA AVENUE, SAN DEIGO",32.6988214,-117.0792611
"I-15 SB  , SAN DEIGO",32.559272,-117.1013146
"SANTA MARGARITA STREET, SAN DEIGO",32.7059033,-117.0783834
"AMBROSIA DRIVE, SAN DEIGO",32.793251,-117.1089578
"CENTRE STREET, SAN DEIGO",32.7494421,-117.1478843
"WASHINGTON PLACE, SAN DEIGO",32.7498739,-117.176394
"FOOTHILL BOULEVARD, SAN DEIGO",32.8085392,-117.2466327
"T STREET, SAN DEIGO",32.6986526,-117.0961448
"CHESAPEAKE DRIVE, SAN DEIGO",32.8376345,-117.1274795
"VALETA STREET, SAN DEIGO",32.7487329,-117.2313012
"FRAZEE ROAD, SAN DEIGO",32.7734453,-117.1584423
"LA JOLLA MESA DRIVE, SAN DEIGO",32.8185223,-117.259566
"VIA MALLORCA  , SAN DEIGO",32.8600698,-117.2341668
"ARAGON DRIVE, SAN DEIGO",32.7549136,-117.054656
"GREYLING DRIVE, SAN DEIGO",32.7968917,-117.142061
"UNION STREET, SAN DEIGO",32.7276222,-117.1671469
"VENTURA PLACE, SAN DEIGO",32.7720541,-117.2520297
"NORTH MISSION BAY DRIVE, SAN DEIGO",32.798714,-117.21582
"REED AVENUE, SAN DEIGO",32.7957469,-117.2405906
"CHOLLAS PARKWAY, SAN DEIGO",32.7381982,-117.0859372
"COSTA VERDE BOULEVARD, SAN DEIGO",32.8693264,-117.2169161
"HIDDEN VALLEY ROAD, SAN DEIGO",32.8470983,-117.2499327
"HORTON PLAZA, SAN DEIGO",32.7138765,-117.1623614
"MYRTLE AVENUE, SAN DEIGO",32.74197270000001,-117.1228674
"HIBERT STREET, SAN DEIGO",32.91383709999999,-117.1130213
"BALBOA DRIVE, SAN DEIGO",32.7326435,-117.1580791
"69TH STREET, SAN DEIGO",32.7706711,-117.0492976
"ARBOR DRIVE, SAN DEIGO",32.7538191,-117.1622626
"MT EVEREST BOULEVARD, SAN DEIGO",32.8142508,-117.1851166
"ELM AVENUE, SAN DEIGO",32.5806124,-117.0900672
"HOTEL CIRCLE PLACE, SAN DEIGO",32.76105520000001,-117.1880762
"HIGHLAND VALLEY ROAD, SAN DEIGO",33.0515706,-117.048066
"PRINCESS VIEW DRIVE, SAN DEIGO",32.8024827,-117.0784159
"DOWDY DRIVE, SAN DEIGO",32.8913988,-117.1469057
"BERGER AVENUE, SAN DEIGO",32.802189,-117.1518158
"KEARNY VILLA LANE, SAN DEIGO",32.8041884,-117.1540998
"DAMON AVENUE, SAN DEIGO",32.8088984,-117.218246
"SALMON RIVER ROAD, SAN DEIGO",32.953882,-117.1207364
"WORDEN STREET, SAN DEIGO",32.7456659,-117.2272181
"DEL CERRO BOULEVARD, SAN DEIGO",32.782804,-117.0659967
"KEMPER STREET, SAN DEIGO",32.751434,-117.2156153
"SAMPSON STREET, SAN DEIGO",32.6980259,-117.1393146
"PARKDALE AVENUE, SAN DEIGO",32.9100239,-117.1551923
"DRAPER AVENUE, SAN DEIGO",32.8362984,-117.2754137
"L STREET, SAN DEIGO",32.7073983,-117.1388488
"VIA DE SAN YSIDRO  , SAN DEIGO",32.5514345,-117.0455356
"COPELAND AVENUE, SAN DEIGO",32.7570975,-117.1039961
"COPLEY DRIVE, SAN DEIGO",32.8401828,-117.1670834
"I-8 WB  , SAN DEIGO",32.7177711,-117.1638799
"PAN AMERICAN PLAZA, SAN DEIGO",32.7275587,-117.1534032
"61ST STREET, SAN DEIGO",32.7080588,-117.0667384
"CARROLL ROAD, SAN DEIGO",32.8851858,-117.1704284
"ALBATROSS STREET, SAN DEIGO",32.740343,-117.1658306
"LONG BRANCH AVENUE, SAN DEIGO",32.7481682,-117.2433353
"DEL SUR BOULEVARD, SAN DEIGO",32.5680663,-117.057994
"ANTIGUA BOULEVARD, SAN DEIGO",32.8332178,-117.1000931
"ILEX AVENUE, SAN DEIGO",32.5699168,-117.0883921
"PARK VILLAGE ROAD, SAN DEIGO",32.9403768,-117.1499473
"BRANT STREET, SAN DEIGO",32.73739,-117.1667844
"OLNEY STREET, SAN DEIGO",32.8022028,-117.2298558
"AUBURN DRIVE, SAN DEIGO",32.7430277,-117.088769
"BROOKLYN AVENUE, SAN DEIGO",32.7131446,-117.059661
"CATOCTIN DRIVE, SAN DEIGO",32.7691262,-117.058666
"MOHAWK STREET, SAN DEIGO",32.7697695,-117.0470308
"HERITAGE ROAD, SAN DEIGO",32.5760171,-116.9967783
"FROUDE STREET, SAN DEIGO",32.7392204,-117.2470472
"LAW STREET, SAN DEIGO",32.8045767,-117.2462542
"GRIM AVENUE, SAN DEIGO",32.7428701,-117.1282332
"AVNDA DEL GATO  , SAN DEIGO",32.924858,-117.148155
"TOURMALINE STREET, SAN DEIGO",32.8076825,-117.2549759
"I-805 SB  , SAN DEIGO",32.77416669999999,-117.2514704
"GRESHAM STREET, SAN DEIGO",32.7987537,-117.2444526
"ARRIBA STREET, SAN DEIGO",32.861342,-117.2212576
"POPLAR STREET, SAN DEIGO",32.7354558,-117.1045137
"ALLEGHANY STREET, SAN DEIGO",32.6801799,-117.0641345
"IRVING AVENUE, SAN DEIGO",32.7015989,-117.1386197
"LIMERICK AVENUE, SAN DEIGO",32.8352318,-117.1787244
"SAN PASQUAL STREET, SAN DEIGO",32.6987428,-117.1030925
"LA JOLLA SCENIC N DRIVE, SAN DEIGO",32.8590676,-117.2402038
"OSLER STREET, SAN DEIGO",32.7921837,-117.176341
"68TH STREET, SAN DEIGO",32.7100613,-117.0509567
"20TH STREET, SAN DEIGO",32.7110002,-117.1458196
"WINDCREST LANE, SAN DEIGO",32.974925,-117.0814175
"SAN JACINTO DRIVE, SAN DEIGO",32.7035266,-117.0809989
"HERSCHEL AVENUE, SAN DEIGO",32.8438542,-117.2722695
"GOSHEN STREET, SAN DEIGO",32.7680414,-117.1874957
"BEYER WAY, SAN DEIGO",32.5813968,-117.062241
"KELLY STREET, SAN DEIGO",32.7822009,-117.1748462
"MARINERS WAY, SAN DEIGO",32.7673274,-117.24485
"IVANHOE AVENUE, SAN DEIGO",32.8463718,-117.2717868
"BERNARDO PLAZA COURT, SAN DEIGO",33.0200683,-117.0765898
"TWIN TRAILS DRIVE, SAN DEIGO",32.9579986,-117.1297832
"67TH STREET, SAN DEIGO",32.7673359,-117.053896
"BORDER VILLAGE ROAD, SAN DEIGO",32.5483227,-117.0372049
"24TH STREET, SAN DEIGO",32.7124084,-117.1424686
"TAIT STREET, SAN DEIGO",32.7806763,-117.1712482
"CENTRAL AVENUE, SAN DEIGO",32.7478086,-117.1081777
"CRANDALL DRIVE, SAN DEIGO",32.7835309,-117.1651235
"AVNDA DEL MEXICO  , SAN DEIGO",32.5831928,-117.0893267
"MEADOW LARK DRIVE, SAN DEIGO",32.7900744,-117.1545275
"MADRA AVENUE, SAN DEIGO",32.7866035,-117.0570285
"PALM  , SAN DEIGO",32.7723602,-117.0382952
"MARKETPLACE AVENUE, SAN DEIGO",32.7017509,-117.1003113
"ALBEMARLE STREET, SAN DEIGO",32.677135,-117.06472
"SANTA FE STREET, SAN DEIGO",32.819287,-117.2257125
"GATEWAY CENTER DRIVE, SAN DEIGO",32.7130223,-117.1142373
"I-8 EB  , SAN DEIGO",33.0460358,-117.2935124
"ALDINE DRIVE, SAN DEIGO",32.7621267,-117.097225
"BAYSIDE LANE, SAN DEIGO",32.7740689,-117.2505145
"EVANS STREET, SAN DEIGO",32.7063728,-117.1354635
"DOVE STREET, SAN DEIGO",32.7505164,-117.1686862
"LYTTON STREET, SAN DEIGO",32.7440498,-117.2120363
"ARIZONA STREET, SAN DEIGO",32.7531246,-117.1375884
"STALMER STREET, SAN DEIGO",32.8078757,-117.1561401
"MARGERUM AVENUE, SAN DEIGO",32.8033515,-117.066109
"GOLDFINCH STREET, SAN DEIGO",32.7476009,-117.1713506
"MANZANA WAY, SAN DEIGO",32.6919203,-117.0252456
"ROLANDO BOULEVARD, SAN DEIGO",32.7589978,-117.0567714
"PACIFIC HEIGHTS BOULEVARD, SAN DEIGO",32.899763,-117.1892725
"GAINES STREET, SAN DEIGO",32.7660888,-117.190057
"LAURETTA STREET, SAN DEIGO",32.7677301,-117.1905845
"CONGRESS STREET, SAN DEIGO",32.7517353,-117.1952229
"TOCAYO AVENUE, SAN DEIGO",32.5642336,-117.0780525
"27TH STREET, SAN DEIGO",32.7124643,-117.1360248
"CAPE MAY AVENUE, SAN DEIGO",32.7467433,-117.2445584
"DATE STREET, SAN DEIGO",32.7229601,-117.158265
"POBLADO ROAD, SAN DEIGO",33.0313242,-117.0888946
"I-5 NB  , SAN DEIGO",32.68341,-117.110781
"REFLECTION DRIVE, SAN DEIGO",32.7925147,-117.1076659
"TORREY SANTA FE ROAD, SAN DEIGO",32.959894,-117.1608347
"GREENBRIER AVENUE, SAN DEIGO",32.7957201,-117.0850994
"CHURCHWARD STREET, SAN DEIGO",32.7040148,-117.0785536
"DOLIVA DRIVE, SAN DEIGO",32.830824,-117.1756955
"LA PLAYA AVENUE, SAN DEIGO",32.7888522,-117.2370283
"SYCAMORE ROAD, SAN DEIGO",32.5485617,-117.0451712
"CASTANA STREET, SAN DEIGO",32.7059215,-117.0850749
"OCEAN FRONT WALK, SAN DEIGO",32.7780027,-117.2532124
"CHOLLAS ROAD, SAN DEIGO",32.7368293,-117.0859636
"HAMMOND DRIVE, SAN DEIGO",32.8044866,-117.1377402
"62ND STREET, SAN DEIGO",32.7626658,-117.0644783
"OVERLAND AVENUE, SAN DEIGO",32.8309676,-117.1310915
"EL PRADO  , SAN DEIGO",32.7314257,-117.1530799
"RIVERDALE STREET, SAN DEIGO",32.790271,-117.0996095
"VILLAGE CENTER LOOP ROAD, SAN DEIGO",32.9602414,-117.1891035
"MATINAL ROAD, SAN DEIGO",33.0306856,-117.0886575
"EADS AVENUE, SAN DEIGO",32.8408102,-117.2751963
"DEWEY STREET, SAN DEIGO",32.6994936,-117.1433964
"QUIVIRA ROAD, SAN DEIGO",32.7645739,-117.2368132
"EAST BEYER BOULEVARD, SAN DEIGO",32.5514887,-117.0376116
"SPECTRUM CENTER BOULEVARD, SAN DEIGO",32.8264166,-117.1352313
"SANTA BARBARA STREET, SAN DEIGO",32.734555,-117.2457573
"MISSION GORGE PLACE, SAN DEIGO",32.7828943,-117.0941725
"NIAGARA AVENUE, SAN DEIGO",32.7422937,-117.2457253
"ALVARADO CANYON ROAD, SAN DEIGO",32.7806503,-117.093875
"POINT LOMA AVENUE, SAN DEIGO",32.7320556,-117.2479171
"DAKOTA DRIVE, SAN DEIGO",32.8024562,-117.1989864
"EASTMAN STREET, SAN DEIGO",32.7888337,-117.1692825
"VESTA STREET, SAN DEIGO",32.68396,-117.116859
"LEON AVENUE, SAN DEIGO",32.56639980000001,-117.0913816
"COLUSA STREET, SAN DEIGO",32.7666262,-117.1902288
"WESTMORE ROAD, SAN DEIGO",32.9178866,-117.1409502
"HOLIDAY COURT, SAN DEIGO",32.8703362,-117.2326647
"BROOKES AVENUE, SAN DEIGO",32.7432813,-117.1492305
"TECOLOTE ROAD, SAN DEIGO",32.7718002,-117.2034497
"COLLWOOD LANE, SAN DEIGO",32.7640425,-117.0837271
"MICHAEL FARADAY DRIVE, SAN DEIGO",32.5576384,-116.9320032
"JUAN STREET, SAN DEIGO",32.7535112,-117.1932768
"DAWSON AVENUE, SAN DEIGO",32.7573234,-117.0825324
"FIR STREET, SAN DEIGO",32.7255755,-117.0885018
"DERRICK DRIVE, SAN DEIGO",32.826099,-117.182587
"LA CUENTA DRIVE, SAN DEIGO",32.8215979,-117.0974426
"SOLEDAD ROAD, SAN DEIGO",32.818256,-117.241386
"CAMINO DEL RIO W  , SAN DEIGO",32.7579123,-117.2041145
"KEARNY AVENUE, SAN DEIGO",32.7009446,-117.1415184
"RAVEN STREET, SAN DEIGO",32.7124818,-117.1076071
"LA MEDIA ROAD, SAN DEIGO",32.5636456,-116.9624504
"66TH STREET, SAN DEIGO",32.7111889,-117.0558188
"MADERA STREET, SAN DEIGO",32.7166736,-117.0524822
"KEATS STREET, SAN DEIGO",32.728899,-117.227829
"FORTUNA AVENUE, SAN DEIGO",32.79295,-117.23587
"HAZARD CENTER DRIVE, SAN DEIGO",32.7706692,-117.1577136
"LA JOLLA SCENIC S DRIVE, SAN DEIGO",32.8321641,-117.2514941
"BACHMAN PLACE, SAN DEIGO",32.7569038,-117.1645736
"LOCUST STREET, SAN DEIGO",32.7334338,-117.2232024
"BEAGLE STREET, SAN DEIGO",32.8077182,-117.1648033
"CANNINGTON DRIVE, SAN DEIGO",32.8265238,-117.1681471
"AFTON ROAD, SAN DEIGO",32.8042855,-117.1446298
"DUSK DRIVE, SAN DEIGO",32.6768987,-117.0485235
"NUTMEG STREET, SAN DEIGO",32.7338696,-117.1255295
"AVNDA VENUSTO  , SAN DEIGO",33.0016953,-117.0750195
"BANDY CANYON ROAD, SAN DEIGO",33.0768887,-116.9838357
"MUIR AVENUE, SAN DEIGO",32.7487549,-117.2428289
"56TH STREET, SAN DEIGO",32.7584797,-117.0749464
"TWAIN AVENUE, SAN DEIGO",32.7849704,-117.0935734
"RAINIER AVENUE, SAN DEIGO",32.7898119,-117.0965921
"ALSACIA STREET, SAN DEIGO",32.6835774,-117.0396726
"BOB STREET, SAN DEIGO",32.7502255,-117.2252597
"BISBY LAKE AVENUE, SAN DEIGO",32.8032625,-117.0136733
"DEL MAR AVENUE, SAN DEIGO",32.7359445,-117.2458983
"TRADE STREET, SAN DEIGO",32.8890346,-117.1592387
"MAPLE STREET, SAN DEIGO",32.7327663,-117.1238355
"FRANKFORT STREET, SAN DEIGO",32.7830971,-117.2023211
"HUERFANO AVENUE, SAN DEIGO",32.818909,-117.217461
"LA JOLLA COLONY DRIVE, SAN DEIGO",32.8519751,-117.2326092
"STONECREST BOULEVARD, SAN DEIGO",32.8026567,-117.1166993
"MESA COLLEGE CIRCLE, SAN DEIGO",32.8034651,-117.1685093
"DONAX AVENUE, SAN DEIGO",32.5812915,-117.073283
"LUNA AVENUE, SAN DEIGO",32.8319436,-117.2177934
"SASSAFRAS STREET, SAN DEIGO",32.7372066,-117.1762208
"SILVERADO STREET, SAN DEIGO",32.8451604,-117.2736585
"AVNDA DE LA MADRID  , SAN DEIGO",32.5628726,-117.0462768
"PALMILLA DRIVE, SAN DEIGO",32.860951,-117.2253923
"CUCA STREET, SAN DEIGO",32.9746401,-117.0956658
"UNIVERSITY CENTER LANE, SAN DEIGO",32.8703017,-117.2262113
"CARGILL AVENUE, SAN DEIGO",32.8635356,-117.2164715
"RESERVOIR DRIVE, SAN DEIGO",32.7731525,-117.0556657
"VISTA GRANDE DRIVE, SAN DEIGO",32.7490588,-117.0538781
"HIGH BLUFF DRIVE, SAN DEIGO",32.9517395,-117.2394244
"DOROTHY DRIVE, SAN DEIGO",32.76900639999999,-117.0718765
"PASEO DEL VERANO  , SAN DEIGO",33.0296487,-117.052248
"ENGINEER ROAD, SAN DEIGO",32.8267594,-117.1542287
"OBERLIN DRIVE, SAN DEIGO",32.8921588,-117.1960009
"AVIARY DRIVE, SAN DEIGO",32.9036854,-117.1008599
"ESTELLE STREET, SAN DEIGO",32.7588176,-117.0654546
"I-5  , SAN DEIGO",32.7308829,-117.1546501
"SAN DIEGO PLACE, SAN DEIGO",32.759851,-117.2484887
"DALE STREET, SAN DEIGO",32.7244598,-117.1311133
"ART STREET, SAN DEIGO",32.7668164,-117.0622565
"ROBLES DRIVE, SAN DEIGO",32.8126751,-117.0102558
"BROADWAY CIRCLE, SAN DEIGO",32.7152511,-117.1628829
"ENTERPRISE STREET, SAN DEIGO",32.7462629,-117.1983847
"TRINIDAD WAY, SAN DEIGO",32.7019064,-117.0796962
"KEELER AVENUE, SAN DEIGO",32.6939609,-117.101265
"CLAVELITA STREET, SAN DEIGO",32.5695439,-117.0581975
"PASEO DEL SUR  , SAN DEIGO",33.0190208,-117.1351281
"BOLLENBACHER STREET, SAN DEIGO",32.7154132,-117.0735202
"MISSION VALLEY ROAD, SAN DEIGO",32.778984,-117.1578626
"TOWNSGATE DRIVE, SAN DEIGO",32.95051180000001,-117.2322296
"COMPLEX DRIVE, SAN DEIGO",32.8299721,-117.1366243
"COLLIER AVENUE, SAN DEIGO",32.7654273,-117.1194535
"BATES STREET, SAN DEIGO",32.7474909,-117.0722549
"THERMAL AVENUE, SAN DEIGO",32.5764748,-117.0970937
"FLORENCE STREET, SAN DEIGO",32.6980529,-117.1146311
"AQUARIUS DRIVE, SAN DEIGO",32.929939,-117.138107
"CORNISH DRIVE, SAN DEIGO",32.7233705,-117.2535369
"HURLBUT STREET, SAN DEIGO",32.8049012,-117.144919
"PASEO CARDIEL  , SAN DEIGO",32.9645154,-117.1144592
"WEST MTN VIEW DRIVE, SAN DEIGO",32.7659296,-117.1259045
"VACATION ROAD, SAN DEIGO",32.7748073,-117.2366627
"AREY DRIVE, SAN DEIGO",32.5787424,-117.0510654
"ALVARADO COURT, SAN DEIGO",32.7772751,-117.0622619
"DORIANA STREET, SAN DEIGO",32.6852704,-117.0479349
"WANDERMERE DRIVE, SAN DEIGO",32.7963533,-117.0502239
"CURLEW STREET, SAN DEIGO",32.738078,-117.1676172
"FIESTA BAY  , SAN DEIGO",32.7905905,-117.2220471
"ALAMO DRIVE, SAN DEIGO",32.7592776,-117.0545184
"SEQUENCE DRIVE, SAN DEIGO",32.9078087,-117.1813147
"JIMMY DURANTE BOULEVARD, SAN DEIGO",32.9720512,-117.2598594
"ZOO PLACE, SAN DEIGO",32.7330599,-117.1451996
"CARMEL CANYON ROAD, SAN DEIGO",32.9504142,-117.2130232
"PHYLLIS PLACE, SAN DEIGO",32.7857616,-117.1452128
"VILLAGE PINE DRIVE, SAN DEIGO",32.5683084,-117.0693273
"BANNOCK AVENUE, SAN DEIGO",32.8329087,-117.1959296
"GOLFCREST PLACE, SAN DEIGO",32.8016035,-117.0381594
"RILEY STREET, SAN DEIGO",32.7668531,-117.1910824
"HYATT STREET, SAN DEIGO",32.7906763,-117.1645829
"SCRIPPS LAKE DRIVE, SAN DEIGO",32.9114367,-117.0980474
"MORLEY FIELD DRIVE, SAN DEIGO",32.739821,-117.1444405
"SHILOH ROAD, SAN DEIGO",32.7477507,-117.0815161
"RAIL COURT, SAN DEIGO",32.5445997,-117.0287584
"LARKDALE AVENUE, SAN DEIGO",32.8016722,-117.1434177
"BALTIC STREET, SAN DEIGO",32.8057382,-117.1590844
"PENTECOST WAY, SAN DEIGO",32.7230756,-117.0825068
"AVNDA DE PORTUGAL  , SAN DEIGO",32.7225857,-117.2324656
"NORTH PARK WAY, SAN DEIGO",32.7474103,-117.1266214
"TWIGGS STREET, SAN DEIGO",32.7533543,-117.195849
"STATION VILLAGE WAY, SAN DEIGO",32.774615,-117.1421724
"GREEN BAY STREET, SAN DEIGO",32.57242060000001,-117.0884008
"MERLIN DRIVE, SAN DEIGO",32.7124853,-117.070828
"PENTUCKETT AVENUE, SAN DEIGO",32.7265141,-117.1170384
"GREELY AVENUE, SAN DEIGO",32.6984776,-117.1251571
"MORLEY STREET, SAN DEIGO",32.7850146,-117.1714025
"VIA CAPRI  , SAN DEIGO",32.9385952,-117.2322451
"WILLOW ROAD, SAN DEIGO",32.5482386,-117.0423596
"PICCARD AVENUE, SAN DEIGO",32.5794085,-117.0502433
"CORONA ORIENTE ROAD, SAN DEIGO",32.7868236,-117.2337651
"KALMIA STREET, SAN DEIGO",32.7306721,-117.1234721
"ESSEX STREET, SAN DEIGO",32.7474635,-117.1508472
"SERVANDO AVENUE, SAN DEIGO",32.556976,-117.0648147
"HAMILTON STREET, SAN DEIGO",32.7565915,-117.1363685
"COLLWOOD WAY, SAN DEIGO",32.7687081,-117.086023
"TALBOT STREET, SAN DEIGO",32.7214587,-117.2392517
"BEADNELL WAY, SAN DEIGO",32.8209361,-117.1715177
"SYCAMORE DRIVE, SAN DEIGO",32.7318865,-117.1059483
"GATEWAY DRIVE, SAN DEIGO",32.7251877,-117.108361
"ADRIAN STREET, SAN DEIGO",32.7510201,-117.2261393
"PORTOBELO DRIVE, SAN DEIGO",32.8409091,-117.0895734
"ECKSTROM AVENUE, SAN DEIGO",32.8202027,-117.1654973
"CUSHING ROAD, SAN DEIGO",32.7343081,-117.2148611
"CURTIS STREET, SAN DEIGO",32.7421816,-117.2225828
"KENWOOD STREET, SAN DEIGO",32.7112479,-117.0710518
"WARDLOW AVENUE, SAN DEIGO",32.5607496,-117.0730195
"JACMAR AVENUE, SAN DEIGO",32.7092584,-117.0429946
"TEQUILA WAY, SAN DEIGO",32.5643532,-117.0620283
"GESNER STREET, SAN DEIGO",32.791441,-117.201683
"DANCY ROAD, SAN DEIGO",32.9073312,-117.1612773
"KIKA COURT, SAN DEIGO",32.9407907,-117.1125585
"SANTA CRUZ AVENUE, SAN DEIGO",32.7387766,-117.246331
"GRANADA AVENUE, SAN DEIGO",32.7411056,-117.1325211
"LEDGEWOOD LANE, SAN DEIGO",32.6963448,-117.0346612
"LELAND STREET, SAN DEIGO",32.74995,-117.220612
"ELIJAH COURT, SAN DEIGO",32.94677,-117.2345777
"SHELTER ISLAND DRIVE, SAN DEIGO",32.71424450000001,-117.2260572
"ORCHARD AVENUE, SAN DEIGO",32.7356262,-117.2475015
"BONILLO DRIVE, SAN DEIGO",32.7552708,-117.0603698
"SEMILLON BOULEVARD, SAN DEIGO",32.9166555,-117.0709383
"LOMA LAND DRIVE, SAN DEIGO",32.7191099,-117.2468174
"TAUSSIG STREET, SAN DEIGO",32.8043243,-117.1085343
"MISSISSIPPI STREET, SAN DEIGO",32.7521651,-117.1412882
"PRESIDENTS WAY, SAN DEIGO",32.7257643,-117.1509471
"SCRIPPS SUMMIT DRIVE, SAN DEIGO",32.939889,-117.10177
"VIRGINIA AVENUE, SAN DEIGO",32.7611376,-117.0592842
"STRESEMANN STREET, SAN DEIGO",32.847218,-117.222961
"STRANDWAY  , SAN DEIGO",32.7756573,-117.2527764
"PARK RIDGE BOULEVARD, SAN DEIGO",32.7983333,-117.0490738
"AVNDA DE LOS LOBOS  , SAN DEIGO",33.0006057,-117.0928216
"WITHERBY STREET, SAN DEIGO",32.7501342,-117.1887228
"QUINCE STREET, SAN DEIGO",32.7366031,-117.1626567
"CALLE MAR DE MARIPOS  , SAN DEIGO",32.9137191,-117.2255801
"HILL STREET, SAN DEIGO",32.7239177,-117.2464713
"WEST JEWETT STREET, SAN DEIGO",32.7859024,-117.1735198
"JULIAN AVENUE, SAN DEIGO",32.7013774,-117.1402332
"CAMULOS STREET, SAN DEIGO",32.7498516,-117.2303578
"LINDO PASEO  , SAN DEIGO",32.7716467,-117.0728154
"DUENDA ROAD, SAN DEIGO",33.0350215,-117.0826656
"SCIENCE CENTER DRIVE, SAN DEIGO",32.8946052,-117.2305984
"SOTO STREET, SAN DEIGO",32.7483138,-117.2360558
"MUIRLANDS DRIVE, SAN DEIGO",32.827709,-117.264091
"BUSINESS CENTER COURT, SAN DEIGO",32.5693041,-117.0035279
"KOSTNER DRIVE, SAN DEIGO",32.57704,-117.0435726
"CREEKVIEW DRIVE, SAN DEIGO",32.9462777,-117.0902517
"CHATEAU DRIVE, SAN DEIGO",32.82518,-117.182663
"RUE D ORLEANS  , SAN DEIGO",32.7534452,-117.227668
"MARTIN AVENUE, SAN DEIGO",32.6994501,-117.1235912
"HILLSIDE DRIVE, SAN DEIGO",32.8444581,-117.2557965
"EAST MTN VIEW DRIVE, SAN DEIGO",32.7666288,-117.115754
"WESTINGHOUSE STREET, SAN DEIGO",32.7802168,-117.16864
"CASTLE GLEN DRIVE, SAN DEIGO",32.806212,-117.1305622
"NOYES STREET, SAN DEIGO",32.8022839,-117.2318332
"HARRISON AVENUE, SAN DEIGO",32.7024349,-117.1378133
"CUMBERLAND STREET, SAN DEIGO",32.6758538,-117.0624785
"CRAWFORD STREET, SAN DEIGO",32.7892772,-117.0938757
"LAKE ARAGO AVENUE, SAN DEIGO",32.7946062,-117.0131172
"ARRUZA STREET, SAN DEIGO",32.5719273,-117.0566364
"LIGHTWAVE AVENUE, SAN DEIGO",32.829077,-117.1346918
"OLD MEMORY LANE, SAN DEIGO",32.7192129,-117.0702358
"KRENNING STREET, SAN DEIGO",32.7359158,-117.0814021
"MARAUDER WAY, SAN DEIGO",32.9089447,-117.1405153
"PETIT STREET, SAN DEIGO",32.81811220000001,-117.1686748
"BILLMAN STREET, SAN DEIGO",32.7475098,-117.0587296
"BURROUGHS STREET, SAN DEIGO",32.7820326,-117.167459
"LINDA VISTA FRONTAGE ROAD, SAN DEIGO",32.8038491,-117.1565808
"RANCHO BERNARDO  , SAN DEIGO",33.0335773,-117.0805825
"CAMTO CHOLLAS  , SAN DEIGO",32.7351895,-117.0717366
"CERVANTES AVENUE, SAN DEIGO",32.695343,-117.0772961
"STONEBRIDGE PARKWAY, SAN DEIGO",32.92356360000001,-117.0268012
"PASEO MONTRIL  , SAN DEIGO",32.9490492,-117.1093006
"SOUTHLOOK AVENUE, SAN DEIGO",32.7030925,-117.115736
"CALIENTE AVENUE, SAN DEIGO",32.5658793,-117.01442
"NOELINE AVENUE, SAN DEIGO",32.7038833,-117.0225328
"KLAUBER AVENUE, SAN DEIGO",32.7215055,-117.0557957
"CAM DE LA COSTA  , SAN DEIGO",32.8195583,-117.2749803
"ROSELAND DRIVE, SAN DEIGO",32.8501383,-117.2574072
"TOYNE STREET, SAN DEIGO",32.7124246,-117.103745
"SAN CARLOS DRIVE, SAN DEIGO",32.8009669,-117.019935
"LEWIS STREET, SAN DEIGO",32.7518764,-117.161394
"BULLOCK DRIVE, SAN DEIGO",32.6958904,-117.0474982
"JEMEZ DRIVE, SAN DEIGO",32.8280758,-117.2139909
"CAMTO AGUILAR  , SAN DEIGO",32.8167364,-117.1771291
"PORT ROYALE DRIVE, SAN DEIGO",32.9039,-117.152893
"WILLOW CREEK ROAD, SAN DEIGO",32.8995105,-117.1073166
"TRIANA STREET, SAN DEIGO",32.8294459,-117.1804531
"MT ABRAHAM AVENUE, SAN DEIGO",32.8156983,-117.1758469
"COWLES MTN BOULEVARD, SAN DEIGO",32.8047352,-117.0248246
"RANCHO DRIVE, SAN DEIGO",32.676752,-117.0643655
"59TH STREET, SAN DEIGO",32.7617429,-117.0707772
"NARANJA STREET, SAN DEIGO",32.708621,-117.0828461
"CAMPANILE DRIVE, SAN DEIGO",32.7699714,-117.0719063
"PASEO DEL OCASO  , SAN DEIGO",32.8563213,-117.254634
"STERLING COURT, SAN DEIGO",32.7445184,-117.0862544
"MONTE VISTA AVENUE, SAN DEIGO",32.8349006,-117.2793294
"GAMMA STREET, SAN DEIGO",32.6897952,-117.107038
"DISTRIBUTION AVENUE, SAN DEIGO",32.8832974,-117.1630001
"PINECREST AVENUE, SAN DEIGO",32.798199,-117.1422749
"CLAYTON DRIVE, SAN DEIGO",32.8948514,-117.1310189
"MISSION AVENUE, SAN DEIGO",32.7594992,-117.1423862
"AVNDA DE LAS VISTAS  , SAN DEIGO",32.5822973,-117.0092733
"EVENING CREEK S DRIVE, SAN DEIGO",32.9552017,-117.0986082
"COLINA DORADA DRIVE, SAN DEIGO",32.8163864,-117.0779985
"PRODUCTION AVENUE, SAN DEIGO",32.8824291,-117.1658427
"WUNDERLIN AVENUE, SAN DEIGO",32.7145271,-117.0580528
"HARDY AVENUE, SAN DEIGO",32.7725667,-117.0730736
"GREENFORD DRIVE, SAN DEIGO",32.9109641,-117.1313578
"JOHN J MONTGOMERY DRIVE, SAN DEIGO",32.8113454,-117.1402325
"ADELAIDE AVENUE, SAN DEIGO",32.7576053,-117.0702219
"STADIUM STREET, SAN DEIGO",32.8485625,-117.212921
"HIGH AVENUE, SAN DEIGO",32.8404106,-117.2701294
"GRAND DEL MAR COURT, SAN DEIGO",32.9393148,-117.1977375
"SPRUCE STREET, SAN DEIGO",32.7387076,-117.1617182
"SEMINOLE DRIVE, SAN DEIGO",32.7630681,-117.060677
"DUNLOP STREET, SAN DEIGO",32.7857669,-117.1675905
"FAIRGROVE LANE, SAN DEIGO",32.9574959,-117.1230758
"RIVER RUN DRIVE, SAN DEIGO",32.7780577,-117.1333008
"BENSON AVENUE, SAN DEIGO",32.7050635,-117.0555264
"MILBRAE STREET, SAN DEIGO",32.70226299999999,-117.113585
"RIVIERA SHORES STREET, SAN DEIGO",32.5718201,-117.0376266
"HERMAN AVENUE, SAN DEIGO",32.7428722,-117.1260841
"GILL VILLAGE WAY, SAN DEIGO",32.7744971,-117.1468157
"JARVIS STREET, SAN DEIGO",32.7282965,-117.228348
"QUIVIRA COURT, SAN DEIGO",32.7590558,-117.2414402
"EXECUTIVE WAY, SAN DEIGO",32.8753103,-117.2098864
"DUVAL STREET, SAN DEIGO",32.7227452,-117.090571
"JUDSON STREET, SAN DEIGO",32.785944,-117.1625441
"COTTONWOOD STREET, SAN DEIGO",32.6847654,-117.1094026
"CAUBY STREET, SAN DEIGO",32.7495011,-117.2089196
"CHANDLER DRIVE, SAN DEIGO",32.8254027,-117.1716501
"KEATING STREET, SAN DEIGO",32.7460172,-117.1800068
"SCRIPPS HIGHLANDS DRIVE, SAN DEIGO",32.9358253,-117.1075794
"TORREY PINES SCENIC DRIVE, SAN DEIGO",32.8886391,-117.2481386
"I-15 NB  , SAN DEIGO",32.7242974,-117.1448537
"EL CARMEL PLACE, SAN DEIGO",32.7785132,-117.2500806
"QUADRA AVENUE, SAN DEIGO",32.5628413,-117.0714833
"DAYTON STREET, SAN DEIGO",32.7586519,-117.0773861
"CARDINAL DRIVE, SAN DEIGO",32.7847571,-117.15716
"VILLAGE WAY, SAN DEIGO",32.9620998,-117.1894965
"LOMICA DRIVE, SAN DEIGO",33.011356,-117.0674599
"BETA STREET, SAN DEIGO",32.691332,-117.1089527
"MISSION BAY  , SAN DEIGO",32.7778125,-117.226457
"MILTON STREET, SAN DEIGO",32.78371540000001,-117.1979645
"DENVER STREET, SAN DEIGO",32.7881164,-117.203695
"MT AGUILAR DRIVE, SAN DEIGO",32.8171016,-117.1740853
"PRAIRIE MOUND WAY, SAN DEIGO",32.6937004,-117.0311966
"CAMINO DEL SUR  , SAN DEIGO",32.9772032,-117.1472087
"IONA DRIVE, SAN DEIGO",32.7123101,-117.0690036
"DAGGET STREET, SAN DEIGO",32.8235989,-117.1548195
"TONAWANDA DRIVE, SAN DEIGO",32.6658484,-117.0580777
"FIGUEROA BOULEVARD, SAN DEIGO",32.8042401,-117.2192826
"REPECHO DRIVE, SAN DEIGO",32.8309299,-117.1121862
"EASTER WAY, SAN DEIGO",32.8803895,-117.2118599
"ENCINA DRIVE, SAN DEIGO",32.6971627,-117.0781344
"IVY STREET, SAN DEIGO",32.7285902,-117.1257625
"MANITOU WAY, SAN DEIGO",32.833611,-117.1947475
"ROYAL OAK DRIVE, SAN DEIGO",32.7039742,-117.0264901
"KELOWNA ROAD, SAN DEIGO",32.9273628,-117.1408691
"OLIVETAS AVENUE, SAN DEIGO",32.8366043,-117.2789806
"LEHRER DRIVE, SAN DEIGO",32.838267,-117.1853962
"MESSINA DRIVE, SAN DEIGO",32.7037234,-117.106459
"HAWK STREET, SAN DEIGO",32.7476701,-117.1722805
"FIRETHORN STREET, SAN DEIGO",32.5785016,-117.0403221
"DECORO STREET, SAN DEIGO",32.8641526,-117.2140271
"NIMITZ  , SAN DEIGO",32.73960539999999,-117.2315293
"PROSPECT PLACE, SAN DEIGO",32.8474548,-117.2677233
"MOBLEY STREET, SAN DEIGO",32.7964073,-117.1354648
"JADE COAST DRIVE, SAN DEIGO",32.9022093,-117.1394303
"VIA DEL CAMPO  , SAN DEIGO",33.0195352,-117.0925986
"ELDER AVENUE, SAN DEIGO",32.5783683,-117.0984667
"GOLF COURSE DRIVE, SAN DEIGO",32.7234032,-117.1361611
"CALLE TRES LOMAS  , SAN DEIGO",32.6763245,-117.0557829
"HUGO STREET, SAN DEIGO",32.7283661,-117.2314661
"BOB WILSON DRIVE, SAN DEIGO",32.7256048,-117.1434169
"DECENA DRIVE, SAN DEIGO",32.7862836,-117.0967665
"LEMONA AVENUE, SAN DEIGO",32.7444993,-117.0841482
"DANA LANDING ROAD, SAN DEIGO",32.7655575,-117.2371148
"PLAZA BOULEVARD, SAN DEIGO",32.6947461,-117.0593074
"ROSWELL STREET, SAN DEIGO",32.715021,-117.0777295
"AVNDA MAGNIFICA  , SAN DEIGO",32.9108082,-117.0778438
"SPINDRIFT DRIVE, SAN DEIGO",32.8511519,-117.2616604
"EL PASEO GRANDE  , SAN DEIGO",32.8573529,-117.2554321
"ERMA ROAD, SAN DEIGO",32.9213109,-117.1148862
"OUTER ROAD, SAN DEIGO",32.5771447,-117.0815727
"WARD ROAD, SAN DEIGO",32.7610918,-117.1129275
"BONITA DRIVE, SAN DEIGO",32.6964243,-117.077774
"LA JOLLA FARMS ROAD, SAN DEIGO",32.8801003,-117.2477134
"VIA TONGA  , SAN DEIGO",32.5794714,-117.0612526
"RENAISSANCE AVENUE, SAN DEIGO",32.8687409,-117.2038599
"DIANE AVENUE, SAN DEIGO",32.8369138,-117.1870547
"EASTGATE DRIVE, SAN DEIGO",32.8841226,-117.1969415
"CARMEL MOUNTAIN ROAD, SAN DEIGO",32.9630893,-117.1307777
"STATION VILLAGE LANE, SAN DEIGO",32.7734419,-117.1464404
"VISTA AVENUE, SAN DEIGO",32.5594293,-117.0509617
"VILLAGE GLEN DRIVE, SAN DEIGO",32.8049627,-117.1313652
"FORDHAM STREET, SAN DEIGO",32.7502454,-117.2141903
"QUIVIRA WAY, SAN DEIGO",32.7590108,-117.2367824
"CAM DEL RIO N  , SAN DEIGO",32.773866,-117.1312841
"DARDAINA DRIVE, SAN DEIGO",32.6669557,-117.0561215
"GILMAN COURT, SAN DEIGO",32.8490971,-117.2362976
"WESTCHESTER AVENUE, SAN DEIGO",32.9071047,-117.1271785
"REX AVENUE, SAN DEIGO",32.7482043,-117.0825142
"MARINE VIEW AVENUE, SAN DEIGO",32.6838395,-117.1083213
"CALIFORNIA STREET, SAN DEIGO",32.7391204,-117.1798099
"CAMTO QUIXOTE  , SAN DEIGO",32.5786693,-117.059732
"COUNTRY CLUB DRIVE, SAN DEIGO",32.839886,-117.2621134
"NEPTUNE PLACE, SAN DEIGO",32.8308766,-117.2806769
"RENO DRIVE, SAN DEIGO",32.7487904,-117.0910746
"CAMTO ARCADA  , SAN DEIGO",32.9321564,-117.0950762
"BONAIR STREET, SAN DEIGO",32.8306916,-117.2763785
"WING STREET, SAN DEIGO",32.748239,-117.2139834
"BETHUNE COURT, SAN DEIGO",32.72143570000001,-117.0748681
"BALBOA ARMS DRIVE, SAN DEIGO",32.8231651,-117.1793093
"STONEY PEAK DRIVE, SAN DEIGO",32.978503,-117.0798555
"NOGAL STREET, SAN DEIGO",32.7059317,-117.0921461
"CASEY STREET, SAN DEIGO",32.6791347,-117.0364214
"VALENCIA PARKWAY, SAN DEIGO",32.700891,-117.0696231
"IMPERIAL  , SAN DEIGO",32.5839444,-117.1130849
"JEFFERSON STREET, SAN DEIGO",32.750348,-117.1948808
"CAVE STREET, SAN DEIGO",32.8480866,-117.2709075
"BUNKER HILL STREET, SAN DEIGO",32.8042909,-117.212197
"NILE STREET, SAN DEIGO",32.7410059,-117.1193867
"GLORIA STREET, SAN DEIGO",32.7004455,-117.0904858
"PIPER RANCH ROAD, SAN DEIGO",32.568653,-116.9537139
"ETIWANDA STREET, SAN DEIGO",32.7488841,-117.2368947
"Z STREET, SAN DEIGO",32.6929058,-117.1134993
"DALEY CENTER DRIVE, SAN DEIGO",32.8034411,-117.1173687
"COLUMBINE STREET, SAN DEIGO",32.7360833,-117.1021061
"VARNEY DRIVE, SAN DEIGO",32.6966454,-117.0596242
"TOMMY DRIVE, SAN DEIGO",32.8039371,-117.0176908
"JELLETT STREET, SAN DEIGO",32.787412,-117.1984022
"MT ARIANE DRIVE, SAN DEIGO",32.8060179,-117.1867107
"MORNINGSIDE STREET, SAN DEIGO",32.672577,-117.063248
"ATLAS STREET, SAN DEIGO",32.8077426,-117.1582193
"INDIANA STREET, SAN DEIGO",32.7443385,-117.1461987
"ALCALA PARK  , SAN DEIGO",32.7686789,-117.1952808
"GLENWOOD DRIVE, SAN DEIGO",32.7415449,-117.1774143
"MATURIN DRIVE, SAN DEIGO",33.0026465,-117.0872936
"GOODE STREET, SAN DEIGO",32.6869608,-117.0313435
"GENTER STREET, SAN DEIGO",32.8369083,-117.2739226
"VALLECITOS  , SAN DEIGO",32.8555509,-117.2541432
"HONEY DRIVE, SAN DEIGO",32.6861023,-117.0422672
"ARIVA WAY, SAN DEIGO",32.8277053,-117.1395588
"MORRELL STREET, SAN DEIGO",32.7987093,-117.2326959
"REEF DRIVE, SAN DEIGO",32.5808989,-117.064614
"CAM PLAYA CARMEL  , SAN DEIGO",32.8374503,-117.0897292
"ROSEWOOD STREET, SAN DEIGO",32.8007837,-117.2132123
"ATHEY AVENUE, SAN DEIGO",32.5655686,-117.0530654
"LARAMIE WAY, SAN DEIGO",32.8060267,-117.0705799
"GURNARD STREET, SAN DEIGO",32.8078658,-117.1052222
"KARMA DRIVE, SAN DEIGO",32.9200283,-117.1220047
"BENJAMIN HOLT ROAD, SAN DEIGO",32.6900748,-117.0494341
"SAN VICENTE STREET, SAN DEIGO",32.7112538,-117.0298508
"SILVERTON AVENUE, SAN DEIGO",32.8908292,-117.1501416
"VIA LA JOLLA DRIVE, SAN DEIGO",32.8697501,-117.233771
"LORCA DRIVE, SAN DEIGO",32.7573999,-117.0621003
"AFFINITY COURT, SAN DEIGO",32.9234004,-117.1113592
"DEL MONTE AVENUE, SAN DEIGO",32.7406046,-117.2471871
"PACIFIC HIGHLANDS PARKWAY, SAN DEIGO",32.9658206,-117.1928574
"TORREY MEADOWS DRIVE, SAN DEIGO",32.9638121,-117.1561
"ALCOTT STREET, SAN DEIGO",32.740624,-117.2230572
"MT ADA ROAD, SAN DEIGO",32.819359,-117.173439
"BEARDSLEY STREET, SAN DEIGO",32.7020317,-117.14655
"SEA REEF DRIVE, SAN DEIGO",32.5767039,-117.024378
"WOODROW AVENUE, SAN DEIGO",32.7177367,-117.0392133
"LOCKRIDGE STREET, SAN DEIGO",32.7100254,-117.1084214
"TITUS STREET, SAN DEIGO",32.7455535,-117.1840963
"RAEJEAN AVENUE, SAN DEIGO",32.7903284,-117.1427671
"AERO COURT, SAN DEIGO",32.8086079,-117.1485336
"VIEWCREST DRIVE, SAN DEIGO",32.7157397,-117.0391979
"STARLING DRIVE, SAN DEIGO",32.7932803,-117.1554246
"MENKAR ROAD, SAN DEIGO",32.9337302,-117.136704
"POCAHONTAS AVENUE, SAN DEIGO",32.8265318,-117.208809
"MIRAMAR PLACE, SAN DEIGO",32.8820535,-117.1809009
"CASTELAR STREET, SAN DEIGO",32.7499426,-117.2372828
"GLENCOLUM DRIVE, SAN DEIGO",32.8044851,-117.1342609
"WEST PARK AVENUE, SAN DEIGO",32.5554114,-117.0445259
"GRAVITY WAY, SAN DEIGO",32.7200973,-117.0683056
"VIA ALICANTE  , SAN DEIGO",32.8612131,-117.2338937
"PAN AMERICAN WEST ROAD, SAN DEIGO",32.729181,-117.1526392
"OLD MILKY WAY, SAN DEIGO",33.0909928,-117.0044394
"OPPORTUNITY ROAD, SAN DEIGO",32.8253689,-117.1588956
"MEADOWS DEL MAR  , SAN DEIGO",32.9412915,-117.1953097
"MAHAILA AVENUE, SAN DEIGO",32.8696208,-117.2197242
"CAMTO ALVAREZ  , SAN DEIGO",32.9070683,-117.1682475
"MARINE STREET, SAN DEIGO",32.8374055,-117.2784445
"WEST HILLS PARKWAY, SAN DEIGO",32.8415177,-117.0235309
"STARGAZE AVENUE, SAN DEIGO",32.9745132,-117.1308414
"SANTA BARBARA PLACE, SAN DEIGO",32.7741607,-117.2515961
"ROSA LINDA STREET, SAN DEIGO",32.5726391,-117.0577668
"AVA STREET, SAN DEIGO",32.6923099,-117.0690033
"CARMEL RIDGE ROAD, SAN DEIGO",32.977742,-117.072713
"DEL MAR TRAILS ROAD, SAN DEIGO",32.9438956,-117.2233758
"CACTUS ROAD, SAN DEIGO",32.5584132,-116.9884436
"NORDICA AVENUE, SAN DEIGO",32.6858009,-117.1048571
"GARBER AVENUE, SAN DEIGO",32.6697859,-117.0466199
"HANIMAN DRIVE, SAN DEIGO",32.727543,-117.0827299
"SOLITA AVENUE, SAN DEIGO",32.7633136,-117.0552538
"BRIGHTON  , SAN DEIGO",32.768177,-117.167566
"PORTE DE MERANO  , SAN DEIGO",32.8601436,-117.2235879
"FERN AVENUE, SAN DEIGO",32.5746138,-117.0689438
"BUDD STREET, SAN DEIGO",32.8084804,-117.1573681
"SNOOK STREET, SAN DEIGO",32.8126748,-117.105944
"VIA ALCAZAR  , SAN DEIGO",32.7971472,-117.1870301
"WESTBOURNE STREET, SAN DEIGO",32.8325253,-117.2776899
"CAMTO CANTILENA  , SAN DEIGO",33.0510091,-117.0711502
"CAMTO CUERVO  , SAN DEIGO",32.7868354,-117.1117208
"CARMEL VIEW ROAD, SAN DEIGO",32.9411632,-117.2328965
"SUNDEVIL WAY, SAN DEIGO",32.9678885,-117.1161668
"REYNOLDS STREET, SAN DEIGO",32.69451100000001,-117.0852944
"TORREY BLUFF DRIVE, SAN DEIGO",32.9542065,-117.2269091
"DELCARDO AVENUE, SAN DEIGO",32.5844782,-117.0417178
"TERRACE DRIVE, SAN DEIGO",32.7617916,-117.1083997
"I-805 NB  , SAN DEIGO",32.6771871,-117.0879123
"APOLLO STREET, SAN DEIGO",32.8081625,-117.1625214
"CHILDRENS WAY, SAN DEIGO",32.798227,-117.1507997
"RED CEDAR DRIVE, SAN DEIGO",32.9082242,-117.0914576
"BLACK CORAL WAY, SAN DEIGO",32.5874066,-117.0233552
"TAURUS PLACE, SAN DEIGO",32.9227581,-117.1333131
"TONY GWYNN DRIVE, SAN DEIGO",32.7070377,-117.1582559
"STROMESA COURT, SAN DEIGO",32.8926336,-117.148032
"MYRTLE WAY, SAN DEIGO",32.7419242,-117.1544531
"BUENOS AVENUE, SAN DEIGO",32.7683932,-117.2009616
"ENCINITAS AVENUE, SAN DEIGO",32.7093914,-117.0245469
"SALIX PLACE, SAN DEIGO",32.9396099,-117.1557006
"GLACIER AVENUE, SAN DEIGO",32.7887631,-117.0929239
"HOLABIRD STREET, SAN DEIGO",32.7887574,-117.0957988
"BAJA DRIVE, SAN DEIGO",32.7667418,-117.0746284
"BALMORAL DRIVE, SAN DEIGO",32.7078896,-117.0703595
"GUIZOT STREET, SAN DEIGO",32.7368937,-117.2464078
"AVENUE OF NATIONS  , SAN DEIGO",32.8970389,-117.0994191
"COAST WALK, SAN DEIGO",32.8481814,-117.2673382
"HEATHERTON COURT, SAN DEIGO",32.9449091,-117.0882675
"CHARING STREET, SAN DEIGO",32.8219801,-117.1712444
"EPANOW AVENUE, SAN DEIGO",32.8154485,-117.2029162
"BLUE LAKE DRIVE, SAN DEIGO",32.7918341,-117.0217305
"RUEDA DRIVE, SAN DEIGO",32.822954,-117.0851967
"BRUMBY WAY, SAN DEIGO",32.8059582,-117.1068933
"EXECUTIVE SQUARE, SAN DEIGO",32.8740019,-117.214972
"FORT STOCKTON DRIVE, SAN DEIGO",32.7516963,-117.1802129
"QUIMBY STREET, SAN DEIGO",32.734098,-117.2271181
"VALLEY ROAD, SAN DEIGO",32.6633836,-117.0631238
"BENICIA STREET, SAN DEIGO",32.766685,-117.191811
"CAM DE LA PLAZA, SAN DEIGO",32.9922913,-117.1641679
"CARA WAY, SAN DEIGO",32.940778,-117.1088255
"HAWLEY BOULEVARD, SAN DEIGO",32.7663344,-117.1194519
"BOLTON HALL ROAD, SAN DEIGO",32.5508229,-117.0381553
"BAY BOULEVARD, SAN DEIGO",32.6000412,-117.0917106
"PRINGLE STREET, SAN DEIGO",32.7465907,-117.1809272
"PETERLYNN DRIVE, SAN DEIGO",32.5741563,-117.046231
"LANDSCAPE DRIVE, SAN DEIGO",32.6708705,-117.0526155
"KLEEFELD AVENUE, SAN DEIGO",32.829957,-117.1988177
"CAMINO DEL RIO N  , SAN DEIGO",32.773866,-117.1312841
"MT ETNA DRIVE, SAN DEIGO",32.8217735,-117.188717
"INDUSTRIAL BOULEVARD, SAN DEIGO",32.6051051,-117.0861129
"RIMBEY AVENUE, SAN DEIGO",32.5682265,-117.0905975
"CUSTER STREET, SAN DEIGO",32.7635713,-117.19998
"FARNHAM STREET, SAN DEIGO",32.8328356,-117.1266632
"VALENCIA DRIVE, SAN DEIGO",32.7633136,-117.0552538
"BELLE FLEUR WAY, SAN DEIGO",32.9492378,-117.1024292
"GALVIN AVENUE, SAN DEIGO",32.920562,-117.122574
"STORK STREET, SAN DEIGO",32.7114142,-117.0611859
"RAY STREET, SAN DEIGO",32.7447533,-117.1292257
"MONUMENT ROAD, SAN DEIGO",32.5444413,-117.0932818
"SUNSET LANE, SAN DEIGO",32.5581746,-117.054293
"DONZEE STREET, SAN DEIGO",32.8042845,-117.1528962
"CASTLE AVENUE, SAN DEIGO",32.7450066,-117.0915508
"LAHITTE COURT, SAN DEIGO",32.8553431,-117.2163651
"MANGO DRIVE, SAN DEIGO",32.9491981,-117.2474184
"HARTFIELD AVENUE, SAN DEIGO",32.9580309,-117.2311485
"ACAMA STREET, SAN DEIGO",32.9266339,-117.1567332
"FABER WAY, SAN DEIGO",32.769931,-117.0807963
"UTICA DRIVE, SAN DEIGO",32.6727155,-117.0471342
"POINSETTIA DRIVE, SAN DEIGO",32.7453198,-117.2251549
"MONTEZUMA  , SAN DEIGO",32.7707732,-117.0769362
"CANTERBURY DRIVE, SAN DEIGO",32.7710366,-117.1087247
"PACIFICA DRIVE, SAN DEIGO",32.8158129,-117.2265601
"CLOUDESLY DRIVE, SAN DEIGO",33.048033,-117.0626524
"BLUEHAVEN COURT, SAN DEIGO",32.5585662,-117.0657473
"WINLOW STREET, SAN DEIGO",32.7412289,-117.0783759
"LA DORNA STREET, SAN DEIGO",32.7717649,-117.0590048
"SULLIVAN AVENUE, SAN DEIGO",32.7070278,-117.0601819
"SEA BREEZE DRIVE, SAN DEIGO",32.677376,-117.0621415
"SARATOGA AVENUE, SAN DEIGO",32.7460198,-117.2454837
"GIFFORD WAY, SAN DEIGO",32.7840818,-117.1744543
"REMINGTON ROAD, SAN DEIGO",32.7752744,-117.0806435
"WOMBLE ROAD, SAN DEIGO",32.7354216,-117.2169842
"MYKONOS LANE, SAN DEIGO",32.9468835,-117.2298412
"COUNTRYSIDE DRIVE, SAN DEIGO",32.7700502,-117.0836373
"SANTA ISABEL DRIVE, SAN DEIGO",32.6973429,-117.0792484
"ROYAL GORGE DRIVE, SAN DEIGO",32.8160968,-117.052324
"HUGHES STREET, SAN DEIGO",32.7459108,-117.0683977
"METRO STREET, SAN DEIGO",32.766468,-117.1970886
"FLOREY STREET, SAN DEIGO",32.8579235,-117.1914339
"EAST DRIVE, SAN DEIGO",32.7517099,-117.2087766
"BIRD ROCK AVENUE, SAN DEIGO",32.8157764,-117.2698037
"LLOYD STREET, SAN DEIGO",32.7963812,-117.2064518
"BANDINI STREET, SAN DEIGO",32.7470056,-117.188518
"PENDIENTE COURT, SAN DEIGO",32.8151012,-117.0839423
"23RD STREET, SAN DEIGO",32.7163209,-117.1431632
"PASEO DE LAS AMERICA  , SAN DEIGO",32.5564843,-116.9360525
"DYLAN STREET, SAN DEIGO",32.684033,-117.0425455
"CALAIS DRIVE, SAN DEIGO",32.9447425,-117.2468043
"COLLEGE WAY, SAN DEIGO",32.7595133,-117.0670431
"GOLDFIELD STREET, SAN DEIGO",32.7806389,-117.2053607
"MT FORAKER AVENUE, SAN DEIGO",32.823761,-117.1886635
"TEMECULA STREET, SAN DEIGO",32.7516343,-117.231452
"POTOMAC RIDGE ROAD, SAN DEIGO",33.0162154,-117.1296866
"ACACIA STREET, SAN DEIGO",32.6903668,-117.1144777
"WEXFORD STREET, SAN DEIGO",32.9389085,-117.0988539
"MONTALVO STREET, SAN DEIGO",32.7496766,-117.2318336
"FORWARD STREET, SAN DEIGO",32.8142854,-117.2671886
"DE LA VALLE  , SAN DEIGO",32.9909518,-117.2162847
"ALMAZON STREET, SAN DEIGO",32.9941428,-117.0930482
"RHOADES ROAD, SAN DEIGO",32.6720778,-117.0520273
"VISTA HORIZON STREET, SAN DEIGO",32.7029668,-117.1049719
"I-8  , SAN DEIGO",32.75966,-117.1743406
"WHITTIER STREET, SAN DEIGO",32.736724,-117.2226449
"CUYAMACA AVENUE, SAN DEIGO",32.7015498,-117.1065302
"VIA ESTRADA  , SAN DEIGO",32.8340897,-117.2549306
"BENDIGO ROAD, SAN DEIGO",32.9124408,-117.1551705
"SCHOOL STREET, SAN DEIGO",32.762308,-117.1189648
"ANGELIQUE STREET, SAN DEIGO",32.9310812,-117.0719966
"ADERMAN AVENUE, SAN DEIGO",32.907857,-117.1621243
"UNIVERSITY PLACE, SAN DEIGO",32.7482167,-117.167595
"ALVERSON ROAD, SAN DEIGO",32.5571514,-117.0515679
"ESCOBAR DRIVE, SAN DEIGO",32.8237432,-117.0999349
"NAPLES PLACE, SAN DEIGO",32.76902159999999,-117.2013322
"CAMINO DE LA REINA  , SAN DEIGO",32.7681203,-117.1537622
"LEWISON DRIVE, SAN DEIGO",32.8002409,-117.078531
"RANCHO HILLS DRIVE, SAN DEIGO",32.6723208,-117.0586008
"ABRA DRIVE, SAN DEIGO",33.0220695,-117.0544506
"KEEN DRIVE, SAN DEIGO",32.6739685,-117.0494189
"CIVITA BOULEVARD, SAN DEIGO",32.7774793,-117.1476986
"QUAIL STREET, SAN DEIGO",32.7142526,-117.1096941
"GLADE STREET, SAN DEIGO",32.7450391,-117.0633087
"DUPONT STREET, SAN DEIGO",32.7152686,-117.2459097
"KENAMAR DRIVE, SAN DEIGO",32.8866477,-117.155459
"UDALL STREET, SAN DEIGO",32.7382518,-117.2271889
"COLE STREET, SAN DEIGO",32.8385746,-117.2014133
"BAHIA LANE, SAN DEIGO",32.818457,-117.238232
"ACE STREET, SAN DEIGO",32.7435116,-117.0788211
"BELT STREET, SAN DEIGO",32.7273608,-117.1735734
"HARDING AVENUE, SAN DEIGO",32.70359,-117.1136145
"LINDO PASEO, SAN DEIGO",32.7716467,-117.0728154
"BAYVIEW HEIGHTS WAY, SAN DEIGO",32.7237627,-117.0762724
"ZAPATA AVENUE, SAN DEIGO",32.9252514,-117.1461071
"HIXSON AVENUE, SAN DEIGO",32.725246,-117.1053465
"RADIO DRIVE, SAN DEIGO",32.72089220000001,-117.0621361
"SKY PARK COURT, SAN DEIGO",32.8153557,-117.1267055
"ROANOKE STREET, SAN DEIGO",32.6730548,-117.0622715
"FATHER JUNIPERO SERR TRAIL, SAN DEIGO",32.8329967,-117.0473714
"FONTAINE STREET, SAN DEIGO",32.8019057,-117.0754012
"OLD QUARRY ROAD, SAN DEIGO",32.7863331,-117.1272246
"BROWNING STREET, SAN DEIGO",32.7412251,-117.2225337
"JESSOP LANE, SAN DEIGO",32.7460003,-117.1979199
"FALCON STREET, SAN DEIGO",32.7520726,-117.1704448
"BLACKSHAW LANE, SAN DEIGO",32.5594493,-117.0550343
"BONSALL STREET, SAN DEIGO",32.7115637,-117.0313872
"EDGEWARE ROAD, SAN DEIGO",32.7627848,-117.1053086
"VISION DRIVE, SAN DEIGO",32.8808724,-117.2120329
"COPLEY PARK PLACE, SAN DEIGO",32.8359608,-117.1552675
"DAVID STREET, SAN DEIGO",32.7784666,-117.1694443
"GULLSTRAND STREET, SAN DEIGO",32.8525308,-117.1909789
"BOOTES STREET, SAN DEIGO",32.92671,-117.1317025
"LA PAZ DRIVE, SAN DEIGO",32.6985049,-117.0834718
"ROLANDO COURT, SAN DEIGO",32.7674476,-117.0575546
"MONTECITO WAY, SAN DEIGO",32.7528438,-117.1627242
"LOFBERG STREET, SAN DEIGO",32.8119152,-117.1066331
"VIA ABACA  , SAN DEIGO",32.9187142,-117.1362115
"LIPMANN STREET, SAN DEIGO",32.8572005,-117.1980253
"MONONGAHELA STREET, SAN DEIGO",32.8338644,-117.2282356
"CAMPUS AVENUE, SAN DEIGO",32.75748110000001,-117.1487857
"FOOTHILL ROAD, SAN DEIGO",32.5607107,-117.0503435
"WILLOW STREET, SAN DEIGO",32.7332875,-117.2263223
"DALBERGIA STREET, SAN DEIGO",32.688625,-117.117882
"PERSHING AVENUE, SAN DEIGO",32.7448563,-117.1346678
"CHELSEA STREET, SAN DEIGO",32.8088357,-117.2653224
"CAMTO VISTANA  , SAN DEIGO",32.9736738,-117.1598287
"MELBOURNE DRIVE, SAN DEIGO",32.7954124,-117.1255983
"KANTOR STREET, SAN DEIGO",32.8495362,-117.1925167
"CYPRESS AVENUE, SAN DEIGO",32.744328,-117.1487539
"CIBOLA ROAD, SAN DEIGO",32.806302,-117.0543293
"KARNES WAY, SAN DEIGO",32.8169344,-117.2180546
"HAZARD WAY, SAN DEIGO",32.8356751,-117.12749
"VICKERS STREET, SAN DEIGO",32.8272643,-117.150423
"DESERT VIEW DRIVE, SAN DEIGO",32.8255143,-117.2358619
"LINBROOK DRIVE, SAN DEIGO",32.7772213,-117.1658659
"GARRISON STREET, SAN DEIGO",32.7276843,-117.2318378
"NEALE STREET, SAN DEIGO",32.746874,-117.1792782
"PESCADERO AVENUE, SAN DEIGO",32.7358544,-117.2499573
"KENALAN DRIVE, SAN DEIGO",32.5730815,-117.0488396
"CARDINAL ROAD, SAN DEIGO",32.7914484,-117.1573394
"COLLURA STREET, SAN DEIGO",32.73736239999999,-117.083984
"REGENTS PARK ROW, SAN DEIGO",32.8726613,-117.2198291
"PADGETT STREET, SAN DEIGO",32.8953859,-117.12698
"CADIZ STREET, SAN DEIGO",32.7436945,-117.209721
"GREGORY STREET, SAN DEIGO",32.729454,-117.1218371
"JEWELL DRIVE, SAN DEIGO",32.6992441,-117.1154712
"ISTHMUS COURT, SAN DEIGO",32.7731217,-117.2513285
"GIBBS DRIVE, SAN DEIGO",32.8104588,-117.1416356
"LEA STREET, SAN DEIGO",32.7458601,-117.0796475
"SUMAC DRIVE, SAN DEIGO",32.7317378,-117.1023591
"SNOWDROP STREET, SAN DEIGO",32.7341016,-117.1040775
"ARIANE DRIVE, SAN DEIGO",32.827763,-117.225983
"REHCO ROAD, SAN DEIGO",32.8866865,-117.171829
"WABASH BOULEVARD, SAN DEIGO",32.7171265,-117.1178039
"WEST TALMADGE DRIVE, SAN DEIGO",32.7616552,-117.1015066
"BIRCHWOOD STREET, SAN DEIGO",32.7944727,-117.0776779
"SANTA CLARA PLACE, SAN DEIGO",32.7828095,-117.2509364
"MARY LANE DRIVE, SAN DEIGO",32.7697588,-117.0719154
"LAKE SHORE DRIVE, SAN DEIGO",32.7961361,-117.0359603
"CHICAGO STREET, SAN DEIGO",32.7917646,-117.2042207
"RIDGE VIEW DRIVE, SAN DEIGO",32.7299631,-117.0956723
"DICKINSON STREET, SAN DEIGO",32.755216,-117.1658446
"GREENWOOD STREET, SAN DEIGO",32.7548178,-117.2060267
"GREENE STREET, SAN DEIGO",32.7487072,-117.238357
"WEST CANYON AVENUE, SAN DEIGO",32.801656,-117.1190588
"POOLE STREET, SAN DEIGO",32.8728712,-117.244503
"BAYVIEW HEIGHTS PLACE, SAN DEIGO",32.7245102,-117.0790507
"MENDOCINO BOULEVARD, SAN DEIGO",32.7433778,-117.2364257
"ILLION STREET, SAN DEIGO",32.78384,-117.1987
"ENTREKEN WAY, SAN DEIGO",32.96273100000001,-117.1437413
"FULMAR STREET, SAN DEIGO",32.7262376,-117.0658332
"GENETIC CENTER DRIVE, SAN DEIGO",32.90664750000001,-117.1816068
"ROYAL ANN AVENUE, SAN DEIGO",32.903593,-117.150543
"GUY STREET, SAN DEIGO",32.7467271,-117.183173
"CARDIN STREET, SAN DEIGO",32.8271316,-117.1629533
"NIGHTINGALE WAY, SAN DEIGO",32.7924883,-117.1543342
"ARISTA STREET, SAN DEIGO",32.753979,-117.191063
"PEPPER DRIVE, SAN DEIGO",32.7332948,-117.1055291
"CAMINO DEL NORTE  , SAN DEIGO",33.0046055,-117.0920443
"WEST MUIRLANDS DRIVE, SAN DEIGO",32.8339643,-117.2680595
"NANCY RIDGE DRIVE, SAN DEIGO",32.8871386,-117.1830041
"SATELLITE BOULEVARD, SAN DEIGO",32.5691643,-117.0970948
"LOMBARD PLACE, SAN DEIGO",32.8679254,-117.2115868
"CYPRESS MEADOWS TRAIL, SAN DEIGO",32.9718038,-117.1807176
"STONE CANYON ROAD, SAN DEIGO",33.0041072,-117.0586041
"PALOMAR AVENUE, SAN DEIGO",32.8269763,-117.2757645
"BLYTHE ROAD, SAN DEIGO",32.9218803,-117.1485603
"WEST BRIARFIELD DRIVE, SAN DEIGO",32.7913104,-117.2500877
"BITTNER STREET, SAN DEIGO",32.7478413,-117.1290391
"AVNDA COSTA ESTE  , SAN DEIGO",32.5569699,-116.9550278
"OLIVE AVENUE, SAN DEIGO",32.6808578,-117.0708456
"CENTER STREET, SAN DEIGO",32.552019,-117.0396256
"AMPUDIA STREET, SAN DEIGO",32.753357,-117.190163
"PIROTTE DRIVE, SAN DEIGO",32.7292169,-117.0843373
"EL CERRITO DRIVE, SAN DEIGO",32.7608483,-117.073671
"FRANCIS STREET, SAN DEIGO",32.7062647,-117.1197961
"AUTO CIRCLE, SAN DEIGO",32.7643147,-117.1542497
"HEMLOCK STREET, SAN DEIGO",32.6995969,-117.1103685
"ALTAMIRANO WAY, SAN DEIGO",32.756532,-117.1916358
"CHELSEA AVENUE, SAN DEIGO",32.813763,-117.270592
"MT ARARAT DRIVE, SAN DEIGO",32.8103445,-117.1857355
"COLIMA STREET, SAN DEIGO",32.8118164,-117.2636224
"OTAY CENTER DRIVE, SAN DEIGO",32.5544622,-116.9425607
"WINDER STREET, SAN DEIGO",32.7435265,-117.1793599
"JEFF STREET, SAN DEIGO",32.7503519,-117.0603697
"SWEETWOOD STREET, SAN DEIGO",32.7064611,-117.0562958
"BERNARDO OAKS DRIVE, SAN DEIGO",33.0219416,-117.0652025
"64TH STREET, SAN DEIGO",32.7114192,-117.0597008
"RICHLAND STREET, SAN DEIGO",32.7909375,-117.1630593
"FENNELL AVENUE, SAN DEIGO",32.7063956,-117.0687375
"KING STREET, SAN DEIGO",32.748148,-117.0481246
"SEA WORLD  , SAN DEIGO",32.7647903,-117.2266083
"MILDRED STREET, SAN DEIGO",32.7685397,-117.1904185
"AVATI DRIVE, SAN DEIGO",32.8171166,-117.2156809
"RAMFOS PLACE, SAN DEIGO",32.6795596,-117.0421585
"AVNDA NAVIDAD  , SAN DEIGO",32.8644305,-117.2097912
"WATTLE DRIVE, SAN DEIGO",32.6795929,-117.0398193
"MOHICAN AVENUE, SAN DEIGO",32.8003511,-117.1995954
"CELIA VISTA DRIVE, SAN DEIGO",32.7504209,-117.0560481
"DUKE STREET, SAN DEIGO",32.7533819,-117.2182828
"SPRAY STREET, SAN DEIGO",32.7528072,-117.2512785
"ARNOLD AVENUE, SAN DEIGO",32.7439404,-117.1368098
"SIENA STREET, SAN DEIGO",32.7046387,-117.0364714
"MARATHON DRIVE, SAN DEIGO",32.7996338,-117.125977
"MIRAMAR AVENUE, SAN DEIGO",32.8420176,-117.2689157
"RAYTHEON ROAD, SAN DEIGO",32.8308536,-117.1539208
"BROADWAY AVENUE, SAN DEIGO",32.7152026,-117.047635
"FERN GLEN  , SAN DEIGO",32.8338487,-117.2776844
"SAPPHIRE STREET, SAN DEIGO",32.8084245,-117.2559506
"MADDEN AVENUE, SAN DEIGO",32.5792492,-117.0711114
"PUTERBAUGH STREET, SAN DEIGO",32.7448817,-117.1787808
"PEREZ COVE WAY, SAN DEIGO",32.76506210000001,-117.2313644
"DEAVER LANE, SAN DEIGO",32.5503381,-117.0533117
"GATEWOOD LANE, SAN DEIGO",32.692944,-117.0368839
"LANSDALE DRIVE, SAN DEIGO",32.9593609,-117.2157198
"ENTRADA DE LUZ  , SAN DEIGO",32.9909745,-117.1531609
"BYRON STREET, SAN DEIGO",32.723774,-117.232933
"BURGENER BOULEVARD, SAN DEIGO",32.787123,-117.1910475
"GLENHAVEN STREET, SAN DEIGO",32.8056026,-117.1406083
"ACWORTH AVENUE, SAN DEIGO",32.8054594,-117.1810056
"EAST WESTINGHOUSE STREET, SAN DEIGO",32.7774435,-117.1673461
"OAKCREST DRIVE, SAN DEIGO",32.750145,-117.0864467
"OLD TOWN AVENUE, SAN DEIGO",32.7485314,-117.1929245
"LAKE ARROWHEAD DRIVE, SAN DEIGO",32.7953773,-117.0098564
"CALLE DE LAS ROSAS  , SAN DEIGO",32.9518457,-117.1154837
"MELOTTE STREET, SAN DEIGO",32.8115131,-117.0442804
"JOHNSON AVENUE, SAN DEIGO",32.7542124,-117.1540375
"BENFIELD COURT, SAN DEIGO",32.7015335,-117.0987069
"APPLETON STREET, SAN DEIGO",32.8360666,-117.2005526
"FLICKER STREET, SAN DEIGO",32.7120414,-117.0477282
"SEAWORLD  , SAN DEIGO",32.7647903,-117.2266083
"MARJORIE DRIVE, SAN DEIGO",32.7153063,-117.0378177
"100TH  , SAN DEIGO",32.735316,-117.149046
"ARROYO SECO DRIVE, SAN DEIGO",32.6999987,-117.0532572
"ERIE STREET, SAN DEIGO",32.7885587,-117.2024779
"CALLE NEIL  , SAN DEIGO",32.800261,-117.194685
"BILLOW DRIVE, SAN DEIGO",32.7111076,-117.0231535
"CAYWOOD STREET, SAN DEIGO",32.8374422,-117.2005542
"SUMMER RIDGE  , SAN DEIGO",32.8942729,-117.1703067
"15TH AVENUE, SAN DEIGO",33.1050236,-117.0807123
" I-15 SB  , SAN DEIGO",32.559272,-117.1013146
"MC KINLEY STREET, SAN DEIGO",32.7377252,-117.1201587
"EDGEMONT STREET, SAN DEIGO",32.7212176,-117.12671
"MAYBERRY STREET, SAN DEIGO",32.6919051,-117.0997562
"LA JOLLA VILLAGE DR RAMP, SAN DEIGO",32.8730346,-117.2155355
"CARROLL CENTRE ROAD, SAN DEIGO",32.8993761,-117.1207005
"CAM CORTO  , SAN DEIGO",35.683681,-106.727341
"BRONTE PLACE, SAN DEIGO",32.7052872,-117.0358521
"VIA TRES VISTA  , SAN DEIGO",32.9646604,-117.1196178
"CONFERENCE WAY, SAN DEIGO",32.9858634,-117.0776021
"FERGUS STREET, SAN DEIGO",32.7115782,-117.065467
"BROADWAY WAY, SAN DEIGO",32.7158006,-117.14316
"CHARLENE AVENUE, SAN DEIGO",32.731419,-117.0539508
"MISSION CLIFF DRIVE, SAN DEIGO",32.7630498,-117.1466123
"ENRICO FERMI DRIVE, SAN DEIGO",32.5600293,-116.9278371
"PORTE DE PALMAS  , SAN DEIGO",32.8606302,-117.2253468
"HEMPHILL DRIVE, SAN DEIGO",32.90549960000001,-117.1540872
"ALCORN STREET, SAN DEIGO",32.5696985,-117.0454732
"RUTLEDGE SQUARE, SAN DEIGO",32.9808497,-117.0706301
"ALGE CIRAS STREET, SAN DEIGO",32.721922,-117.2546425
"CAMINITO DEL ORO  , SAN DEIGO",32.8567821,-117.256392
"DEVONSHIRE DRIVE, SAN DEIGO",32.7300337,-117.2547836
"MACAW LANE, SAN DEIGO",32.7805867,-117.1570263
"PENNANT WAY, SAN DEIGO",32.8464973,-117.2212291
"FAWN AVENUE, SAN DEIGO",32.8302412,-117.2217145
"VILLA TERRACE, SAN DEIGO",32.744851,-117.1357351
"INGELOW STREET, SAN DEIGO",32.72799700000001,-117.229347
"KITE HILL LANE, SAN DEIGO",32.9227988,-117.1256636
"LAKEHURST AVENUE, SAN DEIGO",32.830733,-117.2056235
"PYRAMID STREET, SAN DEIGO",32.7149183,-117.0729027
"TULIP STREET, SAN DEIGO",32.7277978,-117.106801
"MARQUETTE STREET, SAN DEIGO",32.7506145,-117.2189157
"SUNSET BLUFF WAY, SAN DEIGO",32.9513598,-117.2187701
"MT ALBERTINE AVENUE, SAN DEIGO",32.816548,-117.1720488
"FLETCHER PARKWAY, SAN DEIGO",32.7916718,-117.0019398
"VIA ESPANA  , SAN DEIGO",32.8219234,-117.2638626
"CLARA LEE AVENUE, SAN DEIGO",32.7929266,-117.0889703
"VIA LAS TONADAS  , SAN DEIGO",32.5625591,-117.0576458
"HERMES COURT, SAN DEIGO",32.571385,-117.0979614
"KIRKCALDY DRIVE, SAN DEIGO",32.8185155,-117.1592544
"MARIPOSA PLACE, SAN DEIGO",32.6902501,-117.0720316
"GARNET AVE, SAN DEIGO",32.801394,-117.2335118
"WOODBINE WAY, SAN DEIGO",32.7013961,-117.0344218
"RESERVOIR LANE, SAN DEIGO",32.7723237,-117.0545422
"MT SOLEDAD ROAD, SAN DEIGO",32.8397698,-117.252259
"PRECISION PARK LANE, SAN DEIGO",32.5667025,-117.0594874
"MONAIR DRIVE, SAN DEIGO",32.8089898,-117.2102959
"HARBOR VIEW DRIVE, SAN DEIGO",32.71985360000001,-117.2369951
"ALCAMO ROAD, SAN DEIGO",32.91357,-117.154251
"RIDGEHAVEN COURT, SAN DEIGO",32.8203554,-117.1252459
"DIAMOND  , SAN DEIGO",32.743891,-117.1842685
"CAMTO ESTRELLADO  , SAN DEIGO",32.7917024,-117.0628633
"JADE COAST ROAD, SAN DEIGO",32.902027,-117.151321
"FOGG STREET, SAN DEIGO",32.802986,-117.2243834
"PARIS WAY, SAN DEIGO",32.6793851,-117.0436358
"AGUA VISTA WAY, SAN DEIGO",32.7014121,-117.0824305
"BANNING STREET, SAN DEIGO",32.7462005,-117.2350781
"FRONSAC STREET, SAN DEIGO",32.9189278,-117.0665493
"MT CARMEL DRIVE, SAN DEIGO",32.5608151,-117.044209
"MALCOLM DRIVE, SAN DEIGO",32.7550167,-117.0602706
"TWINFORD COURT, SAN DEIGO",32.924732,-117.12338
"CLAIREMONT  , SAN DEIGO",32.8239594,-117.1848787
"BROOKS HUFFMAN PLAZA  , SAN DEIGO",32.7040778,-117.085423
"SPRUCE RUN DRIVE, SAN DEIGO",32.9298626,-117.0852087
"ALBERT STREET, SAN DEIGO",32.7422395,-117.1501293
"JUMANO AVENUE, SAN DEIGO",32.7965809,-117.196027
"SPARROW STREET, SAN DEIGO",32.7182655,-117.0567211
"EL BLANQUERO PLACE, SAN DEIGO",32.8165284,-117.0500113
"PACIFIC MESA BOULEVARD, SAN DEIGO",32.9017946,-117.1914176
"CASTEJON DRIVE, SAN DEIGO",32.8294801,-117.2490858
"BRANICOLE LANE, SAN DEIGO",32.9407735,-117.1163688
"CALUMET AVENUE, SAN DEIGO",32.8106,-117.269043
"ARDATH LANE, SAN DEIGO",32.8502211,-117.2503212
"VIEWRIDGE COURT, SAN DEIGO",32.8299274,-117.1222722
"BOQUITA DRIVE, SAN DEIGO",32.950294,-117.24971
"GATEWAY CENTRAL  , SAN DEIGO",32.7139606,-117.1133766
"SCRIPPS CREEK DRIVE, SAN DEIGO",32.9296885,-117.0905445
"CALLE PRIMERA ROAD, SAN DEIGO",32.5508365,-117.0454967
"MONTEZUMA AVENUE, SAN DEIGO",32.7446048,-117.1998558
"FENELON STREET, SAN DEIGO",32.7276696,-117.2333345
"ESCUELA  , SAN DEIGO",32.748142,-117.2144
"ENCELIA DRIVE, SAN DEIGO",32.8410162,-117.2586321
"DEVILLE DRIVE, SAN DEIGO",32.7203043,-117.0380019
"THRUSH STREET, SAN DEIGO",32.7083294,-117.0715238
"HONORS DRIVE, SAN DEIGO",32.8453989,-117.2231174
"PARADISE VALLEY  , SAN DEIGO",32.6912103,-117.0399716
"PHYLLIS  , SAN DEIGO",32.7857616,-117.1452128
"WACO STREET, SAN DEIGO",32.8046818,-117.1975273
"EAST HARBOR DRIVE, SAN DEIGO",32.6943449,-117.1416573
"NEW SALEM WAY, SAN DEIGO",32.9153387,-117.1623341
"VIA DELA VALLE  , SAN DEIGO",32.9809511,-117.2373332
"ROBINSON MEWS  , SAN DEIGO",32.7457593,-117.1655537
"TUTHER WAY, SAN DEIGO",32.7035325,-117.0459065
"BOLINAS STREET, SAN DEIGO",32.7467618,-117.2363785
"SEQUOIA STREET, SAN DEIGO",32.7924515,-117.2337589
"DURANT STREET, SAN DEIGO",32.7049087,-117.1201681
"PARK MESA WAY, SAN DEIGO",32.7978184,-117.1693188
"LA JOLLA HERMOSA AVENUE, SAN DEIGO",32.8158097,-117.2696198
"ESCALA DRIVE, SAN DEIGO",33.0428552,-117.0690393
"BRYNWOOD WAY, SAN DEIGO",32.7936651,-117.0588869
"TRIBUNA AVENUE, SAN DEIGO",32.9048982,-117.0876111
"MARLESTA DRIVE, SAN DEIGO",32.8112358,-117.1679991
"TORREY HIGHLAND PARK  , SAN DEIGO",32.9602729,-117.2223984
"AVENIDA NAVIDAD  , SAN DEIGO",32.8644305,-117.2097912
"DEL SUR RIDGE  , SAN DEIGO",33.0179549,-117.1223902
"SABRE HILL DRIVE, SAN DEIGO",32.9522215,-117.1001597
"SALVIA WAY, SAN DEIGO",32.9425723,-117.15791
"RANCH0 PENASQUITOS BOULEVARD, SAN DEIGO",32.9541595,-117.1087481
"SR-905 WB  , SAN DEIGO",-1,-1
"DANICA MAE DRIVE, SAN DEIGO",32.8688117,-117.2209268
"EDNA PLACE, SAN DEIGO",32.7622631,-117.1118452
"PATHOS LANE, SAN DEIGO",32.9439658,-117.140946
"LOUKELTON WAY, SAN DEIGO",32.7858046,-117.0891788
"KESLING STREET, SAN DEIGO",32.8335628,-117.1787487
"MIDWDAY DRIVE, SAN DEIGO",32.7503917,-117.2089341
"PARDEE STREET, SAN DEIGO",32.7079514,-117.1178763
"BALBOA COURT, SAN DEIGO",32.7624974,-117.2509102
"SUNDANCE AVENUE, SAN DEIGO",32.9561643,-117.1381183
"MANOMET STREET, SAN DEIGO",32.699042,-117.0888725
"DOWNWIND DRIVE, SAN DEIGO",32.8667291,-117.2498948
"DEFIANCE WAY, SAN DEIGO",32.7694189,-117.0824295
"ELKHART STREET, SAN DEIGO",32.7318439,-117.0862283
"ANCHORAGE LANE, SAN DEIGO",32.7198507,-117.2291327
"BIONA DRIVE, SAN DEIGO",32.7640699,-117.1042398
"MT HARRIS DRIVE, SAN DEIGO",32.82468,-117.188049
"RAEDEL COURT, SAN DEIGO",32.5791967,-117.0914249
"CENTRALOMA DRIVE, SAN DEIGO",32.7376127,-117.2324493
"GROVELAND DRIVE, SAN DEIGO",32.70768839999999,-117.0820071
"NORSTAD STREET, SAN DEIGO",32.5812533,-117.0537951
"PACIFIC RIDGE DRIVEWAY, SAN DEIGO",32.7710775,-117.1857489
"FLORINDO ROAD, SAN DEIGO",33.0267857,-117.0895116
"RIDGEWOOD DRIVE, SAN DEIGO",32.6839817,-117.0642215
"WHEATSTONE STREET, SAN DEIGO",32.7941308,-117.1806695
"MISSION CENTER COURT, SAN DEIGO",32.7732587,-117.1528326
"CAMTO MARITIMO  , SAN DEIGO",32.8554157,-117.2438857
"ADAMS  , SAN DEIGO",32.7633799,-117.1236636
"VANCOUVER AVENUE, SAN DEIGO",32.7360622,-117.1163996
"CARLSBAD STREET, SAN DEIGO",32.7135836,-117.0200112
"GAGE DRIVE, SAN DEIGO",32.7174138,-117.2416613
"WEST CANYON TERRACE, SAN DEIGO",32.8029954,-117.1190513
"WINDFLOWER WAY, SAN DEIGO",32.7211123,-117.2430175
"SYDNEY LANE, SAN DEIGO",32.919845,-117.1175315
"SUNSET RIDGE DRIVE, SAN DEIGO",32.9184542,-117.0829834
"SEABREEZE FARMS DRIVE, SAN DEIGO",32.9537458,-117.2007792
"MICHAEL STREET, SAN DEIGO",32.743488,-117.0718206
"PLAINVIEW ROAD, SAN DEIGO",32.7738263,-117.1959869
"SWANER STREET, SAN DEIGO",32.71665,-117.0713366
"NIGHTHAWK LANE, SAN DEIGO",33.0153993,-117.1240747
"SABER SPRINGS  , SAN DEIGO",32.9484161,-117.0882341
"IROQUOIS AVENUE, SAN DEIGO",32.7973312,-117.1959096
"STAMEN STREET, SAN DEIGO",32.6967972,-117.0620353
"HILLDALE ROAD, SAN DEIGO",32.77052949999999,-117.1048125
"COMMERCE AVENUE, SAN DEIGO",32.8801217,-117.1678846
"BEAUMONT AVENUE, SAN DEIGO",32.81765,-117.269699
"ASHLEY FALLS DRIVE, SAN DEIGO",32.9524505,-117.2108262
"PONTIAC STREET, SAN DEIGO",32.7685229,-117.0667624
"MIDWAY STREET, SAN DEIGO",32.8129287,-117.2659322
"BROOKLINE STREET, SAN DEIGO",32.7241572,-117.091361
"ROLFE ROAD, SAN DEIGO",32.82583,-117.2007143
"DULUTH AVENUE, SAN DEIGO",32.7007746,-117.0720802
"RACINE ROAD, SAN DEIGO",32.7457771,-117.0537642
"CAMTO RIMINI  , SAN DEIGO",32.9648012,-117.1000788
"BOULDER LAKE AVENUE, SAN DEIGO",32.8004957,-117.0179566
"VALLE AVENUE, SAN DEIGO",32.7001522,-117.1251751
"HYACINTH DRIVE, SAN DEIGO",32.7455045,-117.220603
"FAIRFIELD STREET, SAN DEIGO",32.789696,-117.195007
"IBIS STREET, SAN DEIGO",32.7462048,-117.1731616
"MARIPOSA STREET, SAN DEIGO",32.6895311,-117.0755131
"ACACIA GROVE WAY, SAN DEIGO",32.6923425,-117.1146186
"IBSEN STREET, SAN DEIGO",32.7433775,-117.2155349
"AROSA STREET, SAN DEIGO",32.7651914,-117.0668787
"EUCALYPTUS LANE, SAN DEIGO",32.8617143,-117.2319462
"NORTH TALMADGE DRIVE, SAN DEIGO",32.763915,-117.1002347
"AVERIL ROAD, SAN DEIGO",32.5584402,-117.0542908
"LANCASTER DRIVE, SAN DEIGO",32.7858508,-117.0736969
"MARZO STREET, SAN DEIGO",32.5704767,-117.0513542
"REGENTS PARK RUN  , SAN DEIGO",32.8552341,-117.2176154
"CAMTO RADIANTE  , SAN DEIGO",32.9475411,-117.2043801
"CAMINITO SANTA FE  , SAN DEIGO",32.9813973,-117.2373682
"CARMEL VALLEY  , SAN DEIGO",32.9398273,-117.2029363
"MISSION BAY PARK  , SAN DEIGO",32.7778125,-117.226457
"CARROLL WAY, SAN DEIGO",32.8870715,-117.1589395
"YONGE STREET, SAN DEIGO",32.7382332,-117.2221258
"CANYON CREST DRIVE, SAN DEIGO",32.7761459,-117.0743546
"CAMTO CUADRO  , SAN DEIGO",32.9614405,-117.1154894
"PARKWOOD DRIVE, SAN DEIGO",32.6918849,-117.0315898
"TOOMA STREET, SAN DEIGO",32.6828186,-117.0379235
"MERRITAGE COURT, SAN DEIGO",32.9230418,-117.0502951
"TURTLEBACK ROAD, SAN DEIGO",33.0061207,-117.0863589
"GREWIA STREET, SAN DEIGO",32.6905156,-117.0698735
"LOS SONETO DRIVE, SAN DEIGO",32.7070668,-117.0435959
"MEWALL DRIVE, SAN DEIGO",32.808672,-117.0068135
"DE SOTO STREET, SAN DEIGO",32.8073209,-117.2176662
"MURPHY CANYON  , SAN DEIGO",32.8100348,-117.1045265
"MINUTEMAN STREET, SAN DEIGO",32.8021128,-117.1097902
"HUENNEKENS STREET, SAN DEIGO",32.9018524,-117.1818776
"BAY FRONT COURT, SAN DEIGO",32.7167275,-117.1716043
"ALBORADA DRIVE, SAN DEIGO",33.0434364,-117.083367
"CAMTO DEPORTE  , SAN DEIGO",32.7818475,-117.1088438
"SCARF PLACE, SAN DEIGO",32.8065557,-117.0159647
"SALLISAW COURT, SAN DEIGO",32.8006759,-117.0638047
"NICOLA TESLA COURT, SAN DEIGO",32.5532912,-116.9412741
"RACLINE ROAD, SAN DEIGO",32.7457771,-117.0537642
"YORKTOWN DRIVE, SAN DEIGO",32.8020767,-117.1082407
"AZUSA STREET, SAN DEIGO",32.7667095,-117.1933917
"RAYA WAY, SAN DEIGO",32.8515658,-117.2025603
"SALVATION DRIVEWAY, SAN DEIGO",32.7138756,-117.1580019
"COMPASS WAY, SAN DEIGO",32.5817622,-117.0200298
"ODELL ROAD, SAN DEIGO",32.9090818,-117.1538588
"MIRALANI DRIVE, SAN DEIGO",32.8960864,-117.1406339
"CARMEL KNOLLS DRIVE, SAN DEIGO",32.9495764,-117.2128372
"SHOREHAM PLACE, SAN DEIGO",32.8524575,-117.1853927
"BERNARDO TERRACE, SAN DEIGO",33.02729,-117.0768325
"BRAUN AVENUE, SAN DEIGO",32.7107456,-117.0219325
"OLD TOWN  , SAN DEIGO",32.7542167,-117.1969793
"CONTOUR BOULEVARD, SAN DEIGO",32.7601912,-117.0829498
"SCHILLING AVENUE, SAN DEIGO",32.909929,-117.1687344
"LISTER STREET, SAN DEIGO",32.7855124,-117.202445
"REGATTA LANE, SAN DEIGO",32.5847176,-117.0303361
"MESA COLLEGE WAY, SAN DEIGO",32.80457550000001,-117.1685963
"SPITFIRE ROAD, SAN DEIGO",32.9266771,-117.1159993
"GILMORE  , SAN DEIGO",32.7030925,-117.115736
"PASEO MONTERO  , SAN DEIGO",33.0166967,-117.1403359
"TREENA STREET, SAN DEIGO",32.91115,-117.113851
"SYDNEY COURT, SAN DEIGO",32.8724329,-117.2019782
"BIOLA AVENUE, SAN DEIGO",32.5636839,-117.0815459
"HALLER STREET, SAN DEIGO",32.733516,-117.1142321
" EAST DR  , SAN DEIGO",32.7517099,-117.2087766
"MASH  , SAN DEIGO",32.711697,-117.16042
"TUSCALOOSA STREET, SAN DEIGO",32.7453476,-117.2052852
"ARROYO SORRENTO ROAD, SAN DEIGO",32.9279441,-117.2315106
"WINDWARD STREET, SAN DEIGO",32.6943206,-117.0448701
"CALLE CORTA  , SAN DEIGO",32.8609551,-117.252478
"ARILLO STREET, SAN DEIGO",32.8068868,-117.1647916
"DALEHAVEN PLACE, SAN DEIGO",32.7288827,-117.0895237
"MANNING WAY, SAN DEIGO",32.5820202,-117.0813983
"SAN JUAN ROAD, SAN DEIGO",32.7510884,-117.1907204
"TWINLEAF WAY, SAN DEIGO",32.9233406,-117.0920752
"CAMTO PINTORESCO  , SAN DEIGO",32.7741427,-117.101765
"DODSON STREET, SAN DEIGO",32.7100567,-117.1311273
"OLGA AVENUE, SAN DEIGO",32.8057619,-117.152229
"JUMILLA STREET, SAN DEIGO",32.8344606,-117.0828789
"CLOVIS STREET, SAN DEIGO",32.7507579,-117.2322209
"MERIDIAN AVENUE, SAN DEIGO",32.7433781,-117.0575424
"CAMINO DE LA PLAZA  , SAN DEIGO",32.545274,-117.044909
"CROSBY ROAD, SAN DEIGO",32.6974282,-117.1501759
"STELLAR DRIVE, SAN DEIGO",32.8048205,-117.1251661
"REO PLACE, SAN DEIGO",32.6698755,-117.0601516
"OTAY VALLEY ROAD, SAN DEIGO",32.5778598,-116.9999063
"DIANE COURT, SAN DEIGO",32.842145,-117.1851359
"SCHNEPLE DRIVE, SAN DEIGO",32.9277186,-117.1397903
"UNIVERSITY AVE, SAN DEIGO",32.7511595,-117.1084012
" I-15 NB  , SAN DEIGO",32.7242974,-117.1448537
"PRIMERA  , SAN DEIGO",32.549265,-117.043219
"37TH  , SAN DEIGO",32.7515385,-117.1131259
"FIORE TERRACE, SAN DEIGO",32.8703636,-117.2037072
"FALLS VIEW DRIVE, SAN DEIGO",32.773778,-117.0644353
"WINDOM PEAK WAY, SAN DEIGO",32.9357789,-117.0802593
"ENRIGHT DRIVE, SAN DEIGO",32.5576615,-117.0374772
"NORDSTAD STREET, SAN DEIGO",32.5812533,-117.0537951
"ANDROS COURT, SAN DEIGO",32.75046210000001,-117.072606
"CHEVIOT COURT, SAN DEIGO",32.9057221,-117.1625856
"CAMTO PLAZA CENTRO  , SAN DEIGO",32.8693687,-117.2265006
"GRANGER STREET, SAN DEIGO",32.7310774,-117.2514107
"PREECE STREET, SAN DEIGO",32.793199,-117.1772336
"ARJONS DRIVE, SAN DEIGO",32.8944505,-117.1462611
"TORREY VIEW COURT, SAN DEIGO",32.9218726,-117.2343736
"CAMINO RUIZ  , SAN DEIGO",32.9138604,-117.1438019
"RON WAY, SAN DEIGO",32.7853279,-117.1514235
"LAKE ASHMERE DRIVE, SAN DEIGO",32.7994206,-117.0104672
"EUGENE PLACE, SAN DEIGO",32.7693402,-117.1150054
"CABOT DRIVE, SAN DEIGO",32.8916358,-117.1440919
"HIGA PLACE, SAN DEIGO",33.0112335,-117.057452
"SHCAL CREEK DRIVE, SAN DEIGO",32.9680794,-117.0805629
"PIONEER PLACE, SAN DEIGO",32.7468542,-117.1740634
"MC GUIRE DRIVE, SAN DEIGO",32.9527941,-117.227908
"EXCHANGE PLACE, SAN DEIGO",32.8463588,-117.2688227
"GENESEE AVE, SAN DEIGO",32.8406331,-117.1970729
"OLD GROVE ROAD, SAN DEIGO",32.8989596,-117.1116363
"GENEVA AVENUE, SAN DEIGO",32.7167733,-117.0810455
"COVINA CIRCLE, SAN DEIGO",32.9050327,-117.1364345
"FIEGER STREET, SAN DEIGO",32.7274543,-117.0794917
"CREEKSIDE COURT, SAN DEIGO",32.9202532,-117.0758403
"BACKMAN PLACE, SAN DEIGO",32.7569038,-117.1645736
"CAMTO BALADA  , SAN DEIGO",32.8155761,-117.250504
"VIA ARRILIA  , SAN DEIGO",32.934328,-117.2521014
"DEWSBURY AVENUE, SAN DEIGO",32.9187487,-117.1313745
"HARRIS PLANT ROAD, SAN DEIGO",32.8607776,-117.1218041
"MAURY DRIVE, SAN DEIGO",32.8059042,-117.0125595
"ARCHER STREET, SAN DEIGO",32.8113319,-117.2560909
"PASEO MONTE BATALLA  , SAN DEIGO",33.0523971,-117.0680276
"BERNARDO PLAZA DRIVE, SAN DEIGO",33.0211038,-117.0734153
"VILLAS WAY, SAN DEIGO",32.7837461,-117.1340286
"SUNSET BOULEVARD, SAN DEIGO",32.7512219,-117.1840873
"ELMCREST DRIVE, SAN DEIGO",32.7940921,-117.0458197
"DUNWOOD WAY, SAN DEIGO",32.6960251,-117.0336783
"AGEE STREET, SAN DEIGO",32.8509133,-117.20124
"CAMTO SALADO  , SAN DEIGO",32.77224959999999,-117.182429
"ASHTON STREET, SAN DEIGO",32.780531,-117.2045404
"PARK RUN ROAD, SAN DEIGO",32.95255849999999,-117.13907
"BANFIELD LANE, SAN DEIGO",32.9583189,-117.2323619
"COMPASS POINT S DRIVE, SAN DEIGO",32.9269861,-117.1212406
"ALMAYO COURT, SAN DEIGO",32.8289815,-117.185753
"VIA VILLA LA JOLLA DRIVE, SAN DEIGO",32.8697501,-117.233771
"CAM ABROJO  , SAN DEIGO",-1,-1
"MONTEREY PINE DRIVE, SAN DEIGO",32.5682079,-117.0720613
"MUIRLANDS VISTA WAY, SAN DEIGO",32.8277254,-117.2671462
"SR-78 WB  , SAN DEIGO",-1,-1
"SUMMERSHADE LANE, SAN DEIGO",32.9258711,-117.1238332
"SUCCESS AVENUE, SAN DEIGO",32.8058335,-117.1275844
"ELM  , SAN DEIGO",32.72440280000001,-117.1272578
"GLENROY STREET, SAN DEIGO",32.7958377,-117.0786968
"WILLS CREEK ROAD, SAN DEIGO",32.9289526,-117.0881936
"MIDBLUFF AVENUE, SAN DEIGO",32.9575219,-117.0925417
"SUMMERDALE WAY, SAN DEIGO",32.9186173,-117.14045
"COVINA STREET, SAN DEIGO",32.9040902,-117.1342145
" FENTON PY  , SAN DEIGO",32.7808606,-117.1309936
"TRADE PLACE, SAN DEIGO",32.8923138,-117.1533936
"PENASQUITIOS DRIVE, SAN DEIGO",32.9842479,-117.091721
"CALLE VIVIENDA  , SAN DEIGO",33.0035089,-117.0788624
"HERMOSA WAY, SAN DEIGO",32.7540545,-117.1806951
"LUNADA POINT, SAN DEIGO",33.0482815,-117.0580046
"GLENDORA STREET, SAN DEIGO",32.8020651,-117.2142979
"VISTA SAN JUANICO  , SAN DEIGO",32.5820252,-117.0107336
"LYTON  , SAN DEIGO",32.7440498,-117.2120363
"LONGFORD STREET, SAN DEIGO",32.8335294,-117.182733
"CALLE CALLAN ROAD, SAN DEIGO",32.9047657,-117.2408696
"CAR STREET, SAN DEIGO",32.7177081,-117.0273458
"MT CAROL DRIVE, SAN DEIGO",32.802631,-117.180794
"LIMBERICK AVENUE, SAN DEIGO",32.8352318,-117.1787244
"KORINK AVENUE, SAN DEIGO",32.7972835,-117.1643382
"CAMTO WESTCHESTER  , SAN DEIGO",32.909719,-117.127292
"CARMEL MISSION ROAD, SAN DEIGO",32.94697,-117.2211209
"ACOMA AVENUE, SAN DEIGO",32.8314172,-117.1931319
"VIA SAN MARCO  , SAN DEIGO",32.9677369,-117.0956803
"POE STREET, SAN DEIGO",32.7338494,-117.2283599
"PAXTON DRIVE, SAN DEIGO",32.5745337,-117.0726059
"SPRINGFIELD STREET, SAN DEIGO",32.7248442,-117.0565857
"WINNETT STREET, SAN DEIGO",32.7238604,-117.0620889
"PHANTOM LANE, SAN DEIGO",32.9291555,-117.11757
"SUNSET CLIFFS  , SAN DEIGO",32.726274,-117.2514447
"COUTS STREET, SAN DEIGO",32.7499428,-117.1878921
"VIA DE LA VALLE ROAD, SAN DEIGO",32.9809511,-117.2373332
"TOWSER STREET, SAN DEIGO",32.8023921,-117.1376532
"SEAGROVE STREET, SAN DEIGO",32.9587155,-117.204937
"TRIDLE WAY, SAN DEIGO",32.546667,-117.0528214
"OLD EL CAM REAL  , SAN DEIGO",32.9689687,-117.2313632
"DAHLIA AVENUE, SAN DEIGO",32.5829198,-117.0959438
"WORTHINGTON STREET, SAN DEIGO",32.711031,-117.0209563
"WADE STREET, SAN DEIGO",32.7153153,-117.0247417
"ANGELUCCI STREET, SAN DEIGO",32.8085838,-117.1559491
"COLLEGE  , SAN DEIGO",32.7174477,-117.1526701
"NOBLE  , SAN DEIGO",32.7124267,-117.1575869
"EMDEN ROAD, SAN DEIGO",32.9822449,-117.1323171
"PLAZA ACOSTA  , SAN DEIGO",33.0380225,-117.0520332
"LAKIBA PALMER AVENUE, SAN DEIGO",32.713583,-117.086623
"OLIVER COURT, SAN DEIGO",32.7919711,-117.2550429
"METROPOLITAN DRIVE, SAN DEIGO",32.7772041,-117.1580331
"DONAHUE STREET, SAN DEIGO",32.7654242,-117.1890213
"CAMBERLEY COURT, SAN DEIGO",32.5828543,-117.0312047
"SEWELL AVENUE, SAN DEIGO",32.5757448,-117.0726046
"OLLIE STREET, SAN DEIGO",32.7557917,-117.2223152
"GLENDALE AVENUE, SAN DEIGO",32.71478340000001,-117.1391774
"JADE COURT, SAN DEIGO",32.574373,-117.0194643
"MARCELLENA ROAD, SAN DEIGO",32.7581623,-117.0808463
"GATEWAY CENTER AVENUE, SAN DEIGO",32.7131893,-117.1132414
"LADERA STREET, SAN DEIGO",32.7194087,-117.2554443
"ANGELUS  , SAN DEIGO",32.717296,-117.0433375
"CATANIA STREET, SAN DEIGO",32.703149,-117.1060969
"CAROLWOOD DRIVE, SAN DEIGO",32.6962273,-117.0265111
"CLEO STREET, SAN DEIGO",32.7748086,-117.0584195
"STONEY GATE PLACE, SAN DEIGO",32.9698306,-117.0822594
"MENNONITE POINT, SAN DEIGO",32.971982,-117.127406
"COVINA PLACE, SAN DEIGO",32.904753,-117.1377678
"VIA AZUL  , SAN DEIGO",32.9925933,-117.1613826
"BRISTOL RIDGE TERRACE, SAN DEIGO",33.0158783,-117.145258
"TOSCANA WAY, SAN DEIGO",32.8693477,-117.2025406
"TWINING AVENUE, SAN DEIGO",32.5779861,-117.045426
"GRANITE RIDGE DRIVE, SAN DEIGO",32.8053825,-117.1208046
"ALUMNI PLACE, SAN DEIGO",32.7717577,-117.0564199
"PASEO MONTANOSO  , SAN DEIGO",32.9979597,-117.0889956
"FAUNA DRIVE, SAN DEIGO",32.7394622,-117.0641762
"ANTHRACITE WAY, SAN DEIGO",32.827106,-117.118943
"BALLINGER AVENUE, SAN DEIGO",32.809507,-117.0189375
"CHEYENNE AVENUE, SAN DEIGO",32.8014085,-117.1992645
"HARMARSH STREET, SAN DEIGO",32.802381,-117.1529639
"SOUTH SHORES PARK DRIVEWAY, SAN DEIGO",32.7617994,-117.2169998
"CALICO STREET, SAN DEIGO",32.9081358,-117.1506226
"LARKDALE COURT, SAN DEIGO",32.8014597,-117.1465874
"VIA CASA ALTA  , SAN DEIGO",32.8397492,-117.2518147
"POLARIS DRIVE, SAN DEIGO",32.9258021,-117.1303633
"VILLADERA DRIVE, SAN DEIGO",32.7270687,-117.1978609
"DATE PLACE, SAN DEIGO",32.7234138,-117.0877132
"GUNZAN STREET, SAN DEIGO",32.6847616,-117.0392853
"DUNBROOK ROAD, SAN DEIGO",32.8925826,-117.1518336
"CAMPUS DRIVE, SAN DEIGO",32.7737577,-117.0670317
"HENSLEY STREET, SAN DEIGO",32.7063862,-117.1345594
"JODI STREET, SAN DEIGO",32.7475846,-117.0661438
"MCBURNEY RIDGE LANE, SAN DEIGO",32.9256094,-117.1043514
"SHIELDS STREET, SAN DEIGO",32.8171011,-117.1069059
"TIERRA VISTA CIRCLE, SAN DEIGO",32.9652093,-117.1759613
"GRANITE CREST COURT, SAN DEIGO",32.9362006,-117.1812943
"PAYMOGO COURT, SAN DEIGO",32.9963086,-117.0920586
"LANTANA DRIVE, SAN DEIGO",32.7449137,-117.0902891
"OLD OAK DRIVE, SAN DEIGO",32.704432,-117.0356524
"SYRACUSE AVENUE, SAN DEIGO",32.8469427,-117.2087606
"SDSU TRANSIT CENTER  , SAN DEIGO",32.77332,-117.0705279
"REDWORKS DRIVEWAY, SAN DEIGO",32.7028437,-117.1021756
"PRESIDIO BASEBALL FI  , SAN DEIGO",32.76116,-117.1914696
"OCEAN FRONT STREET, SAN DEIGO",32.7416666,-117.2541378
"STANLEY AVENUE, SAN DEIGO",32.7619448,-117.0617478
"VIA HOLGURA  , SAN DEIGO",32.9490782,-117.226766
"CHINOOK COURT, SAN DEIGO",32.8289279,-117.1957145
"DIZA ROAD, SAN DEIGO",32.5650497,-117.0446493
"SICARD STREET, SAN DEIGO",32.6964434,-117.1380909
"SANDCASTLE LANE, SAN DEIGO",32.7488521,-117.2163194
"MISSION BAY CHANNEL  , SAN DEIGO",32.7683826,-117.239481
"NYE STREET, SAN DEIGO",32.7918301,-117.176306
"MIRAMAR  , SAN DEIGO",32.8767389,-117.1382404
"DICKENS STREET, SAN DEIGO",32.7249801,-117.2318994
"AURORA STREET, SAN DEIGO",32.7100576,-117.0928696
"EAGLE STREET, SAN DEIGO",32.7436462,-117.1696244
"GATTY STREET, SAN DEIGO",32.5858797,-117.0529437
"TORERO WAY, SAN DEIGO",32.7746785,-117.1843757
"CORONADO COURT, SAN DEIGO",32.7645664,-117.2512895
"CALLE MAR DE ARMONIA  , SAN DEIGO",32.9227324,-117.2165993
"LANGMUIR STREET, SAN DEIGO",32.7857072,-117.1751409
"IDLEWILD WAY, SAN DEIGO",32.8282645,-117.2155372
"NORTH TORREY PINES COURT, SAN DEIGO",32.8929243,-117.2419
"ESMERALDAS DRIVE, SAN DEIGO",32.8270112,-117.099813
"ANZA DRIVE, SAN DEIGO",32.7111245,-117.0327093
"ROYAL LYTHAM RW ROW, SAN DEIGO",32.9993637,-117.0718416
"LYNN STREET, SAN DEIGO",32.742263,-117.070204
"ORCUTT AVENUE, SAN DEIGO",32.790684,-117.0904136
"LEGHORN AVENUE, SAN DEIGO",32.7005059,-117.0558526
"CYPRESS CANYON DRIVE, SAN DEIGO",32.9288189,-117.0783622
"WINEWOOD STREET, SAN DEIGO",32.7075688,-117.0426443
"ROCKNE STREET, SAN DEIGO",32.6714271,-117.0494589
"AMES STREET, SAN DEIGO",32.8088059,-117.1633348
"SUNSET POINT PLACE, SAN DEIGO",32.9571615,-117.2134932
"STAINWOOD WAY, SAN DEIGO",32.6987188,-117.0320943
"MARBURY AVENUE, SAN DEIGO",32.9145622,-117.1291125
"SHOOTING STAR COURT, SAN DEIGO",32.5666401,-117.0561757
"SUNSET CROSSING POINT, SAN DEIGO",32.5793885,-117.0185291
"RUSHVILLE STREET, SAN DEIGO",32.8350488,-117.2750154
"HYADES WAY, SAN DEIGO",32.9197298,-117.1293595
"SPRINGBROOK DRIVE, SAN DEIGO",32.9404485,-117.0807679
"NEWKIRK DRIVE, SAN DEIGO",32.8247444,-117.2683588
"OGDEN STREET, SAN DEIGO",32.746567,-117.0818643
"PARADISE HILLS ROAD, SAN DEIGO",32.6936402,-117.0445887
"PARKLAND WAY, SAN DEIGO",32.6913592,-117.0517034
"WESTSIDE DRIVE, SAN DEIGO",32.776536,-117.1524169
"SHADY SANDS ROAD, SAN DEIGO",32.8142851,-117.0506495
"BURGUNDY STREET, SAN DEIGO",32.7918722,-117.0929009
"LAS PALMAS SQUARE, SAN DEIGO",32.8681225,-117.2156969
"HOLDER WAY, SAN DEIGO",32.8223761,-117.1057771
"INDIA  , SAN DEIGO",32.89456,-117.132776
"OCEAN VIEW HILLS  , SAN DEIGO",32.5761395,-117.0146736
"WHINCHAT STREET, SAN DEIGO",32.78238839999999,-117.1613187
"COCHRAN AVENUE, SAN DEIGO",32.5857588,-117.058921
"WEST BROOK AVENUE, SAN DEIGO",32.684894,-117.0271886
"CALLE ABAJO  , SAN DEIGO",32.6643811,-117.0661673
"KENYON STREET, SAN DEIGO",32.7495807,-117.2150327
"RED ROCK DRIVE, SAN DEIGO",32.9043884,-117.0966954
"HEATER COURT, SAN DEIGO",32.9086894,-117.1730554
"APPLE TREE DRIVE, SAN DEIGO",32.8287672,-117.1145494
"YERBA SANTA DRIVE, SAN DEIGO",32.7740373,-117.0907512
"ALDERHILL TERRACE, SAN DEIGO",32.9308716,-117.0788377
"COYOTE BUSH DRIVE, SAN DEIGO",33.0218995,-117.1284777
"CAULFIELD DRIVE, SAN DEIGO",32.5788843,-117.0750566
"GRAYDON ROAD, SAN DEIGO",32.954672,-117.2223782
"SAUCILLO  , SAN DEIGO",32.9971749,-117.0686209
"REVILLO DRIVE, SAN DEIGO",32.7578323,-117.0577514
"DAVENPORT  , SAN DEIGO",32.9711633,-117.1321171
"MERRYFIELD RW ROW, SAN DEIGO",32.9003933,-117.2364178
"ASHFORD PLACE, SAN DEIGO",32.8050315,-117.1607042
"DUCOS PLACE, SAN DEIGO",32.819963,-117.0968843
"NUTE WAY, SAN DEIGO",32.8184412,-117.2183947
"CORVUS PLACE, SAN DEIGO",32.9250085,-117.1343385
"TERRACE PINE DRIVE, SAN DEIGO",32.5682885,-117.0737758
"CENTURION SQUARE, SAN DEIGO",32.8617345,-117.206951
"LA JOLLA SHORES  , SAN DEIGO",32.8589947,-117.2557447
"MAST  , SAN DEIGO",32.7702265,-117.2019424
"VIA FRESA  , SAN DEIGO",32.82697450000001,-117.246582
"ADELPHI PLACE, SAN DEIGO",32.7633095,-117.0826801
"CACTUS RIDGE STREET, SAN DEIGO",32.720594,-117.1149875
"PINE STREET, SAN DEIGO",32.7563012,-117.186221
"CANDELA PLACE, SAN DEIGO",32.9541782,-117.2382437
"DEER RIDGE ROAD, SAN DEIGO",33.0119136,-117.1195746
"BIRCH STREET, SAN DEIGO",32.6879717,-117.1129782
"WESTVALE ROAD, SAN DEIGO",32.9778981,-117.1330592
"LA JOLLA FARMS  , SAN DEIGO",32.8801003,-117.2477134
"ELLINGHAM STREET, SAN DEIGO",32.9652356,-117.1331235
"BRANDYWINE STREET, SAN DEIGO",32.806026,-117.209106
"CAMTO EMPRESA  , SAN DEIGO",32.8202143,-117.2501592
"REDDING ROAD, SAN DEIGO",32.7764293,-117.0821077
"AVNDA ALOZDRA  , SAN DEIGO",33.0404658,-117.0491463
"MISSION CITY PARKWAY, SAN DEIGO",32.7767802,-117.1256987
"HILLSBORO STREET, SAN DEIGO",32.8011773,-117.0744288
"ROCK STREET, SAN DEIGO",32.7513965,-117.0655107
"HARWELL DRIVE, SAN DEIGO",32.8096711,-117.0164769
"VIA FIESTA  , SAN DEIGO",32.9910292,-117.1632839
"SANTA MARIA TERRACE, SAN DEIGO",32.7004974,-117.079723
"MADRIGAL STREET, SAN DEIGO",32.9923122,-117.0893841
"GARY STREET, SAN DEIGO",32.7710577,-117.0603193
"EWING STREET, SAN DEIGO",32.7714757,-117.0615384
"LOTUS STREET, SAN DEIGO",32.7514885,-117.244224
"GRANDVIEW STREET, SAN DEIGO",32.7883461,-117.1925763
"BRANDYWOOD STREET, SAN DEIGO",32.6992735,-117.0509068
"UPA STREET, SAN DEIGO",32.7112785,-117.1550924
"DECORROW  , SAN DEIGO",-1,-1
"CAM COPETE  , SAN DEIGO",32.735316,-117.149046
"LODINGTON PLACE, SAN DEIGO",32.8464231,-117.2643281
"BERNARDO ROAD, SAN DEIGO",33.0244475,-117.0860445
"FRIED AVENUE, SAN DEIGO",32.8501013,-117.2202245
"CHOLLAS PLACE, SAN DEIGO",32.7407036,-117.0832753
"YMCA WAY, SAN DEIGO",32.7048635,-117.0974889
"MT ABBEY AVENUE, SAN DEIGO",32.807228,-117.181297
"PASTERNACK PLACE, SAN DEIGO",32.8009947,-117.134394
"TED WILLIAMS PARKWAY  , SAN DEIGO",32.9280463,-117.2407788
"BRUNNER STREET, SAN DEIGO",32.7691245,-117.1898294
"INDIAN FIG DRIVE, SAN DEIGO",32.7406903,-117.0650312
"LARK STREET, SAN DEIGO",32.7468252,-117.1757716
"SAN PASCUAL STREET, SAN DEIGO",32.6987428,-117.1030925
"BUSH STREET, SAN DEIGO",32.7473391,-117.1727162
"SAN LUIS STREET, SAN DEIGO",32.7141738,-117.1343548
"LEILANI WAY, SAN DEIGO",32.5842703,-117.0688806
"SANTA ROSALIA DRIVE, SAN DEIGO",32.7024021,-117.0840399
"DUCK POND LANE, SAN DEIGO",32.9412151,-117.1800064
"CAPEWOOD LANE, SAN DEIGO",32.9732119,-117.0832999
"BUNNELL STREET, SAN DEIGO",32.6997402,-117.0888724
"BALBOA WAY, SAN DEIGO",32.8179789,-117.1833118
"OVERLOOK  , SAN DEIGO",32.7714385,-117.1992016
"KONA SPRINGS LANE, SAN DEIGO",32.7821406,-117.0855706
"HARVEST RUN DRIVE, SAN DEIGO",32.924942,-117.203392
"EL AMIGO ROAD, SAN DEIGO",32.9505513,-117.2555404
"CARNEGIE PLACE, SAN DEIGO",32.8451213,-117.2179545
"HILGER STREET, SAN DEIGO",32.7198109,-117.053807
"AZUAGA STREET, SAN DEIGO",32.9593669,-117.1089372
"CORDERO ROAD, SAN DEIGO",32.9471249,-117.2542596
"CALIENTE  , SAN DEIGO",32.916208,-117.2367062
"APPIAN DRIVE, SAN DEIGO",32.6778329,-117.0379821
"ROOSEVELT AVENUE, SAN DEIGO",32.790951,-117.2362109
"JENNA COURT, SAN DEIGO",32.7060901,-117.0639997
"CROSS STREET, SAN DEIGO",32.7756995,-117.1911956
"SPRINGHURST DRIVE, SAN DEIGO",32.9421996,-117.0758291
"NEIL  , SAN DEIGO",32.800261,-117.194685
"CARLETON STREET, SAN DEIGO",32.7252555,-117.2338834
"LOS REYES DRIVE, SAN DEIGO",32.7064286,-117.0472036
"SHEPHERD LANE, SAN DEIGO",32.5842266,-117.0428612
"CALLAN ROAD, SAN DEIGO",32.9047657,-117.2408696
"HARJOAN AVENUE, SAN DEIGO",32.793499,-117.1456597
"ARMSTRONG PLACE, SAN DEIGO",32.8042593,-117.1619647
"MOREHOUSE DRIVE, SAN DEIGO",32.8952656,-117.1976361
"AVIATION DRIVE, SAN DEIGO",32.7041671,-117.0530124
"KRAMER STREET, SAN DEIGO",32.7769033,-117.1720236
"ALONDRA DRIVE, SAN DEIGO",33.0180234,-117.056099
"HUTTON AVENUE, SAN DEIGO",32.6724822,-117.0490001
"YAZOO STREET, SAN DEIGO",32.9780691,-117.0952468
"PADRE TRULLIO DRIVE, SAN DEIGO",32.5614929,-117.0446405
"CANOSA AVENUE, SAN DEIGO",32.826099,-117.182587
"CATACINA BOULEVARD, SAN DEIGO",32.7270242,-117.2443204
"CONSOLIDATED WAY, SAN DEIGO",32.878017,-117.166031
"ARENAS STREET, SAN DEIGO",32.8351987,-117.2768439
"MIGUEL VISTA PLACE, SAN DEIGO",32.7019332,-117.0219041
"ELSBERRY STREET, SAN DEIGO",32.6908987,-117.0607011
"KNOLLWOOD ROAD, SAN DEIGO",32.7083497,-117.0307336
"WEST MISSION STREET, SAN DEIGO",32.7644933,-117.2348852
"DRESCHER STREET, SAN DEIGO",32.7795795,-117.1734263
"DEL MAR MESA ROAD, SAN DEIGO",32.9427829,-117.2005357
"LENOX DRIVE, SAN DEIGO",32.7177698,-117.0804468
"LACE PLACE, SAN DEIGO",32.7164864,-117.0877234
"TREAT STREET, SAN DEIGO",32.7143073,-117.1337584
"HUENEME STREET, SAN DEIGO",32.7684013,-117.1858996
"COBB DRIVE, SAN DEIGO",32.8407725,-117.1893947
"KRENZ STREET, SAN DEIGO",32.8024336,-117.1467978
"BESSEMER STREET, SAN DEIGO",32.7190987,-117.2343977
"ALBERTA PLACE, SAN DEIGO",32.748022,-117.1730775
"DANDRIDGE LANE, SAN DEIGO",32.7479979,-117.0692247
"AVENIDA LAMEGA  , SAN DEIGO",33.0038661,-117.0595785
"KIWI STREET, SAN DEIGO",32.7869374,-117.1583201
"SAIL BAY  , SAN DEIGO",32.7885143,-117.2448306
"BARBOUR DRIVE, SAN DEIGO",32.5805204,-117.0732406
"PASEO INTERNACIONAL  , SAN DEIGO",32.5518325,-116.9374368
"PARKER PLACE, SAN DEIGO",32.7922977,-117.2453949
"TERESA DRIVE, SAN DEIGO",32.9251107,-117.1457238
"SHANE PLACE, SAN DEIGO",32.7728351,-117.0596833
"JUST STREET, SAN DEIGO",32.5748948,-117.052043
"THORNWOOD STREET, SAN DEIGO",32.8111037,-117.172661
"UNKNOWN STREET, SAN DEIGO",33.4290888,-116.8332796
"SHOAL SUMMIT DRIVE, SAN DEIGO",32.9668683,-117.0763065
"CAM DEL RIO WEST BOULEVARD, SAN DEIGO",32.7579123,-117.2041145
"VIVIAN STREET, SAN DEIGO",32.7517587,-117.0560272
"WABASKA DRIVE, SAN DEIGO",32.7413188,-117.2327739
"1-5 SB  , SAN DEIGO",32.7740433,-117.2522821
"NORMA DRIVE, SAN DEIGO",32.7616772,-117.0944002
"CRISTOBAL  , SAN DEIGO",32.92759400000001,-117.1623621
"JUDY MCCARTY WAY, SAN DEIGO",-1,-1
"54TH FRONTAGE WEST ROAD, SAN DEIGO",32.7350721,-117.0798505
"HERBERT STREET, SAN DEIGO",32.7448121,-117.1492473
"CASSELBERRY WAY, SAN DEIGO",32.7963741,-117.0481141
"HELIX STREET, SAN DEIGO",32.7324948,-117.0010117
"KENYATTA DRIVE, SAN DEIGO",32.7023249,-117.0688228
"PACIFIC VIEW DRIVE, SAN DEIGO",32.8050223,-117.2605871
"HARBOR  , SAN DEIGO",32.7293076,-117.1997407
"HOMER STREET, SAN DEIGO",32.7430728,-117.2165283
"CAMTO MANRESA  , SAN DEIGO",32.8368172,-117.2544011
"SALK INSTITUTE ROAD, SAN DEIGO",32.886121,-117.2467282
"ABERDEEN STREET, SAN DEIGO",32.83778,-117.18705
"OAKS NORTH DRIVE, SAN DEIGO",33.0332972,-117.0571898
"DIVISION  , SAN DEIGO",32.8094321,-117.1289725
"GENESEE COURT, SAN DEIGO",32.814323,-117.1788203
"FAIRBROOK ROAD, SAN DEIGO",32.9061934,-117.0711473
"MAR REEF COVE, SAN DEIGO",32.5706599,-117.0120654
"PARKBROOK STREET, SAN DEIGO",32.7008886,-117.0221682
"CAMTO EL RINCON  , SAN DEIGO",32.9449002,-117.2368204
"VALENTINO STREET, SAN DEIGO",32.5587923,-117.067178
"MT DURBAN DRIVE, SAN DEIGO",32.817829,-117.1893615
"RUSS BOULEVARD, SAN DEIGO",32.7194075,-117.1383762
"MOUNT ACADIA BOULEVARD, SAN DEIGO",32.8041913,-117.1841264
"DEL HEIGHTS ROAD, SAN DEIGO",32.9562322,-117.2266166
"STATE HIGHWAY 78  , SAN DEIGO",33.0859823,-116.9903166
"OCULTO COURT, SAN DEIGO",33.0249652,-117.0835361
"LUNADA PLACE, SAN DEIGO",33.0494453,-117.0577481
"FRONTAGE ROAD, SAN DEIGO",32.7415323,-117.1860217
"DEERFIELD STREET, SAN DEIGO",32.8130252,-117.0599441
"MERRIMAC AVENUE, SAN DEIGO",32.83610609999999,-117.2086926
"EAOS AVENUE, SAN DEIGO",32.8410054,-117.2741675
"WALNUT AVENUE, SAN DEIGO",32.7414719,-117.1621924
"CARBET PLACE, SAN DEIGO",32.8213797,-117.0966808
"JUMANU AVENUE, SAN DEIGO",32.7965809,-117.196027
"POINT LOMA BOULEVARD, SAN DEIGO",32.7519772,-117.2345834
"MONTCLIFF ROAD, SAN DEIGO",32.6853127,-117.0345712
"DENBY STREET, SAN DEIGO",32.7114735,-117.1028462
"06TH EX STREET, SAN DEIGO",-1,-1
"SAN FELIPE STREET, SAN DEIGO",32.7088926,-117.0271192
"PIPILO STREET, SAN DEIGO",32.9522809,-117.1254284
"CHANNEL WAY, SAN DEIGO",32.756797,-117.2188597
"CLOUDCREST DRIVE, SAN DEIGO",33.009001,-117.085373
"CAMINATA DE LUZ  , SAN DEIGO",32.9694209,-117.0946134
"SAINTSBURY GLEN  , SAN DEIGO",33.0207695,-117.1206757
"WEAVER STREET, SAN DEIGO",32.7218663,-117.0660972
"AMIFORD DRIVE, SAN DEIGO",32.72203289999999,-117.2526852
"GOLDEN HAVEN  , SAN DEIGO",32.8708971,-117.2054653
"TOP GUN STREET, SAN DEIGO",32.9088084,-117.1746521
"DEWEY ROAD, SAN DEIGO",32.7387432,-117.2137676
"PATRIOT STREET, SAN DEIGO",32.800665,-117.1080398
"CONSTITUTION ROAD, SAN DEIGO",32.839584,-117.19323
"MULVANEY DRIVE, SAN DEIGO",32.809404,-117.0096158
"PARADISD VALLEY ROAD, SAN DEIGO",32.6905972,-117.0429154
"OSGOOD WAY, SAN DEIGO",32.8992428,-117.1616868
"MARMIL WAY, SAN DEIGO",32.6661508,-117.0583205
"ONONDAGA AVENUE, SAN DEIGO",32.825439,-117.204773
"MIRAMAR STREET, SAN DEIGO",32.8736072,-117.223939
"COLGATE CIRCLE, SAN DEIGO",32.8232758,-117.2529403
"BAJADA ROAD, SAN DEIGO",33.0277017,-117.0721798
"GASCONADE AVENUE, SAN DEIGO",32.7769935,-117.1934538
"CERRISSA COURT, SAN DEIGO",32.5816601,-117.0891616
"TARENTO DRIVE, SAN DEIGO",32.7197975,-117.2479286
"BERWYN ROAD, SAN DEIGO",32.9109935,-117.1506654
"FENSMUIR STREET, SAN DEIGO",32.8063356,-117.1427056
"ROCKY SHORE ROAD, SAN DEIGO",32.6841835,-117.0620443
"ANNRAE STREET, SAN DEIGO",32.8030545,-117.1535781
"CALLE FORTUNADA  , SAN DEIGO",32.812515,-117.1228968
"SEAGROVE PLACE, SAN DEIGO",32.9611305,-117.2048875
"CAM COSTANERO  , SAN DEIGO",33.4642991,-117.6180443
"BOWDEN AVENUE, SAN DEIGO",32.8265578,-117.1808592
"COPLEY AVENUE, SAN DEIGO",32.7672382,-117.1191471
"JAFFE COURT, SAN DEIGO",32.8017602,-117.0089054
"KEPPLER DRIVE, SAN DEIGO",32.8213113,-117.109122
"SPRUCE  , SAN DEIGO",32.7387076,-117.1617182
"PICO STREET, SAN DEIGO",32.8071455,-117.2232311
"SHOSHONI AVENUE, SAN DEIGO",32.830549,-117.193737
"54TH PLACE, SAN DEIGO",32.7530836,-117.0782881
"PORTO COURT, SAN DEIGO",32.8257434,-117.102404
"CENTER DRIVE, SAN DEIGO",33.1345435,-117.1214211
"ACAMA COURT, SAN DEIGO",32.9266339,-117.1567332
"AVNDA CONSENTIDO  , SAN DEIGO",33.0107191,-117.0689086
"SORIA DRIVE, SAN DEIGO",32.7638919,-117.0677766
"MIMIKA PLACE, SAN DEIGO",32.7957228,-117.1694272
"PROMONTORY STREET, SAN DEIGO",32.788548,-117.238419
"MISSION BEACH BOULEVARD, SAN DEIGO",32.68867,-116.3350505
"ARBORSIDE WAY, SAN DEIGO",32.9253705,-117.0738226
"CAM LINDO  , SAN DEIGO",32.735316,-117.149046
"HAMMERBERG COVE, SAN DEIGO",32.806536,-117.1064876
"ELROSE COURT, SAN DEIGO",32.5754051,-117.0746115
"RENE DRIVE, SAN DEIGO",32.5822256,-117.0462834
"SUSAN PLACE, SAN DEIGO",32.7285411,-117.0849432
"FLOWER AVENUE, SAN DEIGO",32.5759352,-117.0848045
"SEAGLEN WAY, SAN DEIGO",32.5746103,-117.0183747
"EAST LAKE DRIVE, SAN DEIGO",32.7964365,-117.0065881
"ROBINSON PLACE, SAN DEIGO",32.746094,-117.1496805
"CAM DEL MAR  , SAN DEIGO",32.9434897,-117.2606189
"OCEAN VIEW  , SAN DEIGO",32.7012733,-117.1126985
"STILLWELL AVENUE, SAN DEIGO",32.6957592,-117.0710096
"BATISTA STREET, SAN DEIGO",32.8148185,-117.1650429
"PARISH ROAD, SAN DEIGO",33.017029,-117.0587037
"CALEDONIA DRIVE, SAN DEIGO",32.8186458,-117.1575075
"PICKETT STREET, SAN DEIGO",32.756756,-117.2083927
"DUENDA  , SAN DEIGO",33.0350215,-117.0826656
"OSOYOOS PLACE, SAN DEIGO",32.9318073,-117.1347655
"ROOSEVELT ROAD, SAN DEIGO",32.7371841,-117.2141306
"MADELINE STREET, SAN DEIGO",32.7596336,-117.0640062
"ESTHER STREET, SAN DEIGO",32.7617197,-117.0697471
"NESTOR PARK  , SAN DEIGO",32.57217079999999,-117.081247
"ROUS STREET, SAN DEIGO",32.85920490000001,-117.1985194
"VIA DE LA MELODIA  , SAN DEIGO",32.5662501,-117.0493311
"POMERADO  , SAN DEIGO",32.9736692,-117.0625193
"LA CANADA STREET, SAN DEIGO",32.820894,-117.2707175
"FIRST AVENUE, SAN DEIGO",32.7315456,-117.1639412
"MARKET CREEK PLACE, SAN DEIGO",32.7088065,-117.0858381
"TECH WAY, SAN DEIGO",32.8238601,-117.1382386
"VIA LA JOLLA VILLAGE DRIVE, SAN DEIGO",32.8717938,-117.2177712
"PAUL JONES AVENUE, SAN DEIGO",32.8051694,-117.2121825
"GLENBROOK WAY, SAN DEIGO",32.8661463,-117.2421538
"CRYSTAL COVE, SAN DEIGO",32.5775187,-117.0212727
"JUTLAND PLACE, SAN DEIGO",32.8273254,-117.2225963
"19TH  , SAN DEIGO",32.7484207,-117.193728
"DE ANZA ROAD, SAN DEIGO",32.79799819999999,-117.2158445
"KANE STREET, SAN DEIGO",32.7864935,-117.2005343
"KARENSUE AVENUE, SAN DEIGO",32.84889709999999,-117.2005217
"EMERSON STREET, SAN DEIGO",32.7258807,-117.2318922
"ATLAST STREET, SAN DEIGO",32.8077426,-117.1582193
"MAYCREST LANE, SAN DEIGO",32.9167323,-117.1794384
"WILBUR AVENUE, SAN DEIGO",32.8054218,-117.251376
"LEHIGH STREET, SAN DEIGO",32.7745594,-117.2038701
"MICHAELMAS TERRACE, SAN DEIGO",32.7480806,-117.2095224
"EDMONTON AVENUE, SAN DEIGO",32.8567325,-117.2012645
"ROCKFORD DRIVE, SAN DEIGO",32.7688023,-117.0676302
"DELL ANNE PLACE, SAN DEIGO",32.7152074,-117.0232847
"SWEETWATER ROAD, SAN DEIGO",32.6923934,-117.017215
"SUMMERDALE ROAD, SAN DEIGO",32.9180769,-117.1399134
"AVENIDA PLAYA VERACR  , SAN DEIGO",32.8333759,-117.0923713
"HIGHLANDS VILLAGE PLACE, SAN DEIGO",32.9621209,-117.1537194
"EVENING CREEK NORTH DRIVE, SAN DEIGO",32.9612636,-117.0946374
"VIA DE SAN YSIDRO BOULEVARD, SAN DEIGO",32.5514345,-117.0455356
"KLINE STREET, SAN DEIGO",32.8434279,-117.2740733
"FARRAGUT ROAD, SAN DEIGO",32.7330531,-117.2181045
"LAYLA  , SAN DEIGO",32.5722072,-117.0425708
"WELLING WAY, SAN DEIGO",32.7063026,-117.0462062
"DUCHESS STREET, SAN DEIGO",32.74474590000001,-117.0498783
"BERNARDO TRAILS COURT, SAN DEIGO",33.0427263,-117.0595096
"CARTHAGE STREET, SAN DEIGO",32.7927688,-117.0782917
"PINE KNOT BOULEVARD, SAN DEIGO",34.2363885,-116.9116834
"CAM DEL RIO W  , SAN DEIGO",32.7579123,-117.2041145
"SAGEBRUSH ROAD, SAN DEIGO",32.8258021,-117.2422964
"DA VINCI STREET, SAN DEIGO",32.9427758,-117.2173216
"CARDENO DR  DRIVE, SAN DEIGO",32.822121,-117.249023
"YSABEL CREEK ROAD, SAN DEIGO",33.0811201,-116.9894022
"LA SALLE STREET, SAN DEIGO",32.7564363,-117.2196753
"TORQUOISE STREET, SAN DEIGO",32.809277,-117.2562078
"PULITZER PLACE, SAN DEIGO",32.8660438,-117.2169551
"FRIANT STREET, SAN DEIGO",32.9078018,-117.1356571
"POMERADO COURT, SAN DEIGO",33.0226069,-117.0610431
"PIEDRA STREET, SAN DEIGO",32.57119,-117.0541994
"NAUGATUCK AVENUE, SAN DEIGO",32.8343369,-117.2189208
"AUBURNDALE STREET, SAN DEIGO",32.8122244,-117.1714251
"RIDEABOUT COURT, SAN DEIGO",32.9502074,-117.1387576
"BRIGHTON COURT, SAN DEIGO",32.7630152,-117.2510574
"EL CAMINO DE TEATRO  , SAN DEIGO",32.8293963,-117.2591302
"MENTONE STREET, SAN DEIGO",32.7509312,-117.2320668
"DATSUN STREET, SAN DEIGO",32.5719332,-116.9991747
"PALERMO DRIVE, SAN DEIGO",32.7421986,-117.2279482
"12TH AVENUE, SAN DEIGO",32.710452,-117.1538566
"10TH  , SAN DEIGO",32.7151918,-117.1555991
"BUENA VISTA STREET, SAN DEIGO",32.783014,-117.2384904
"GOLDEN RIDGE ROAD, SAN DEIGO",32.8337079,-116.9404643
"MIRA MESA  , SAN DEIGO",32.9184763,-117.1382404
"BERNARDO DRIVE, SAN DEIGO",33.0323653,-117.0810413
"FOURTH AVENUE, SAN DEIGO",32.7319108,-117.1612149
"LOS ANGELES PLACE, SAN DEIGO",32.7007467,-117.0783738
"CASTLETON DRIVE, SAN DEIGO",32.8253974,-117.1734902
"CAMTO BLYTHEFIELD  , SAN DEIGO",32.8343377,-117.2438473
"SAMANTHA COURT, SAN DEIGO",32.9635625,-117.1284664
"TELESIS COURT, SAN DEIGO",32.9027604,-117.208517
"FOX AVENUE, SAN DEIGO",32.8169618,-117.20312
"CONSTRUCTION COURT, SAN DEIGO",32.8836817,-117.167597
"HOPKINS STREET, SAN DEIGO",32.6712212,-117.0665857
"GILBERT DRIVE, SAN DEIGO",32.7593944,-117.0773984
"EAST OVERLOOK DRIVE, SAN DEIGO",32.7543544,-117.0696383
"CYPRESS POINT ROAD, SAN DEIGO",32.7905228,-117.0568151
"ROSELAWN AVENUE, SAN DEIGO",32.7452656,-117.0931757
"CROWNHILL ROAD, SAN DEIGO",32.8117645,-117.2334013
"CAMTO DOHA  , SAN DEIGO",32.9011383,-117.1056966
"15TH  , SAN DEIGO",32.7098467,-117.1503737
"OLD GLOBE WAY, SAN DEIGO",32.7324832,-117.1502612
"MAGUIRE ROAD, SAN DEIGO",32.5496052,-117.0539003
"71ST STREET, SAN DEIGO",32.7125677,-117.0460285
"SUTHERLAND STREET, SAN DEIGO",32.7421843,-117.186031
"MT LA PLATTA DRIVE, SAN DEIGO",32.827469,-117.188133
"MARIAN WAY, SAN DEIGO",32.771048,-117.1928152
"ILEXEY AVENUE, SAN DEIGO",32.573068,-117.0444786
"DUBOIS DRIVE, SAN DEIGO",32.836353,-117.198273
"RICHARD STREET, SAN DEIGO",32.7737786,-117.0544447
"RANDALL STREET, SAN DEIGO",32.810646,-117.2258
"AINSLEY ROAD, SAN DEIGO",32.7819856,-117.1506164
"CAMTO PASADERO  , SAN DEIGO",33.0497141,-117.0686603
"NEWSOME DRIVE, SAN DEIGO",32.7471947,-117.0598802
"HOLLY STREET, SAN DEIGO",33.2054065,-117.3703345
"COCONINO  , SAN DEIGO",32.8318609,-117.2064958
"SEABRIDGE LANE, SAN DEIGO",32.9768184,-117.0792335
"CHALON LANE, SAN DEIGO",32.9665377,-117.072992
"PACIFIC HIGHWAY  , SAN DEIGO",32.7418916,-117.1880823
"JOHN JAY HOPKINS DRIVE, SAN DEIGO",32.8887094,-117.2409785
"BLACK HILLS WAY, SAN DEIGO",32.9598963,-117.123876
"PAGE STREET, SAN DEIGO",32.7427003,-117.0654207
"SILKTREE COURT, SAN DEIGO",32.6916424,-117.1176239
"EASTGATE MALL  , SAN DEIGO",32.8806387,-117.2022914
"WYATT PLACE, SAN DEIGO",32.5669326,-117.031398
"SHOOTING STAR DRIVE, SAN DEIGO",32.5671944,-117.055735
"ARTESIAN ROAD, SAN DEIGO",33.0181706,-117.1549754
"PERIQUE STREET, SAN DEIGO",32.746348,-117.0611198
"73RD STREET, SAN DEIGO",32.769535,-117.0404258
"HARBOR ISLAND DRIVE, SAN DEIGO",32.7252635,-117.2009562
"MARILOU ROAD, SAN DEIGO",32.7223185,-117.089096
"JAGROSS COURT, SAN DEIGO",32.9257809,-117.1444794
"MESA RIM ROAD, SAN DEIGO",32.9009251,-117.1772414
"TOPAZ WAY, SAN DEIGO",32.835078,-117.1360329
"SILK  , SAN DEIGO",32.767224,-117.2001568
"STACY AVENUE, SAN DEIGO",32.8097084,-117.1978816
"CAM SAN BERNARDO  , SAN DEIGO",32.735316,-117.149046
"SWORD WAY, SAN DEIGO",32.9625261,-117.2149504
"SEASCAPE DRIVE, SAN DEIGO",32.6745292,-117.0543584
"CLAY AVENUE, SAN DEIGO",32.7032716,-117.1294982
"WINCHESTER STREET, SAN DEIGO",32.6738051,-117.0629651
"CALLE PAVANA  , SAN DEIGO",32.6810755,-117.053945
"SALMON STREET, SAN DEIGO",32.8024766,-117.1063456
"BAYSIDE WALK, SAN DEIGO",32.7828657,-117.2394988
"CLIFFRIDGE AVENUE, SAN DEIGO",32.8640026,-117.2423991
"NORWALK AVENUE, SAN DEIGO",32.8301298,-117.2114502
"NOBLE DRIVE, SAN DEIGO",32.867186,-117.2121012
"CHAPARAJOS COURT, SAN DEIGO",32.8063528,-117.076129
"MONTONGO CIRCLE, SAN DEIGO",32.9180566,-117.1521355
"MUNDA ROAD, SAN DEIGO",32.6850208,-117.0619421
"EARHART STREET, SAN DEIGO",32.800588,-117.1360909
"CAMARENA ROAD, SAN DEIGO",32.9523424,-117.2239169
"PARK ROW, SAN DEIGO",32.71394,-117.168753
"KEARNY VILLA  , SAN DEIGO",32.84487319999999,-117.1270973
"QUINCE DRIVE, SAN DEIGO",32.7366598,-117.1585654
"BROADWAY STREET, SAN DEIGO",32.7158006,-117.14316
"PAVO REAL DRIVE, SAN DEIGO",32.8131414,-117.0801184
"ROYSTON DRIVE, SAN DEIGO",32.5680132,-117.0948043
"LAKE CAYUGA DRIVE, SAN DEIGO",32.7993186,-117.0243728
"THOR STREET, SAN DEIGO",32.6888656,-117.1176474
"OF INDUSTRY  , SAN DEIGO",32.7180094,-117.1680281
"ENCINO AVENUE, SAN DEIGO",32.7876591,-117.1460444
"GEMINI AVENUE, SAN DEIGO",32.9193162,-117.1251136
"CAROL STREET, SAN DEIGO",32.7598597,-117.0676341
"VENICE STREET, SAN DEIGO",32.738556,-117.2396629
"TORREY GARDENS PLACE, SAN DEIGO",32.9627168,-117.1504087
"MANZANARES  , SAN DEIGO",32.7033036,-117.0817995
"CAMINITO CANTIUENA  , SAN DEIGO",33.0510091,-117.0711502
"CANDLELIGHT DRIVE, SAN DEIGO",32.8148025,-117.2585077
"WESTOVER PLACE, SAN DEIGO",32.7247535,-117.086006
"SAN FERNANDO STREET, SAN DEIGO",32.711949,-117.240266
"ELLIOTT STREET, SAN DEIGO",32.7432459,-117.2213533
"PLAZA RIDGE ROAD, SAN DEIGO",32.689501,-117.0558035
"EAST TALMADGE DRIVE, SAN DEIGO",32.7615954,-117.100401
"LUBER STREET, SAN DEIGO",32.7180852,-117.0735125
"LAPIZ DRIVE, SAN DEIGO",32.9218445,-117.1458901
"GOODWIN STREET, SAN DEIGO",32.778196,-117.1767892
"SHORELINE DRIVE, SAN DEIGO",32.8640039,-117.1993803
"KICKAPOO COURT, SAN DEIGO",32.8254026,-117.2120704
"WALL STREET, SAN DEIGO",32.846924,-117.2732468
"OLYMPIC STREET, SAN DEIGO",32.7522128,-117.0696772
"SAN JOSE PLACE, SAN DEIGO",32.78474,-117.2528405
"GOODYEAR STREET, SAN DEIGO",32.694979,-117.1156139
"LARCHWOOD AVENUE, SAN DEIGO",32.8080907,-117.065207
"CESPED DRIVE, SAN DEIGO",32.8143312,-117.0801745
"OF NATIONS  , SAN DEIGO",32.7144789,-117.1618204
"ELROSE DRIVE, SAN DEIGO",32.5741039,-117.0732728
"TALMADGE CANYON ROW, SAN DEIGO",32.7668357,-117.0951314
"SAN JOAQUIN DRIVE, SAN DEIGO",32.8117126,-117.2255268
"LEEWARD ISLE POINT, SAN DEIGO",32.5699857,-117.0128073
"SHAWN AVENUE, SAN DEIGO",32.7945844,-117.1246333
"ROCKFIELD WAY, SAN DEIGO",32.9265871,-117.1252783
"SWAN LAKE DRIVE, SAN DEIGO",32.927802,-117.1022742
"BROOKS HUFFMAN PLAZA, SAN DEIGO",32.7040778,-117.085423
"VIOLA STREET, SAN DEIGO",32.7720136,-117.2008569
"TORREY MEADOWS  , SAN DEIGO",32.9638121,-117.1561
"PITTA STREET, SAN DEIGO",32.7107236,-117.0727588
"ALAMITOS AVENUE, SAN DEIGO",32.5930037,-117.08622
"DAFTER PLACE, SAN DEIGO",32.7281028,-117.0892393
"SUNSET STREET, SAN DEIGO",32.756004,-117.195396
"11TH AV  AVENUE, SAN DEIGO",32.7152044,-117.1547046
"BRINELL STREET, SAN DEIGO",32.8248055,-117.153162
"INNOVATIVE DRIVE, SAN DEIGO",32.5720039,-117.0012647
"SAN PASCUAL ROAD, SAN DEIGO",33.0835201,-117.0316249
"GREENS EAST ROAD, SAN DEIGO",33.0303959,-117.0624127
"RANCHO DEL SOL WAY, SAN DEIGO",32.9639551,-117.1798387
"RUBY STREET, SAN DEIGO",32.7697412,-117.1885034
"TESORO GROVE WAY, SAN DEIGO",32.57392,-117.0812894
"BARRYMORE STREET, SAN DEIGO",32.9729173,-117.1348835
"LOUISIANA DRIVE, SAN DEIGO",32.7521751,-117.1400523
"MIRA FLORES DRIVE, SAN DEIGO",32.7001848,-117.0748887
"HARCOURT DRIVE, SAN DEIGO",32.7922072,-117.1205436
"SHAW STREET, SAN DEIGO",32.6724961,-117.0671444
"MABEL BELL LANE, SAN DEIGO",32.8378982,-117.2748937
"HIGHTREE LANE, SAN DEIGO",32.6941156,-117.0353796
"LOWER RIDGE ROAD, SAN DEIGO",32.9549154,-117.2420275
"DESTY STREET, SAN DEIGO",32.5820091,-117.0770497
"CAM GLORITA  , SAN DEIGO",32.8323037,-117.1578891
"QUESTOR PLACE, SAN DEIGO",32.7873539,-117.1265794
"JARRETT COURT, SAN DEIGO",32.6963295,-117.0905897
"BONNIE COURT, SAN DEIGO",32.7635935,-117.1100519
"GABACHO DRIVE, SAN DEIGO",32.8312564,-117.0992062
"AGUAMIEL ROAD, SAN DEIGO",33.0401186,-117.0820379
"SCHUYLER STREET, SAN DEIGO",32.6787205,-117.062435
"COLTS WAY, SAN DEIGO",32.7519899,-117.0769519
"CAMTO BOLSA  , SAN DEIGO",32.9620913,-117.1158857
"BELLVALE AVENUE, SAN DEIGO",32.8272598,-117.1805791
"MANOS DRIVE, SAN DEIGO",32.6690583,-117.0551641
"ABBE STREET, SAN DEIGO",32.7801787,-117.1676607
"PASEO TEMPORADA  , SAN DEIGO",32.96218930000001,-117.1197926
"MT ALIFAN PLACE, SAN DEIGO",32.8112865,-117.1933002
"SABRE SPRINGS PLACE, SAN DEIGO",32.9484161,-117.0882341
"ENELRA PLACE, SAN DEIGO",32.8395254,-117.1816019
"LA JOLLA SHORES LANE, SAN DEIGO",32.8721063,-117.2510221
"EVERGREEN AVENUE, SAN DEIGO",32.5793941,-117.0992901
"DELOS DRIVE, SAN DEIGO",32.6846984,-117.0402216
"CONESTOGA WAY, SAN DEIGO",32.8043808,-117.0765438
"LARKSPUR STREET, SAN DEIGO",32.7499814,-117.2387602
"CULVER STREET, SAN DEIGO",32.8019795,-117.2258797
"ESCUELA STREET, SAN DEIGO",32.7138351,-117.0928439
"ROCK ISLAND ROAD, SAN DEIGO",32.681345,-117.06208
"HIERBA DRIVE, SAN DEIGO",33.0203786,-117.0709844
"AVE DE LAS VISTAS  , SAN DEIGO",32.5822973,-117.0092733
"WEST POINT LOMA AVENUE, SAN DEIGO",32.7320556,-117.2479171
"ICE SKATE PLACE, SAN DEIGO",32.9221205,-117.121697
"AGATE STREET, SAN DEIGO",32.8104257,-117.2558173
"LAKIMBA PALMER AVENUE, SAN DEIGO",32.713583,-117.086623
"GENESEE COVE, SAN DEIGO",32.8565937,-117.2048532
"BARKER WAY, SAN DEIGO",32.8117902,-117.0191356
"ACCOTT STREET, SAN DEIGO",32.7228555,-117.2291579
"MT BLACKBURN AVENUE, SAN DEIGO",32.8110694,-117.1871361
"CAM DEL SOL  , SAN DEIGO",32.8544025,-117.256901
"CRESCENT BAY DRIVE, SAN DEIGO",32.5663114,-117.0253325
"CAMEO COURT, SAN DEIGO",32.8088437,-117.1836124
"AZUL LUNA WAY, SAN DEIGO",32.9661236,-117.1715811
"CAMPANILE WAY, SAN DEIGO",32.7656064,-117.0740211
"REGENTS PARK RW ROW, SAN DEIGO",32.8726613,-117.2198291
"HELM STREET, SAN DEIGO",32.7174429,-117.0304885
"AVENIDA VILLAHA  , SAN DEIGO",33.0028126,-117.060771
"AMOROSO STREET, SAN DEIGO",32.8187153,-117.1649297
"OLIVE STREET, SAN DEIGO",32.7347035,-117.1264335
"ARVERNE STREET, SAN DEIGO",32.8159204,-117.1702733
"AVNDA SIVRITA  , SAN DEIGO",32.995975,-117.0777227
"ALTA LA JOLLA DRIVE, SAN DEIGO",32.8215479,-117.2467544
"BURKES HILL  , SAN DEIGO",-1,-1
"RADCLIFFE DRIVE, SAN DEIGO",32.85365970000001,-117.205698
"COLE WAY, SAN DEIGO",32.8409618,-117.2030861
"VIA MAR DE DELFINAS  , SAN DEIGO",32.9170219,-117.2250859
"CAMINO SANTA FE  , SAN DEIGO",32.8983087,-117.1706981
"KEARNY VILLA WAY, SAN DEIGO",32.8300219,-117.1401952
"BLOCH STREET, SAN DEIGO",32.8418866,-117.2325901
"LUZ ROAD, SAN DEIGO",33.0323451,-117.0845836
"SHARRON PLACE, SAN DEIGO",32.7539659,-117.0767134
"ASHLAND AVENUE, SAN DEIGO",32.7800662,-117.0565357
"BERMUDA AVENUE, SAN DEIGO",32.7355499,-117.2515437
"50TH  , SAN DEIGO",32.7549152,-117.0868589
"CAM AMERO  , SAN DEIGO",32.7721219,-117.1687239
"TOWLE COURT, SAN DEIGO",32.7470245,-117.0844805
"LARKIN PLACE, SAN DEIGO",32.7951547,-117.1340571
"FROST-MAR PLACE, SAN DEIGO",32.8769119,-117.1728079
"GROVE STREET, SAN DEIGO",32.7212856,-117.1283991
"CAMTO VECINOS  , SAN DEIGO",33.0128731,-117.0565434
"BIRMINGHAM WAY, SAN DEIGO",32.7965856,-117.1524184
"FARMINGDALE STREET, SAN DEIGO",32.9244944,-117.1026167
"SHOAL CREEK DRIVE, SAN DEIGO",32.9680794,-117.0805629
"ALVIN STREET, SAN DEIGO",32.7140352,-117.0725412
"GEON PLACE, SAN DEIGO",32.804478,-117.081711
"ROSEMONT STREET, SAN DEIGO",32.8275874,-117.2764581
"ARCTURUS WAY, SAN DEIGO",32.927124,-117.1337205
"SR-8  , SAN DEIGO",32.7193702,-117.1574523
"HORTENSIA STREET, SAN DEIGO",32.7528091,-117.1882728
"THEBES STREET, SAN DEIGO",32.9812936,-117.0943284
"PARADISE  , SAN DEIGO",32.775169,-117.238803
"CIVIC CENTER DRIVE, SAN DEIGO",33.1402331,-117.1597067
"GENESEE  , SAN DEIGO",32.8406331,-117.1970729
"RAIL COURT  , SAN DEIGO",32.5445997,-117.0287584
"PROGRESSIVE AVENUE, SAN DEIGO",32.5710348,-117.0034724
"ABER STREET, SAN DEIGO",32.829279,-117.2231065
"GOWDY AVENUE, SAN DEIGO",32.7946857,-117.1399883
"GRAVILLA STREET, SAN DEIGO",32.8290937,-117.2765737
"PEPSI DRIVE, SAN DEIGO",32.8194441,-117.1530889
"PLAZA BONITA CENTERW  , SAN DEIGO",32.656186,-117.065741
"CAMTO FRANCHE  , SAN DEIGO",32.8571462,-117.2265117
"ROCKWOOD ROAD, SAN DEIGO",33.1114924,-117.0113193
"BANTAM AVENUE, SAN DEIGO",32.7945771,-117.1221165
"CAPP  , SAN DEIGO",32.7202899,-117.1641235
"PARROT STREET, SAN DEIGO",32.7231746,-117.1139133
"52ND PLACE, SAN DEIGO",32.7499278,-117.0819897
"BRIARLEAF WAY, SAN DEIGO",32.9380975,-117.0717871
"HARTFORD COURT, SAN DEIGO",32.79186,-117.1989838
"WATERIDGE CIRCLE, SAN DEIGO",32.8986713,-117.2075543
"FRONTERA INTERNACION ROAD, SAN DEIGO",32.5514359,-116.9225718
"BARCELONA STREET, SAN DEIGO",32.7483631,-116.9818057
"PAN AMERICAN EAST ROAD, SAN DEIGO",32.7297659,-117.1510589
"ASCOT STREET, SAN DEIGO",32.7469735,-117.0705706
"COTTON STREET, SAN DEIGO",32.7150761,-117.0946592
"ESSENCE ROAD, SAN DEIGO",32.967471,-117.0678538
"JOSEPHINE STREET, SAN DEIGO",32.7694168,-117.191616
"TOMMY STREET, SAN DEIGO",32.80557210000001,-117.0271385
"LOWELL STREET, SAN DEIGO",32.7310796,-117.2299219
"DEERING STREET, SAN DEIGO",32.917425,-117.1459655
"FAMILY CIRCLE, SAN DEIGO",32.7993197,-117.1579324
"VIRGINIA WAY, SAN DEIGO",32.8447088,-117.2683637
"25TH  , SAN DEIGO",32.7124148,-117.1402597
"MIRAMAR MALL, SAN DEIGO",32.8790254,-117.1828508
"MAJESTIC DRIVE, SAN DEIGO",32.5764122,-117.0578364
"GARDE COURT, SAN DEIGO",32.9846009,-117.1646377
"ARISTA  , SAN DEIGO",32.753979,-117.191063
"SUNRISE STREET, SAN DEIGO",32.7140146,-117.1213744
"INGULF STREET, SAN DEIGO",32.7890746,-117.2018289
"TIERRA GRANDE STREET, SAN DEIGO",32.8950481,-117.1210495
"GOLDEN HAVEN DRIVE, SAN DEIGO",32.8708971,-117.2054653
"LOS ALTOS WAY, SAN DEIGO",32.8111941,-117.2405932
"SILKTREE TERRACE, SAN DEIGO",32.6916424,-117.1176239
"FINCH LANE, SAN DEIGO",32.7837782,-117.1578259
"ALTRIDGE STREET, SAN DEIGO",32.8063972,-117.1392112
"HEWLETT DRIVE, SAN DEIGO",32.7752362,-117.0812966
"GAINES  , SAN DEIGO",32.8452813,-117.1738757
"FERMI AVENUE, SAN DEIGO",32.8004981,-117.1264524
"SCRIPPS RANCH COURT, SAN DEIGO",32.9053565,-117.1102694
"MIRA LAGO WAY, SAN DEIGO",32.919033,-117.0856818
"SELTZER COURT, SAN DEIGO",32.798409,-117.1220429
"AMANTHA AVENUE, SAN DEIGO",32.9097386,-117.1508715
"ORTEN STREET, SAN DEIGO",32.78195950000001,-117.2000249
"DOVE CANYON ROAD, SAN DEIGO",33.0102096,-117.1114023
"COLLEGIO DRIVE, SAN DEIGO",32.8318165,-117.0827782
"OLAMAR WAY, SAN DEIGO",32.6866531,-117.0291594
"DUMAS STREET, SAN DEIGO",32.7412448,-117.2195563
"TAUSSIG COURT, SAN DEIGO",32.8072881,-117.1066105
"32ND  , SAN DEIGO",32.734557,-117.1250616
"SANDMARK AVENUE, SAN DEIGO",32.7891259,-117.1407493
"PAN AMERICA PLAZA  , SAN DEIGO",32.7275587,-117.1534032
"CALLE CASAS BONITAS  , SAN DEIGO",32.669041,-117.061981
"RITCHEY STREET, SAN DEIGO",32.7076433,-117.0532184
"MIRA SORRENTO PLACE, SAN DEIGO",32.8922538,-117.2065965
"COTTONTAIL LANE, SAN DEIGO",32.821554,-117.2599835
"HALO STREET, SAN DEIGO",32.5728198,-117.0970861
"EMBRY WAY, SAN DEIGO",32.900217,-117.1560095
"EAST INGERSOLL STREET, SAN DEIGO",32.787928,-117.1630731
"LIBRA DRIVE, SAN DEIGO",32.9206881,-117.1316998
"VISTA HILL AVENUE, SAN DEIGO",32.794913,-117.1559795
"WESTWOOD STREET, SAN DEIGO",32.6740134,-117.068782
"MANZANITA PLACE, SAN DEIGO",32.7398374,-117.101531
"TENNYSON STREET, SAN DEIGO",32.7376704,-117.2287564
"DEL DIABLO STREET, SAN DEIGO",32.9836667,-117.0901159
"DEL SOL COURT, SAN DEIGO",32.5741469,-117.041852
"LINDA VISTA  , SAN DEIGO",32.791569,-117.1676501
"ATWATER STREET, SAN DEIGO",32.5746598,-117.0996722
"EAST OCEAN AIR DRIVE, SAN DEIGO",32.9185238,-117.2166068
"WABASKA COURT, SAN DEIGO",32.7404477,-117.2321406
"BRITANNIA COURT, SAN DEIGO",32.5487306,-116.980461
"KAMLOOP AVENUE, SAN DEIGO",32.82331,-117.2157095
"HALL AVENUE, SAN DEIGO",32.5545787,-117.0435307
"CARMELINA DRIVE, SAN DEIGO",32.7631999,-117.1453402
"CAMTO CORRIENTE  , SAN DEIGO",32.9974143,-117.0737756
"CONNER WAY, SAN DEIGO",32.8176721,-117.2181362
"PIEDMONT DRIVE, SAN DEIGO",32.725664,-117.2509805
"GILMARTIN DRIVE, SAN DEIGO",32.6910569,-117.0541161
"SEA LILY  , SAN DEIGO",32.5736341,-117.027788
"PAN AMERICA PLAZA, SAN DEIGO",32.7275587,-117.1534032
"ALDER DRIVE, SAN DEIGO",32.76491060000001,-117.1040652
"CARRIE RIDGE WAY, SAN DEIGO",32.6879695,-117.031791
"HEATHER COURT, SAN DEIGO",33.0031118,-117.1056823
"MATINAL CIRCLE, SAN DEIGO",33.0343584,-117.0850498
"PRESTWICK DRIVE, SAN DEIGO",32.8580613,-117.2474915
"LA PALMA STREET, SAN DEIGO",32.792186,-117.2434045
"CHAUMONT DRIVE, SAN DEIGO",32.7243122,-117.0703457
"CARMEL GROVE  , SAN DEIGO",32.9422541,-117.2306842
"WATER RIDGE CIRCLE, SAN DEIGO",32.8986713,-117.2075543
"JACKIE DRIVE, SAN DEIGO",32.8109467,-117.0132331
"BABCOCK STREET, SAN DEIGO",33.0189921,-117.1320072
"BOYD AVENUE, SAN DEIGO",32.8082058,-117.1767114
"CAMINITO CUADRO  , SAN DEIGO",32.9614405,-117.1154894
"DIXIE DRIVE, SAN DEIGO",32.8027625,-117.2587258
"LOMA RIVIERA CIRCLE, SAN DEIGO",32.7553869,-117.2250717
"ACHESON STREET, SAN DEIGO",32.7729115,-117.1734934
"TOMPKINS STREET, SAN DEIGO",32.7069151,-117.1183383
"MURRAY PARK DRIVE, SAN DEIGO",32.7922669,-117.0482199
"BUSINESS CENTRAL COURT, SAN DEIGO",32.5693041,-117.0035279
"MOUND AVENUE, SAN DEIGO",32.7964647,-117.075138
"WERNER STREET, SAN DEIGO",32.8584299,-117.1897876
"BRAMSON PLACE, SAN DEIGO",32.7542914,-117.1229583
"DAVES WAY, SAN DEIGO",32.5801808,-117.0474131
"WALLINGFORD ROAD, SAN DEIGO",32.9117268,-117.1632849
"AVNDA DEL RIO  , SAN DEIGO",32.7678556,-117.1634543
"BEELER CANYON ROAD, SAN DEIGO",32.9279129,-117.036223
"MAISEL WAY, SAN DEIGO",32.7667811,-117.0787878
"MARTHA STREET, SAN DEIGO",32.834685,-117.2065901
"TIVERTON ROAD, SAN DEIGO",32.9595727,-117.235077
"DOLO STREET, SAN DEIGO",32.7068406,-117.0412661
"LISANN STREET, SAN DEIGO",32.8290845,-117.2254836
"CANERIDGE ROAD, SAN DEIGO",32.9363964,-117.0731074
"NEW CHATEL  , SAN DEIGO",32.5713114,-117.0892242
"DAUNTLESS STREET, SAN DEIGO",32.9270493,-117.1184535
"COTTOWNWOOD ROAD, SAN DEIGO",32.5564712,-117.0479889
"RAFFEE ROAD, SAN DEIGO",32.815311,-117.213997
"SPRINGSIDE ROAD, SAN DEIGO",32.9479597,-117.0794871
"HINSON PLACE, SAN DEIGO",32.7621546,-117.0789414
"MISSION  , SAN DEIGO",26.1751909,-98.30068709999999
"CAM TRANQUILO  , SAN DEIGO",33.4439216,-117.5977193
"SCRIPPS VISTA WAY, SAN DEIGO",32.9240781,-117.11341
"BRANDY CANYON ROAD, SAN DEIGO",33.0701948,-116.9751736
"PLOVER STREET, SAN DEIGO",32.7222797,-117.0527654
"NIMITZ STREET, SAN DEIGO",32.7504043,-117.2365378
"BOBHIRD DRIVE, SAN DEIGO",32.8109467,-117.0132331
"HIDALGO AVENUE, SAN DEIGO",32.8328103,-117.2200622
"CLINTON STREET, SAN DEIGO",32.7044322,-117.1136238
"CHERYL RIDGE COURT, SAN DEIGO",32.9280626,-117.1638697
"SR 56 EB   , SAN DEIGO",-1,-1
"CORPORATE COURT, SAN DEIGO",32.8088126,-117.1317394
"CALLE QUEBRADA  , SAN DEIGO",32.6772156,-117.0532995
"CAM DE LA SIESTA  , SAN DEIGO",32.943127,-117.049369
"NIELS BOHR COURT, SAN DEIGO",32.5575013,-116.9386512
"KALBAB COURT, SAN DEIGO",32.796529,-117.1975776
"ALBUQUERQUE STREET, SAN DEIGO",32.807312,-117.2183218
"WIMBERLY SQUARE, SAN DEIGO",32.9566465,-117.0951419
"BLAZEWOOD WAY, SAN DEIGO",33.0065964,-117.0869591
"LOCKFORD AVENUE, SAN DEIGO",32.6710899,-117.0475574
"OFTEDAHL WAY, SAN DEIGO",32.9614157,-117.1194046
"STONY RIDGE WAY, SAN DEIGO",32.9295805,-117.1044553
"BLUFFSIDE AVENUE, SAN DEIGO",32.8094839,-117.2199053
"MALAGA STREET, SAN DEIGO",32.7467953,-117.2116563
"CAITHNESS DRIVE, SAN DEIGO",32.5658617,-117.0552
"MADRESELVA WAY, SAN DEIGO",32.5623229,-117.0862869
"SOVEREIGN ROAD, SAN DEIGO",32.8065052,-117.1365132
"BYRD STREET, SAN DEIGO",32.5845171,-117.0518129
"OVERTON AVENUE, SAN DEIGO",32.7943007,-117.1286933
"WASP WAY, SAN DEIGO",32.7282889,-117.2224124
"JACKDAW STREET, SAN DEIGO",32.7495189,-117.1741207
"ELIZABETH STREET, SAN DEIGO",32.698675,-117.0991525
"DOOLITTLE AVENUE, SAN DEIGO",32.5861686,-117.0581219
"SOLEDAD PARK ROAD, SAN DEIGO",32.8395322,-117.2459209
"NAYLOR ROAD, SAN DEIGO",32.5466417,-117.0532449
"ANDREW STREET, SAN DEIGO",32.7440969,-117.1802998
"COBAN STREET, SAN DEIGO",32.6956,-117.0820079
"ADMIRAL BAKER ROAD, SAN DEIGO",32.7975955,-117.102248
"WADDELL CIRCLE, SAN DEIGO",32.819736,-117.1082642
"SORRENTO VALLE ROAD, SAN DEIGO",32.905218,-117.2269374
"VIA APRILIA  , SAN DEIGO",32.934328,-117.2521014
"HIGHLANDS PLACE, SAN DEIGO",32.9611833,-117.1903977
"COLLEGE GROVE  , SAN DEIGO",32.7389587,-117.0590886
"IVY LANE, SAN DEIGO",32.7421375,-117.1599381
"KIOWA DRIVE, SAN DEIGO",32.7780457,-117.0405272
"MISSION BAY PARKWAY, SAN DEIGO",32.8072495,-117.2181134
"TALMADGE PARK RW ROW, SAN DEIGO",32.7675019,-117.0961435
"SOLEDAD AVENUE, SAN DEIGO",32.8461956,-117.2617771
"GABLES STREET, SAN DEIGO",32.6757189,-117.0690947
"OSTROW STREET, SAN DEIGO",32.8143068,-117.1558777
"PLUM STREET, SAN DEIGO",32.734098,-117.2271181
"WOODMAN  , SAN DEIGO",32.6875112,-117.0458345
"IRONWOOD ROAD, SAN DEIGO",32.9040816,-117.0929895
"TORREY CIRCLE, SAN DEIGO",32.9183973,-117.2136788
"VIA TONGA COURT, SAN DEIGO",32.5790438,-117.0619109
"KELSO ROAD, SAN DEIGO",32.885854,-117.1345425
"SCRIPPS TRAIL, SAN DEIGO",32.9148583,-117.0788685
"TAMILYNN STREET, SAN DEIGO",32.8498925,-117.2033764
"CARLA WAY, SAN DEIGO",32.8095945,-117.2633724
"ARGYLE STREET, SAN DEIGO",32.8067495,-117.1608177
"WINDING RIDGE DRIVE, SAN DEIGO",32.9265023,-117.1053884
"CYPRESS CANYON ROAD, SAN DEIGO",32.9288189,-117.0783622
"COMPLEX STREET, SAN DEIGO",32.8330803,-117.1346807
"ENTREKEN AVENUE, SAN DEIGO",32.9597652,-117.1419994
" ARROYO ROSITA  , SAN DEIGO",32.9844834,-117.2244755
"WINSTON DRIVE, SAN DEIGO",32.7149851,-117.0821162
"OLD CLIFFS ROAD, SAN DEIGO",32.8005301,-117.0885448
"BAVARIAN WAY, SAN DEIGO",32.961122,-117.1402972
"CONCORD STREET, SAN DEIGO",32.724438,-117.240173
"BOREN STREET, SAN DEIGO",32.7468103,-117.0626635
"BORDELON STREET, SAN DEIGO",32.8124919,-117.1080194
"EASTBOURNE ROAD, SAN DEIGO",32.9819083,-117.0716818
"MADERA  , SAN DEIGO",36.9323404,-120.0457184
"JUPITER STREET, SAN DEIGO",32.755882,-117.220165
"WENDELL STREET, SAN DEIGO",32.7299667,-117.0939095
"SEAWARD AVENUE, SAN DEIGO",32.5570086,-117.041511
"NEW SALEM CIRCLE, SAN DEIGO",32.91661190000001,-117.1556256
"PACIFIC MESA COURT, SAN DEIGO",32.9021314,-117.1895234
"HATHAWAY STREET, SAN DEIGO",32.81919680000001,-117.1672115
"GALVESTON STREET, SAN DEIGO",32.7830381,-117.2011449
"INGRAHAM  , SAN DEIGO",32.7827648,-117.2366369
"HILLANDALE DRIVE, SAN DEIGO",32.813663,-117.0638551
"CAM PLAYA NORTE  , SAN DEIGO",32.8323037,-117.1578891
"BEATRICE STREET, SAN DEIGO",32.6720837,-117.0505877
"WALTER AVENUE, SAN DEIGO",32.7950101,-117.0847281
"DELEVAN DRIVE, SAN DEIGO",32.7186441,-117.1183915
"LIETA STREET, SAN DEIGO",32.7779186,-117.2056661
"EASTGATE COURT, SAN DEIGO",32.8812938,-117.1885139
"BOISE AVENUE, SAN DEIGO",32.8321341,-117.1910241
"CAMINITO SANTALUZ NO  , SAN DEIGO",32.9914078,-117.1494851
"CAMTO SANTALUZ SUR  , SAN DEIGO",32.9854311,-117.1556589
"BICYCLE PATH TWO  , SAN DEIGO",32.7601381,-117.2028068
"WAPLES STREET, SAN DEIGO",32.90262209999999,-117.1831383
"WESTPORT STREET, SAN DEIGO",32.679947,-117.064957
"CALLE JUELA  , SAN DEIGO",32.8498474,-117.2549825
"HOITT STREET, SAN DEIGO",32.7095257,-117.1329446
"ANELLA ROAD, SAN DEIGO",32.5471988,-117.0502181
"VALERIO TRAIL, SAN DEIGO",32.9636583,-117.2029878
"DONALDSON DRIVE, SAN DEIGO",32.8063225,-117.228764
"CAMTO EASTBLUFF  , SAN DEIGO",32.8584738,-117.2328539
"NORTH MTN VIEW DRIVE, SAN DEIGO",32.7696448,-117.1214433
"CONVERSE AVENUE, SAN DEIGO",32.788801,-117.1456103
"CAPISTRANO STREET, SAN DEIGO",32.7357296,-117.2296207
"HORTON AVENUE, SAN DEIGO",32.7382665,-117.1724148
"NARRAGANSETT COURT, SAN DEIGO",32.736888,-117.2372756
"PENNINGTON LANE, SAN DEIGO",32.6808292,-117.0406365
"LITTLER DRIVE, SAN DEIGO",32.7978297,-117.0389419
"MACAULAY STREET, SAN DEIGO",32.7316006,-117.2292596
"VALLEJO AVENUE, SAN DEIGO",32.8278424,-117.1985092
"ABBOTSHILL ROAD, SAN DEIGO",32.7852477,-117.1497527
"COWLES MOUNTAIN COURT, SAN DEIGO",32.8018972,-117.0267568
"CONDE STREET, SAN DEIGO",32.7515165,-117.1945803
"OF SCIENCE  , SAN DEIGO",32.9916219,-117.0810431
"SARANAC STREET, SAN DEIGO",32.7707775,-117.0492753
"COMSTOCK COURT, SAN DEIGO",32.7915165,-117.1748702
"MORAN WAY, SAN DEIGO",32.9472936,-117.1285714
"18TH STREET, SAN DEIGO",32.5799725,-117.0948752
"HIGHVIEW DRIVE, SAN DEIGO",32.7280378,-117.1241547
"MT MIGUEL DRIVE, SAN DEIGO",32.666205,-117.0596233
"EVANS PLACE, SAN DEIGO",32.7460422,-117.1599601
"SYCHAR ROAD, SAN DEIGO",32.7054725,-117.0456722
"EAST FALLS VIEW DRIVE, SAN DEIGO",32.773778,-117.0644353
"GRACELAND WAY, SAN DEIGO",32.9554946,-117.1189249
" MIRO CR  , SAN DEIGO",32.9192208,-117.1069048
"CORNERSTONE COURT, SAN DEIGO",32.8960523,-117.1908816
"EL CAMINO  , SAN DEIGO",32.7294854,-117.1709296
"FOXHOUND WAY, SAN DEIGO",32.9280953,-117.204046
"TORREY PINES LANE, SAN DEIGO",32.8501271,-117.252804
"ETA STREET, SAN DEIGO",32.6866625,-117.1059343
"TEAK STREET, SAN DEIGO",32.7003185,-117.1114399
"SEAWORLD DRIVE, SAN DEIGO",32.7611102,-117.2200109
"CALLE SERENA  , SAN DEIGO",32.6761503,-117.0589002
"JUANITA STREET, SAN DEIGO",32.740713,-117.0712537
"SWAN STREET, SAN DEIGO",32.7259786,-117.0594228
"ADIRONDACK RW ROW, SAN DEIGO",32.6801958,-117.0457981
"PERTH PLACE, SAN DEIGO",32.6802187,-117.0475301
"CAM DEL PROGRESSO  , SAN DEIGO",32.5616658,-117.0477171
"BOLIVAR STREET, SAN DEIGO",32.6778184,-117.0691532
"JAVIER STREET, SAN DEIGO",32.830828,-117.1772632
"VIA DE LA BANDOLA  , SAN DEIGO",32.5669702,-117.0485146
"BERYL  , SAN DEIGO",32.8065048,-117.2419501
"CUMANA TERRACE, SAN DEIGO",33.0345164,-117.0492136
"CANARY WAY, SAN DEIGO",32.7907921,-117.1535745
"SHASTA STREET, SAN DEIGO",32.7911478,-117.2353131
"CRABTREE STREET, SAN DEIGO",32.692253,-117.0558955
"DEL CERRO AVENUE, SAN DEIGO",32.7802245,-117.059934
"I 8 EB   , SAN DEIGO",33.0460358,-117.2935124
"LAKE ANDRITA AVENUE, SAN DEIGO",32.7955256,-117.0257236
"CUVIER STREET, SAN DEIGO",32.8399999,-117.2775016
"ULLMAN STREET, SAN DEIGO",32.724268,-117.239273
"DEL SUR RIDGE ROAD, SAN DEIGO",33.0191068,-117.1271263
"LODI STREET, SAN DEIGO",32.8435018,-117.2043789
"POGO RW ROW, SAN DEIGO",32.5753474,-116.9874793
"WINSTANLEY WAY, SAN DEIGO",32.9615928,-117.2122389
"RIVIERA SUMMIT ROAD, SAN DEIGO",32.5719856,-117.0351472
"PINE NEELDES DRIVE, SAN DEIGO",32.9477151,-117.2565985
"NORTHRUP DRIVE, SAN DEIGO",32.901031,-117.160568
"CALLE MEJILLONES  , SAN DEIGO",32.9161179,-117.2221935
"GARDENA AVENUE, SAN DEIGO",32.7767263,-117.1975345
"LAKE MURRAY BIKE PAT  , SAN DEIGO",32.7903697,-117.0420086
"CALLE SAUCILLO  , SAN DEIGO",32.9971749,-117.0686209
"LANDSDALE DRIVE, SAN DEIGO",32.9593609,-117.2157198
"BRIDGEVIEW DRIVE, SAN DEIGO",32.7212163,-117.1156013
"ENRICO FERMI PLACE, SAN DEIGO",32.558446,-116.9254648
"GREENWICH DRIVE, SAN DEIGO",32.8537868,-117.1840721
"KLEEFELD AV  AVENUE, SAN DEIGO",32.829957,-117.1988177
"MT ACLARE AVENUE, SAN DEIGO",32.8072324,-117.1790316
"COLDWELL LANE, SAN DEIGO",32.5808622,-117.0474306
"CAMINO DEL RIO  , SAN DEIGO",32.7713532,-117.1295335
"GROSSMONT COLLEGE  , SAN DEIGO",32.7447443,-116.9422628
"GREEN VALLEY COURT, SAN DEIGO",32.9249981,-117.0369933
"VIA DE LA AMISTAD  , SAN DEIGO",32.5528646,-116.9341496
"ROCK PLACE, SAN DEIGO",32.7519154,-117.0652001
"DALBY PLACE, SAN DEIGO",32.9264579,-117.1303199
"MANDAN WAY, SAN DEIGO",32.8324424,-117.2172106
"11TH  , SAN DEIGO",32.7152044,-117.1547046
"CAMINO ISLAY  , SAN DEIGO",32.8636579,-117.2149562
"WILTSIE WAY, SAN DEIGO",32.8217244,-117.1073758
"KIMSUE WAY, SAN DEIGO",32.5759435,-117.0474315
"ZASLAVSKY PLACE  , SAN DEIGO",33.0191297,-117.1231567
"BRIARCLIFF DRIVE, SAN DEIGO",32.9112489,-117.0914239
"FERN GLEN AVENUE, SAN DEIGO",32.8338487,-117.2776844
"GLIDDEN STREET, SAN DEIGO",32.7756232,-117.1745441
"VISTA LANE, SAN DEIGO",32.5618098,-117.0590409
"WODEN STREET, SAN DEIGO",32.6817502,-117.1162723
"OLIVEWOOD TERRACE, SAN DEIGO",32.7006346,-117.1161429
"MORTON WAY, SAN DEIGO",32.6710839,-117.0441556
"ORCHID WAY, SAN DEIGO",32.5805255,-117.065542
"GRIBBLE STREET, SAN DEIGO",32.7029416,-117.0342734
"BLUE CYPRESS DRIVE, SAN DEIGO",32.926557,-117.0776875
"SR-905  , SAN DEIGO",32.5643281,-117.079142
"DEER PARK WAY, SAN DEIGO",32.9574616,-117.1967496
"NOB AVENUE, SAN DEIGO",32.9484756,-117.2597182
"LIEDER DRIVE, SAN DEIGO",32.5735358,-117.0880669
"CAMTO GANDARA  , SAN DEIGO",32.854088,-117.233832
"ABUELA DRIVE, SAN DEIGO",32.8240602,-117.0969929
"SOUTHVIEW DRIVE, SAN DEIGO",32.810917,-117.2119121
"ALICE STREET, SAN DEIGO",32.7608554,-117.0717728
"MONTERERY PARK  , SAN DEIGO",32.5681226,-117.0701169
"VIA DOMINIQUE  , SAN DEIGO",32.8289323,-117.0819585
"COPPERWIND LANE, SAN DEIGO",32.9621185,-117.1619579
"CAM DEL RIO S  , SAN DEIGO",32.7713532,-117.1295335
"VOLTAIRE  , SAN DEIGO",32.7441429,-117.2350978
"LA JOLLA CORONA COURT, SAN DEIGO",32.8178872,-117.2647279
"CARMEL PARK DRIVE, SAN DEIGO",32.94221,-117.2286039
"OAKS DRIVE, SAN DEIGO",33.0332972,-117.0571898
"ESPLANADE COURT, SAN DEIGO",32.8700999,-117.2148748
"VIEWPOINT DRIVE, SAN DEIGO",32.6780615,-117.0524435
